transmission_line_id,transmission_circuit_id,owner,province,operating_region,number_of_circuits,current_type,line_segment_length_km,line_segment_length_mi,line_length_km,line_length_mi,voltage,reactance,ttc_summer,ttc_winter,network_node_name_starting,latitude_starting,longitude_starting,network_node_code_starting,network_node_name_ending,latitude_ending,longitude_ending,network_node_code_ending,notes
36156,HF1-HF2,Brookfield Renewable Energy,QC,Quebec,1,ac,30.78,19.0,30.78,19.0,120,12.95,107,118,High Falls,45.5957779,-76.3380325,QC_HIF_GSS,Masson-Nord,45.5454175,-75.4213652,QC_MSN_DSS,
36157,L1100,Hydro-QuÃƒÂ©bec Transmission,QC,Quebec,1,ac,68.4,42.222,68.4,42.222,120,28.78,107,118,Paugan,45.810699549999995,-75.9328932541377,QC_PAU_GSS,Maniwaki,46.3778839,-75.9807967,QC_MNI_DSS,
36158,L1101,Hydro-QuÃƒÂ©bec Transmission,QC,Quebec,1,ac,4.4,2.716,65.94,40.704,120,27.74,107,118,Interconnexion-Maclaren,45.438993499999995,-72.7591992,QC_INM_SWS,Buckingham,45.5864671,-75.4168252,QC_BUC_DSS,
36159,L1101,Hydro-QuÃƒÂ©bec Transmission,QC,Quebec,1,ac,11.4,7.037,65.94,40.704,120,27.74,107,118,Buckingham,45.5864671,-75.4168252,QC_BUC_DSS,FPS Canada Inc,45.33731135937499,-73.0162269187876,QC_FPS_ISS,
36160,L1101,Hydro-QuÃƒÂ©bec Transmission,QC,Quebec,1,ac,13.75,8.488,65.94,40.704,120,27.74,107,118,Templeton,45.4983669,-75.6082192,QC_TMP_DSS,Interconnexion-Maclaren,45.438993499999995,-72.7591992,QC_INM_SWS,
36161,L1101,Hydro-QuÃƒÂ©bec Transmission,QC,Quebec,1,ac,18.15,11.204,65.94,40.704,120,27.74,107,118,Erco Mondial Buckingham,45.4999454375,-73.14000367515033,QC_ERC_ISS,Interconnexion-Maclaren,45.438993499999995,-72.7591992,QC_INM_SWS,
36162,L1101,Hydro-QuÃƒÂ©bec Transmission,QC,Quebec,1,ac,17.1,10.556,65.94,40.704,120,27.74,107,118,Thurso-Papineau,45.598185,-75.246048,QC_THU_DSS,Petite-Nation,45.8525649,-75.12670561529993,QC_PTN_TSS,
36163,L1101,Hydro-QuÃƒÂ©bec Transmission,QC,Quebec,1,ac,1.14,0.704,65.94,40.704,120,27.74,107,118,FPS Canada Inc,45.33731135937499,-73.0162269187876,QC_FPS_ISS,Thurso-Papineau,45.598185,-75.246048,QC_THU_DSS,Thurso renamed to Thurso-Papineau
36164,L1102,Hydro-QuÃƒÂ©bec Transmission,QC,Quebec,2,ac,0.55,0.34,24.2,14.938,120,10.18,107,118,Gatineau,45.4277659,-75.710976,QC_GAT_DSS,Bowater Gatineau,52.2067646,-71.29033654999999,QC_BGT_ISS,
36165,L1102,Hydro-QuÃƒÂ©bec Transmission,QC,Quebec,2,ac,3.85,2.377,24.2,14.938,120,10.18,107,118,Touraine,45.493909650000006,-75.734663440555,QC_TRN_DSS,Gatineau,45.4277659,-75.710976,QC_GAT_DSS,
36167,L1102,Hydro-QuÃƒÂ©bec Transmission,QC,Quebec,1,ac,6.05,3.735,24.2,14.938,120,10.18,107,118,Gatineau,45.4277659,-75.710976,QC_GAT_DSS,Templeton,45.4983669,-75.6082192,QC_TMP_DSS,
36168,L1103,Hydro-QuÃƒÂ©bec Transmission,QC,Quebec,1,ac,4.4,2.716,4.4,2.716,120,1.85,107,118,Touraine,45.493909650000006,-75.734663440555,QC_TRN_DSS,Bowater Gatineau,52.2067646,-71.29033654999999,QC_BGT_ISS,
36173,L1105,Hydro-QuÃƒÂ©bec Transmission,QC,Quebec,1,ac,0.22,0.136,6.82,4.21,120,2.87,107,118,Rapides-Farmers,48.06983785,-72.79647161990064,QC_RPF_GSS,Limbour,45.49444105,-75.75639677251989,QC_LMB_DSS,
36174,L1105,Hydro-QuÃƒÂ©bec Transmission,QC,Quebec,1,ac,1.65,1.019,6.82,4.21,120,2.87,107,118,Chelsea,45.5031737,-75.808023,QC_CHL_GSS,Rapides-Farmers,48.06983785,-72.79647161990064,QC_RPF_GSS,
36175,L1105,Hydro-QuÃƒÂ©bec Transmission,QC,Quebec,1,ac,4.95,3.056,6.82,4.21,120,2.87,107,118,Limbour,45.49444105,-75.75639677251989,QC_LMB_DSS,Touraine,45.493909650000006,-75.734663440555,QC_TRN_DSS,
36177,L1107,Hydro-QuÃƒÂ©bec Transmission,QC,Quebec,1,ac,22.8,14.074,22.8,14.074,120,9.59,107,118,Rapides-Farmers,48.06983785,-72.79647161990064,QC_RPF_GSS,Wakefield,45.639968,-75.92926,QC_WKF_DSS,
36178,L1108,Hydro-QuÃƒÂ©bec Transmission,QC,Quebec,1,ac,11.4,7.037,34.2,21.111,120,14.39,107,118,Wakefield,45.639968,-75.92926,QC_WKF_DSS,Paugan,45.810699549999995,-75.9328932541377,QC_PAU_GSS,
36180,L1109,Hydro-QuÃƒÂ©bec Transmission,QC,Quebec,1,ac,3.3,2.037,3.3,2.037,120,1.39,107,118,Lucerne,45.7562723,-75.7300712,QC_LUC_SWS,Gamelin,45.51523015,-73.55991655381047,QC_GAM_DSS,
36181,L1110,Hydro-QuÃƒÂ©bec Transmission,QC,Quebec,1,ac,2.28,1.407,2.28,1.407,120,0.96,107,118,Cadieux,45.4313481,-74.0218419,QC_CDX_DSS,Bryson,45.6772459,-76.6217075,QC_BRY_GSS,
36182,L1111,Hydro-QuÃƒÂ©bec Transmission,QC,Quebec,1,ac,28.5,17.593,28.5,17.593,120,11.99,107,118,Petite-Nation,45.8525649,-75.12670561529993,QC_PTN_TSS,Calumet,45.649868,-74.6315694,QC_CAL_DSS,
36183,L1112,Hydro-QuÃƒÂ©bec Transmission,QC,Quebec,1,ac,17.1,10.556,17.1,10.556,120,7.19,107,118,Mont-Laurier,46.5524071,-75.4968899,QC_MLR_DSS,Lac-des-ÃƒÅ½les,46.478270225,-75.41748538097532,QC_LDI_DSS,
36184,L1113,Hydro-QuÃƒÂ©bec Transmission,QC,Quebec,2,ac,28.5,17.593,28.5,17.593,120,11.99,107,118,Lucerne,45.7562723,-75.7300712,QC_LUC_SWS,Quyon,45.5204631,-76.2302306,QC_QUY_TSS,
36185,L1114,Hydro-QuÃƒÂ©bec Transmission,QC,Quebec,1,ac,1.65,1.019,1.65,1.019,120,0.69,107,118,Rapides-Farmers,48.06983785,-72.79647161990064,QC_RPF_GSS,Chelsea,45.5031737,-75.808023,QC_CHL_GSS,
36186,L1115,Hydro-QuÃƒÂ©bec Transmission,QC,Quebec,1,ac,7.7,4.753,7.7,4.753,120,3.24,107,118,Glenwood,45.39488605,-75.83248403612015,QC_GLN_DSS,Lucerne,45.7562723,-75.7300712,QC_LUC_SWS,
36187,L1116,Hydro-QuÃƒÂ©bec Transmission,QC,Quebec,1,ac,1.65,1.019,1.65,1.019,120,0.69,107,118,Val-TÃƒÂ©treau,45.463666296875004,-73.9791320185306,QC_VTR_DSS,Hull-2,45.42161199464099,-75.72128234552005,QC_HL2_GSS,
36188,L1117,Hydro-QuÃƒÂ©bec Transmission,QC,Quebec,2,ac,14.4,8.889,32.775,20.231,120,13.79,107,118,Dorion,45.3863926,-74.0084813,QC_DRN_DSS,Coteau-du-Lac,45.2963957,-74.1782005,QC_CDL_DSS,line name assumed
36189,L1117,Hydro-QuÃƒÂ©bec Transmission,QC,Quebec,1,ac,18.375,11.343,32.775,20.231,120,13.79,107,118,Vaudreuil-Soulanges,45.3781798,-74.2292199,QC_VDS_DSS,Dorion,45.3863926,-74.0084813,QC_DRN_DSS,
36190,L1118,Hydro-QuÃƒÂ©bec Transmission,QC,Quebec,1,ac,22.8,14.074,59.55,36.759,120,25.05,107,118,Calumet,45.649868,-74.6315694,QC_CAL_DSS,Lachute,45.6560478,-74.3401388,QC_LCT_DSS,
36191,L1118,Hydro-QuÃƒÂ©bec Transmission,QC,Quebec,1,ac,28.875,17.824,59.55,36.759,120,25.05,107,118,SGL Canada,47.67965976250001,-71.71743133897033,QC_SGL_ISS,Lafontaine,45.8116516,-74.014184,QC_LAF_TSS,
36192,L1118,Hydro-QuÃƒÂ©bec Transmission,QC,Quebec,1,ac,7.875,4.861,59.55,36.759,120,25.05,107,118,Lachute,45.6560478,-74.3401388,QC_LCT_DSS,SGL Canada,47.67965976250001,-71.71743133897033,QC_SGL_ISS,
36193,L1119,Hydro-QuÃƒÂ©bec Transmission,QC,Quebec,1,ac,21.0,12.963,60.375,37.269,120,25.4,107,118,Paquin,47.6329897,-79.3132339,QC_PAQ_DSS,Achigan,45.8047978,-71.1489039,QC_ACH_DSS,
36194,L1119,Hydro-QuÃƒÂ©bec Transmission,QC,Quebec,1,ac,18.375,11.343,60.375,37.269,120,25.4,107,118,Lafontaine,45.8116516,-74.014184,QC_LAF_TSS,Paquin,47.6329897,-79.3132339,QC_PAQ_DSS,
36195,L1119,Hydro-QuÃƒÂ©bec Transmission,QC,Quebec,1,ac,21.0,12.963,60.375,37.269,120,25.4,107,118,Achigan,45.8047978,-71.1489039,QC_ACH_DSS,Saint-Lin,45.897741,-73.7574166,QC_SLI_DSS,
36197,L1121,Hydro-QuÃƒÂ©bec Transmission,QC,Quebec,1,ac,26.25,16.204,86.625,53.472,120,36.44,107,118,Lafontaine,45.8116516,-74.014184,QC_LAF_TSS,Lachute,45.6560478,-74.3401388,QC_LCT_DSS,
36200,L1122,Hydro-QuÃƒÂ©bec Transmission,QC,Quebec,1,ac,5.25,3.241,19.425,11.991,120,8.17,107,118,Paquin,47.6329897,-79.3132339,QC_PAQ_DSS,Arthur-Buies,48.43052955,-68.52607680311249,QC_ARB_DSS,
36201,L1122,Hydro-QuÃƒÂ©bec Transmission,QC,Quebec,1,ac,2.625,1.62,19.425,11.991,120,8.17,107,118,Saint-JÃƒÂ©rÃƒÂ´me,46.1245181,-72.71443645,QC_SJR_DSS,Cascades Groupe Papiers,48.092441925,-68.19796382848986,QC_CGP_ISS,
36202,L1122,Hydro-QuÃƒÂ©bec Transmission,QC,Quebec,1,ac,7.875,4.861,19.425,11.991,120,8.17,107,118,Rolland,46.6644243,-76.09036648232481,QC_ROL_DSS,Lafontaine,45.8116516,-74.014184,QC_LAF_TSS,
36203,L1122,Hydro-QuÃƒÂ©bec Transmission,QC,Quebec,1,ac,1.05,0.648,19.425,11.991,120,8.17,107,118,Cascades Groupe Papiers,48.092441925,-68.19796382848986,QC_CGP_ISS,Rolland,46.6644243,-76.09036648232481,QC_ROL_DSS,
36204,L1122,Hydro-QuÃƒÂ©bec Transmission,QC,Quebec,1,ac,2.625,1.62,19.425,11.991,120,8.17,107,118,Arthur-Buies,48.43052955,-68.52607680311249,QC_ARB_DSS,Saint-JÃƒÂ©rÃƒÂ´me,46.1245181,-72.71443645,QC_SJR_DSS,
36205,L1123,Hydro-QuÃƒÂ©bec Transmission,QC,Quebec,1,ac,28.5,17.593,28.5,17.593,120,11.99,107,118,Notre-Dame-du-Laus,46.0899,-75.62439,QC_NDL_DSS,High Falls,45.5957779,-76.3380325,QC_HIF_GSS,
36206,L1124,Hydro-QuÃƒÂ©bec Transmission,QC,Quebec,1,ac,26.25,16.204,26.25,16.204,120,11.04,107,118,Contrecoeur,45.8573781,-73.2374307,QC_CTC_DSS,Sorel,46.044404,-73.104744,QC_SOR_DSS,
36207,L1125,Hydro-QuÃƒÂ©bec Transmission,QC,Quebec,1,ac,39.9,24.63,39.9,24.63,120,16.79,107,118,Notre-Dame-du-Laus,46.0899,-75.62439,QC_NDL_DSS,Lac-des-ÃƒÅ½les,46.478270225,-75.41748538097532,QC_LDI_DSS,
36209,L1127,Hydro-QuÃƒÂ©bec Transmission,QC,Quebec,1,ac,18.375,11.343,34.125,21.065,120,14.36,107,118,Paquin,47.6329897,-79.3132339,QC_PAQ_DSS,Lafontaine,45.8116516,-74.014184,QC_LAF_TSS,
36210,L1127,Hydro-QuÃƒÂ©bec Transmission,QC,Quebec,1,ac,15.75,9.722,34.125,21.065,120,14.36,107,118,Doc-Grignon,46.107985625,-71.95703196611282,QC_DOG_DSS,Paquin,47.6329897,-79.3132339,QC_PAQ_DSS,
36213,L1130,Hydro-QuÃƒÂ©bec Transmission,QC,Quebec,1,ac,5.7,3.519,5.7,3.519,120,2.4,107,118,Bryson,45.6772459,-76.6217075,QC_BRY_GSS,Emballages Smurfit-Stone,46.15048175,-73.63511070060127,QC_ESS_ISS,
36214,L1131,Hydro-QuÃƒÂ©bec Transmission,QC,Quebec,1,ac,7.0,4.321,7.0,4.321,120,2.95,107,118,Les CÃƒÂ¨dres,47.089184875,-71.87028948625995,QC_LCS_GSS,Dorion,45.3863926,-74.0084813,QC_DRN_DSS,
36215,L1132,Hydro-QuÃƒÂ©bec Transmission,QC,Quebec,1,ac,18.375,11.343,18.375,11.343,120,7.73,107,118,Lachute,45.6560478,-74.3401388,QC_LCT_DSS,Rigaud,45.4794481,-74.3019608,QC_RIG_DSS,
36216,L1133,Hydro-QuÃƒÂ©bec Transmission,QC,Quebec,1,ac,18.375,11.343,18.375,11.343,120,7.73,107,118,Saint-Polycarpe,45.3021238,-74.3041891,QC_SPL_DSS,Rigaud,45.4794481,-74.3019608,QC_RIG_DSS,
36217,L1135,Hydro-QuÃƒÂ©bec Transmission,QC,Quebec,1,ac,7.98,4.926,7.98,4.926,120,3.36,107,118,Duvernay,45.5935503,-73.6699909,QC_DUV_TSS,Landry,45.2750278,-74.0968456,QC_LDY_DSS,
36218,L1136,Hydro-QuÃƒÂ©bec Transmission,QC,Quebec,1,ac,3.192,1.97,11.97,7.389,120,5.04,107,118,Duvernay,45.5935503,-73.6699909,QC_DUV_TSS,Saint-FranÃƒÂ§ois,45.843796100000006,-72.28246519999999,QC_SFR_DSS,
36219,L1136,Hydro-QuÃƒÂ©bec Transmission,QC,Quebec,1,ac,8.778,5.419,11.97,7.389,120,5.04,107,118,Saint-FranÃƒÂ§ois,45.843796100000006,-72.28246519999999,QC_SFR_DSS,Terrebonne,45.6951527,-73.6350148,QC_TER_DSS,
36220,L1137,Hydro-QuÃƒÂ©bec Transmission,QC,Quebec,1,ac,7.98,4.926,15.96,9.852,120,6.71,107,118,Sainte-Rose,45.625284,-73.7644249,QC_SRO_DSS,Renaud,46.8116645,-71.2395643,QC_RND_DSS,
36221,L1137,Hydro-QuÃƒÂ©bec Transmission,QC,Quebec,1,ac,7.98,4.926,15.96,9.852,120,6.71,107,118,Duvernay,45.5935503,-73.6699909,QC_DUV_TSS,Sainte-Rose,45.625284,-73.7644249,QC_SRO_DSS,
36225,L1141,Hydro-QuÃƒÂ©bec Transmission,QC,Quebec,1,ac,23.625,14.583,23.625,14.583,120,9.94,107,118,Chute-Hemmings,45.86243381113644,-72.44943252019252,QC_CHH_GSS,Sainte-PerpÃƒÂ©tue,46.0478466,-71.9644193,QC_SPE_DSS,
36226,L1142,Hydro-QuÃƒÂ©bec Transmission,QC,Quebec,1,ac,28.875,17.824,63.0,38.889,120,26.51,107,118,Moras,46.24014115,-72.65622771165715,QC_MOR_DSS,BÃƒÂ©cancour,46.635082,-72.151083,QC_BEC_TSS,
36227,L1142,Hydro-QuÃƒÂ©bec Transmission,QC,Quebec,1,ac,34.125,21.065,63.0,38.889,120,26.51,107,118,Sainte-PerpÃƒÂ©tue,46.0478466,-71.9644193,QC_SPE_DSS,Moras,46.24014115,-72.65622771165715,QC_MOR_DSS,
36228,L1143,Hydro-QuÃƒÂ©bec Transmission,QC,Quebec,1,ac,44.625,27.546,44.625,27.546,120,18.77,107,118,Chute-Hemmings,45.86243381113644,-72.44943252019252,QC_CHH_GSS,Asbestos,45.776623,-71.932297,QC_ASB_DSS,
36229,L1145,Hydro-QuÃƒÂ©bec Transmission,QC,Quebec,1,ac,26.25,16.204,44.0,27.16,120,18.51,107,118,Grand-PrÃƒÂ©,47.35863545824044,-73.03713858588414,QC_GRP_DSS,Charette,46.440696,-72.924156,QC_CHR_DSS,
36230,L1145,Hydro-QuÃƒÂ©bec Transmission,QC,Quebec,1,ac,1.0,0.617,44.0,27.16,120,18.51,107,118,Shawinigan-3,46.5396581,-72.7518637,QC_SH3_GSS,Leman,49.2577153,-69.5450717,QC_LMN_SWS,
36231,L1145,Hydro-QuÃƒÂ©bec Transmission,QC,Quebec,1,ac,1.0,0.617,44.0,27.16,120,18.51,107,118,Leman,49.2577153,-69.5450717,QC_LMN_SWS,Shawinigan-2,46.5396581,-72.7518637,QC_SH2_GSS,Line name assumed
36232,L1145,Hydro-QuÃƒÂ©bec Transmission,QC,Quebec,1,ac,15.75,9.722,44.0,27.16,120,18.51,107,118,Charette,46.440696,-72.924156,QC_CHR_DSS,Shawinigan-3,46.5396581,-72.7518637,QC_SH3_GSS,
36233,L1146,Hydro-QuÃƒÂ©bec Transmission,QC,Quebec,1,ac,34.2,21.111,34.2,21.111,120,14.39,107,118,Quyon,45.5204631,-76.2302306,QC_QUY_TSS,Paugan,45.810699549999995,-75.9328932541377,QC_PAU_GSS,
36234,L1147,Hydro-QuÃƒÂ©bec Transmission,QC,Quebec,1,ac,1.35,0.833,1.8,1.111,120,0.76,107,118,Sorel,46.044404,-73.104744,QC_SOR_DSS,Forges-de-Sorel,50.49630352416842,-71.04527738242362,QC_FGS_ISS,
36235,L1147,Hydro-QuÃƒÂ©bec Transmission,QC,Quebec,1,ac,0.45,0.278,1.8,1.111,120,0.76,107,118,Forges-de-Sorel,50.49630352416842,-71.04527738242362,QC_FGS_ISS,GEC-Alstom-Fagan,45.780979775,-72.77588137690523,QC_GEC_ISS,
36236,L1148,Hydro-QuÃƒÂ©bec Transmission,QC,Quebec,1,ac,2.5,1.543,2.5,1.543,120,1.05,107,118,Leman,49.2577153,-69.5450717,QC_LMN_SWS,Almaville,46.5306903,-72.75655589911258,QC_ALV_DSS,Line name assumed
36242,L1152,Hydro-QuÃƒÂ©bec Transmission,QC,Quebec,1,ac,1.05,0.648,40.425,24.954,120,17.01,107,118,Marcotte,46.7807744,-73.2234448,QC_MAR_DSS,Chute-Hemmings,45.86243381113644,-72.44943252019252,QC_CHH_GSS,
36243,L1152,Hydro-QuÃƒÂ©bec Transmission,QC,Quebec,1,ac,39.375,24.306,40.425,24.954,120,17.01,107,118,Chute-Hemmings,45.86243381113644,-72.44943252019252,QC_CHH_GSS,Yamaska,46.004355,-72.913513,QC_YAM_DSS,
36244,L1153,Hydro-QuÃƒÂ©bec Transmission,QC,Quebec,1,ac,21.0,12.963,21.0,12.963,120,8.83,107,118,Sorel-Sud,46.0428486,-73.1148817,QC_SRS_DSS,Yamaska,46.004355,-72.913513,QC_YAM_DSS,
36245,L1155,Hydro-QuÃƒÂ©bec Transmission,QC,Quebec,1,ac,7.0,4.321,7.0,4.321,120,2.95,107,118,Trois-RiviÃƒÂ¨res,48.339185625,-68.41265826613159,QC_TRR_SWS,Kruger Inc Trois-RiviÃƒÂ¨res,46.10469280152944,-74.14605010105035,QC_KRT_ISS,
36246,L1156,Hydro-QuÃƒÂ©bec Transmission,QC,Quebec,1,ac,7.98,4.926,15.96,9.852,120,6.71,107,118,Sainte-Rose,45.625284,-73.7644249,QC_SRO_DSS,Boulevard-Labelle,45.999177851915974,-74.20861664582178,QC_BLL_DSS,
36250,L1159,Hydro-QuÃƒÂ©bec Transmission,QC,Quebec,1,ac,23.625,14.583,37.8,23.333,120,15.9,107,118,Kingsey,45.857978,-72.069283,QC_KSY_TSS,Arthabaska,45.9965832,-71.9875776,QC_ART_DSS,
36251,L1159,Hydro-QuÃƒÂ©bec Transmission,QC,Quebec,1,ac,13.125,8.102,37.8,23.333,120,15.9,107,118,Arthabaska,45.9965832,-71.9875776,QC_ART_DSS,Bois-Francs,45.49389955,-73.73277019090784,QC_BSF_DSS,
36252,L1159,Hydro-QuÃƒÂ©bec Transmission,QC,Quebec,1,ac,1.05,0.648,37.8,23.333,120,15.9,107,118,Rosiers,48.8562821,-64.2010241,QC_RSR_DSS,Kingsey,45.857978,-72.069283,QC_KSY_TSS,Line name assumed
36253,L1160,Hydro-QuÃƒÂ©bec Transmission,QC,Quebec,1,ac,26.25,16.204,26.25,16.204,120,11.04,107,118,Chambly,45.4483467,-73.2936944,QC_CHY_DSS,Saint-CÃƒÂ©saire,46.014716175,-74.106413725,QC_SCS_DSS,
36254,L1161,Hydro-QuÃƒÂ©bec Transmission,QC,Quebec,1,ac,10.5,6.481,15.75,9.722,120,6.63,107,118,Varennes,45.6834691,-73.4362737,QC_VRN_DSS,IREQ,45.6208649,-73.3791213,QC_IRQ_ISS,
36255,L1161,Hydro-QuÃƒÂ©bec Transmission,QC,Quebec,1,ac,5.25,3.241,15.75,9.722,120,6.63,107,118,Institute-de-Recherche,45.4742689,-73.5998146,QC_IDR_ISS,Pierre Boucher,45.6125338,-73.4565642,QC_PBO_DSS,
36256,L1162,Hydro-QuÃƒÂ©bec Transmission,QC,Quebec,1,ac,1.05,0.648,25.725,15.88,120,10.82,107,118,Praxair Canada Contrecoeur,46.84941989415098,-72.32114898563943,QC_PRX_ISS,Argonal Inc,52.70491623120477,-72.78179375193741,QC_ARG_ISS,
36257,L1162,Hydro-QuÃƒÂ©bec Transmission,QC,Quebec,1,ac,5.25,3.241,25.725,15.88,120,10.82,107,118,Argonal Inc,52.70491623120477,-72.78179375193741,QC_ARG_ISS,Contrecoeur,45.8573781,-73.2374307,QC_CTC_DSS,
36258,L1162,Hydro-QuÃƒÂ©bec Transmission,QC,Quebec,1,ac,18.375,11.343,25.725,15.88,120,10.82,107,118,Varennes,45.6834691,-73.4362737,QC_VRN_DSS,Praxair Canada Contrecoeur,46.84941989415098,-72.32114898563943,QC_PRX_ISS,
36259,L1162,Hydro-QuÃƒÂ©bec Transmission,QC,Quebec,1,ac,1.05,0.648,25.725,15.88,120,10.82,107,118,Basell Canada Inc,46.5191295,-70.7070635,QC_BAS_ISS,Varennes,45.6834691,-73.4362737,QC_VRN_DSS,Line name assumed
36265,L1165,Hydro-QuÃƒÂ©bec Transmission,QC,Quebec,1,ac,3.192,1.97,3.192,1.97,120,1.34,107,118,Aqueduc,45.439324368280325,-73.59722016511155,QC_AQD_TSS,Hadley,46.1049357,-75.83250776190172,QC_HAD_DSS,
36267,L1167,Hydro-QuÃƒÂ©bec Transmission,QC,Quebec,1,ac,18.375,11.343,18.375,11.343,120,7.73,107,118,Lambton,45.8385077,-71.0910689,QC_LAM_DSS,Saint-Ãƒâ€°variste,46.018643749999995,-74.16471025000001,QC_SEV_DSS,
36268,L1168,Hydro-QuÃƒÂ©bec Transmission,QC,Quebec,1,ac,42.0,25.926,99.75,61.574,120,41.97,100,110,MÃƒÂ©gantic,46.84625857420376,-71.9345345494974,QC_MEG_DSS,Lambton,45.8385077,-71.0910689,QC_LAM_DSS,
36269,L1168,Hydro-QuÃƒÂ©bec Transmission,QC,Quebec,1,ac,57.75,35.648,99.75,61.574,120,41.97,100,110,Weedon,45.7016827,-71.4655195,QC_WDN_DSS,MÃƒÂ©gantic,46.84625857420376,-71.9345345494974,QC_MEG_DSS,
36270,L1169,Hydro-QuÃƒÂ©bec Transmission,QC,Quebec,1,ac,18.375,11.343,18.375,11.343,120,7.73,107,118,Cleveland,41.4943941196557,-81.61842511271446,QC_CLV_DSS,Cowansville,45.2076125,-72.7479195,QC_COW_DSS,
36271,L1171,Hydro-QuÃƒÂ©bec Transmission,QC,Quebec,1,ac,1.05,0.648,20.475,12.639,120,8.61,107,118,Domtar Windsor,45.56677125,-71.98417093222562,QC_DOM_ISS,Des Cantons,46.414044,-70.5966801,QC_DEC_TSS,
36272,L1171,Hydro-QuÃƒÂ©bec Transmission,QC,Quebec,1,ac,1.05,0.648,20.475,12.639,120,8.61,107,118,Windsor,45.5697799,-72.0034954,QC_WND_DSS,Domtar Windsor,45.56677125,-71.98417093222562,QC_DOM_ISS,
36273,L1171,Hydro-QuÃƒÂ©bec Transmission,QC,Quebec,1,ac,5.25,3.241,20.475,12.639,120,8.61,107,118,Bromptonville,45.4749156,-71.9428879,QC_BRO_DSS,Kruger Inc Bromptonville,46.33019326768629,-75.75943963403357,QC_KRB_ISS,
36274,L1171,Hydro-QuÃƒÂ©bec Transmission,QC,Quebec,1,ac,13.125,8.102,20.475,12.639,120,8.61,107,118,Kruger Inc Bromptonville,46.33019326768629,-75.75943963403357,QC_KRB_ISS,Windsor,45.5697799,-72.0034954,QC_WND_DSS,
36275,L1173,Hydro-QuÃƒÂ©bec Transmission,QC,Quebec,1,ac,22.8,14.074,22.8,14.074,120,9.59,107,118,Wyman,45.5342316,-76.2997241,QC_WYM_DSS,Cadieux,45.4313481,-74.0218419,QC_CDX_DSS,
36280,L1175,Hydro-QuÃƒÂ©bec Transmission,QC,Quebec,1,ac,10.0,6.173,44.7,27.593,120,18.81,107,118,Sherbrooke,45.403271,-71.889038,QC_SHR_TSS,Bromptonville,45.4749156,-71.9428879,QC_BRO_DSS,
36281,L1175,Hydro-QuÃƒÂ©bec Transmission,QC,Quebec,1,ac,31.5,19.444,44.7,27.593,120,18.81,107,118,Bromptonville,45.4749156,-71.9428879,QC_BRO_DSS,Cascades Canada East Angus,47.30705520000001,-71.11096901395945,QC_CCE_ISS,
36282,L1175,Hydro-QuÃƒÂ©bec Transmission,QC,Quebec,1,ac,3.2,1.975,44.7,27.593,120,18.81,107,118,Ville de Sherbrooke Orford,46.64058262499999,-71.77453975,QC_VSO_DSS,Sherbrooke,45.403271,-71.889038,QC_SHR_TSS,
36283,L1176,Hydro-QuÃƒÂ©bec Transmission,QC,Quebec,1,ac,3.99,2.463,7.98,4.926,120,3.36,107,118,Rockfield,45.43964207582635,-73.65782219435026,QC_RCK_DSS,Aqueduc,45.439324368280325,-73.59722016511155,QC_AQD_TSS,
36284,L1176,Hydro-QuÃƒÂ©bec Transmission,QC,Quebec,1,ac,3.99,2.463,7.98,4.926,120,3.36,107,118,Hampstead,45.4816781,-73.647192,QC_HAM_DSS,Rockfield,45.43964207582635,-73.65782219435026,QC_RCK_DSS,
36287,L1179,Hydro-QuÃƒÂ©bec Transmission,QC,Quebec,1,ac,10.5,6.481,21.0,12.963,120,8.83,107,118,Duvernay,45.5935503,-73.6699909,QC_DUV_TSS,Mascouche,45.7453521,-73.6005591,QC_MAS_DSS,
36288,L1179,Hydro-QuÃƒÂ©bec Transmission,QC,Quebec,1,ac,5.25,3.241,21.0,12.963,120,8.83,107,118,Mascouche,45.7453521,-73.6005591,QC_MAS_DSS,Pierre-Le Gardeur,45.7188859,-73.51726880996449,QC_PLG_TSS,
36289,L1179,Hydro-QuÃƒÂ©bec Transmission,QC,Quebec,1,ac,5.25,3.241,21.0,12.963,120,8.83,107,118,Mascouche,45.7453521,-73.6005591,QC_MAS_DSS,Terrebonne,45.6951527,-73.6350148,QC_TER_DSS,
36290,L1180,Hydro-QuÃƒÂ©bec Transmission,QC,Quebec,1,ac,7.875,4.861,57.75,35.648,120,24.3,107,118,Sainte-Rosalie,45.6452982,-72.8981076,QC_SRL_DSS,Casavant,46.259872900000005,-74.99497592791889,QC_CSV_DSS,
36291,L1180,Hydro-QuÃƒÂ©bec Transmission,QC,Quebec,1,ac,28.875,17.824,57.75,35.648,120,24.3,107,118,Saint-CÃƒÂ©saire,46.014716175,-74.106413725,QC_SCS_DSS,MontÃƒÂ©rÃƒÂ©gie,46.4257640625,-72.13114978374287,QC_MTR_TSS,
36292,L1180,Hydro-QuÃƒÂ©bec Transmission,QC,Quebec,1,ac,21.0,12.963,57.75,35.648,120,24.3,107,118,MontÃƒÂ©rÃƒÂ©gie,46.4257640625,-72.13114978374287,QC_MTR_TSS,Sainte-Rosalie,45.6452982,-72.8981076,QC_SRL_DSS,
36295,L1182,Hydro-QuÃƒÂ©bec Transmission,QC,Quebec,1,ac,7.875,4.861,11.55,7.13,120,4.86,107,118,Heriot,45.8842858,-72.4870998,QC_HER_TSS,Grantham,45.840759,-72.57019,QC_GRT_DSS,
36296,L1182,Hydro-QuÃƒÂ©bec Transmission,QC,Quebec,1,ac,3.675,2.269,11.55,7.13,120,4.86,107,118,Marcotte,46.7807744,-73.2234448,QC_MAR_DSS,Heriot,45.8842858,-72.4870998,QC_HER_TSS,
36297,L1183,Hydro-QuÃƒÂ©bec Transmission,QC,Quebec,1,ac,26.25,16.204,65.625,40.509,120,27.61,107,118,Bromptonville,45.4749156,-71.9428879,QC_BRO_DSS,East Angus,45.4828558,-71.6594817,QC_EAG_DSS,
36298,L1183,Hydro-QuÃƒÂ©bec Transmission,QC,Quebec,1,ac,39.375,24.306,65.625,40.509,120,27.61,107,118,East Angus,45.4828558,-71.6594817,QC_EAG_DSS,Weedon,45.7016827,-71.4655195,QC_WDN_DSS,
36299,L1184,Hydro-QuÃƒÂ©bec Transmission,QC,Quebec,1,ac,13.125,8.102,13.125,8.102,120,5.52,107,118,LAcadie,45.87919233537258,-72.53266056806714,QC_ACD_DSS,Chambly,45.4483467,-73.2936944,QC_CHY_DSS,
36302,L1187,Hydro-QuÃƒÂ©bec Transmission,QC,Quebec,1,ac,7.875,4.861,26.25,16.204,120,11.04,107,118,Granby,45.3990409,-72.721834,QC_GRY_DSS,Cleveland,41.4943941196557,-81.61842511271446,QC_CLV_DSS,
36303,L1187,Hydro-QuÃƒÂ©bec Transmission,QC,Quebec,1,ac,18.375,11.343,26.25,16.204,120,11.04,107,118,Saint-CÃƒÂ©saire,46.014716175,-74.106413725,QC_SCS_DSS,Granby,45.3990409,-72.721834,QC_GRY_DSS,
36306,L1189,Hydro-Sherbrooke,QC,Quebec,1,ac,3.2,1.975,11.2,6.914,120,4.71,107,118,Ville de Sherbrooke Saint-FranÃƒÂ§ois,46.514484312499995,-71.824922375,QC_VSF_DSS,Ville de Sherbrooke Galt,47.3971725,-71.47224399999999,QC_VSG_DSS,
36307,L1189,Hydro-QuÃƒÂ©bec Transmission,QC,Quebec,1,ac,4.8,2.963,11.2,6.914,120,4.71,107,118,Ville de Sherbrooke Galt,47.3971725,-71.47224399999999,QC_VSG_DSS,Ville de Sherbrooke Orford,46.64058262499999,-71.77453975,QC_VSO_DSS,
36308,L1191,Hydro-QuÃƒÂ©bec Transmission,QC,Quebec,1,ac,6.4,3.951,6.4,3.951,120,2.69,107,118,Ville de Sherbrooke Galt,47.3971725,-71.47224399999999,QC_VSG_DSS,Sherbrooke,45.403271,-71.889038,QC_SHR_TSS,
36309,L1192,Hydro-QuÃƒÂ©bec Transmission,QC,Quebec,1,ac,15.75,9.722,15.75,9.722,120,6.63,107,118,Stukely,45.321254,-72.418442,QC_STK_DSS,Waterloo,45.3441569,-72.5162169,QC_WLO_DSS,
36310,L1193,Hydro-QuÃƒÂ©bec Transmission,QC,Quebec,1,ac,18.375,11.343,18.375,11.343,120,7.73,107,118,La Prairie,45.4175472,-73.4891432,QC_LPR_TSS,Richelieu,45.4439193,-73.2488055,QC_RCH_DSS,
36311,L1194,Hydro-QuÃƒÂ©bec Transmission,QC,Quebec,1,ac,1.596,0.985,9.87,6.093,120,4.15,107,118,Viger,45.51254115,-73.55318567035573,QC_VIG_SWS,AdÃƒÂ©lard-Godbout,45.408210322449136,-73.22653178254039,QC_ADG_DSS,
36312,L1194,Hydro-QuÃƒÂ©bec Transmission,QC,Quebec,1,ac,0.399,0.246,9.87,6.093,120,4.15,107,118,AdÃƒÂ©lard-Godbout,45.408210322449136,-73.22653178254039,QC_ADG_DSS,Central-2,45.35573845,-72.00206234979936,QC_CT2_DSS,
36313,L1194,Hydro-QuÃƒÂ©bec Transmission,QC,Quebec,1,ac,7.875,4.861,9.87,6.093,120,4.15,107,118,Brossard,45.4554579,-73.4678695,QC_BRS_DSS,Viger,45.51254115,-73.55318567035573,QC_VIG_SWS,
36315,L1196,Hydro-QuÃƒÂ©bec Transmission,QC,Quebec,1,ac,1.596,0.985,1.596,0.985,120,0.67,107,118,Atwater,45.4897865,-73.5863426,QC_ATW_DSS,Maissonneuve,49.2225424,-71.3125697,QC_MNV_DSS,
36316,L1197,Hydro-QuÃƒÂ©bec Transmission,QC,Quebec,1,ac,18.375,11.343,18.375,11.343,120,7.73,107,118,Rigaud,45.4794481,-74.3019608,QC_RIG_DSS,Vaudreuil-Soulanges,45.3781798,-74.2292199,QC_VDS_DSS,
36317,L1198,Hydro-QuÃƒÂ©bec Transmission,QC,Quebec,2,ac,1.575,0.972,12.075,7.454,120,5.08,107,118,Mine Jeffrey,45.7726471,-71.95257552412112,QC_MNJ_ISS,Asbestos,45.776623,-71.932297,QC_ASB_DSS,
36318,L1198,Hydro-QuÃƒÂ©bec Transmission,QC,Quebec,2,ac,10.5,6.481,12.075,7.454,120,5.08,107,118,Asbestos,45.776623,-71.932297,QC_ASB_DSS,Rosiers,48.8562821,-64.2010241,QC_RSR_DSS,
36319,L1199,Hydro-QuÃƒÂ©bec Transmission,QC,Quebec,1,ac,0.2,0.123,15.95,9.846,120,6.71,107,118,Ville de Joliette,46.02357705,-73.44271611350774,QC_VDJ_DSS,Joliette,46.0239798,-73.4419936,QC_JLT_DSS,
36320,L1199,Hydro-QuÃƒÂ©bec Transmission,QC,Quebec,1,ac,15.75,9.722,15.95,9.846,120,6.71,107,118,Joliette,46.0239798,-73.4419936,QC_JLT_DSS,Ramezay,45.5087643,-73.55316909929684,QC_RAM_DSS,
36321,L1200,Hydro-QuÃƒÂ©bec Transmission,QC,Quebec,1,ac,6.384,3.941,6.384,3.941,120,2.69,107,118,Aqueduc,45.439324368280325,-73.59722016511155,QC_AQD_TSS,Atwater,45.4897865,-73.5863426,QC_ATW_DSS,
36322,L1204,Hydro-QuÃƒÂ©bec Transmission,QC,Quebec,1,ac,1.2,0.741,3.2,1.975,120,1.35,107,118,Royalmount,45.500762050000006,-73.66217635588133,QC_RLM_DSS,Hampstead,45.4816781,-73.647192,QC_HAM_DSS,
36323,L1204,Hydro-QuÃƒÂ©bec Transmission,QC,Quebec,1,ac,2.0,1.235,3.2,1.975,120,1.35,107,118,Laurent,47.1519,-72.2818354,QC_LRT_DSS,Royalmount,45.500762050000006,-73.66217635588133,QC_RLM_DSS,
36324,L1205,Hydro-QuÃƒÂ©bec Transmission,QC,Quebec,1,ac,21.0,12.963,36.75,22.685,120,15.46,107,118,Mercier,45.310444,-73.746051,QC_MER_DSS,La Prairie,45.4175472,-73.4891432,QC_LPR_TSS,
36325,L1205,Hydro-QuÃƒÂ©bec Transmission,QC,Quebec,1,ac,15.75,9.722,36.75,22.685,120,15.46,107,118,LÃƒÂ©ry,46.621105524432366,-72.10101044120778,QC_LRY_ISS,Mercier,45.310444,-73.746051,QC_MER_DSS,
36326,L1206,Hydro-QuÃƒÂ©bec Transmission,QC,Quebec,1,ac,21.0,12.963,52.5,32.407,120,22.09,107,118,Saint-RÃƒÂ©mi,45.8220535,-72.372265,QC_SRE_DSS,Delson,45.3748635,-73.5412607,QC_DLN_DSS,
36328,L1206,Hydro-QuÃƒÂ©bec Transmission,QC,Quebec,1,ac,15.75,9.722,52.5,32.407,120,22.09,107,118,Mercier,45.310444,-73.746051,QC_MER_DSS,Saint-RÃƒÂ©mi,45.8220535,-72.372265,QC_SRE_DSS,
36329,L1209,Hydro-QuÃƒÂ©bec Transmission,QC,Quebec,1,ac,13.125,8.102,28.875,17.824,120,12.15,107,118,La Prairie,45.4175472,-73.4891432,QC_LPR_TSS,Chambly,45.4483467,-73.2936944,QC_CHY_DSS,
36330,L1209,Hydro-QuÃƒÂ©bec Transmission,QC,Quebec,1,ac,15.75,9.722,28.875,17.824,120,12.15,107,118,Chambly,45.4483467,-73.2936944,QC_CHY_DSS,Saint-Basile,46.7565352,-71.8248449,QC_SAB_DSS,
36331,L1210,Hydro-QuÃƒÂ©bec Transmission,QC,Quebec,1,ac,3.591,2.217,3.591,2.217,120,1.51,107,118,Saint-Maxime,49.1904619,-65.62753482007003,QC_SMX_DSS,Marie-Victorin,45.56801505,-73.56919408645481,QC_MRV_DSS,
36333,L1212,Hydro-QuÃƒÂ©bec Transmission,QC,Quebec,1,ac,1.596,0.985,1.596,0.985,120,0.67,107,118,Guy,45.4953736,-73.5798383,QC_GUY_DSS,Maissonneuve,49.2225424,-71.3125697,QC_MNV_DSS,
36334,L1213,Hydro-QuÃƒÂ©bec Transmission,QC,Quebec,1,ac,21.0,12.963,42.0,25.926,120,17.67,107,118,Ormstown,45.1255418,-73.9922809,QC_ORM_DSS,Huntingdon,45.087339,-74.173851,QC_HUN_DSS,
36335,L1213,Hydro-QuÃƒÂ©bec Transmission,QC,Quebec,1,ac,21.0,12.963,42.0,25.926,120,17.67,107,118,ChÃƒÂ¢teauguay,42.10617357969873,-80.73001421112517,QC_CHG_DSS,Ormstown,45.1255418,-73.9922809,QC_ORM_DSS,
36338,L1215,Hydro-QuÃƒÂ©bec Transmission,QC,Quebec,1,ac,2.394,1.478,2.394,1.478,120,1.01,107,118,Berri,45.5151125,-73.5610756,QC_BRI_DSS,De Lorimier,45.53751455,-73.58010120996488,QC_DEL_DSS,
36339,L1218,Hydro-QuÃƒÂ©bec Transmission,QC,Quebec,1,ac,3.99,2.463,7.98,4.926,120,3.36,107,118,MontrÃƒÂ©al-Est,46.611386975,-71.60607185582857,QC_MTE_DSS,Interquisa,45.4213558,-72.33889149999999,QC_INQ_ISS,
36340,L1218,Hydro-QuÃƒÂ©bec Transmission,QC,Quebec,1,ac,3.99,2.463,7.98,4.926,120,3.36,107,118,Falconbridge LimitÃƒÂ©e MontrÃƒÂ©al-Est,45.3102056796875,-72.99559745939379,QC_FLC_ISS,MontrÃƒÂ©al-Est,46.611386975,-71.60607185582857,QC_MTE_DSS,
36343,L1225,Hydro-QuÃƒÂ©bec Transmission,QC,Quebec,1,ac,13.125,8.102,13.125,8.102,120,5.52,107,118,Delson,45.3748635,-73.5412607,QC_DLN_DSS,La Prairie,45.4175472,-73.4891432,QC_LPR_TSS,
36344,L1226,Hydro-QuÃƒÂ©bec Transmission,QC,Quebec,1,ac,3.99,2.463,3.99,2.463,120,1.68,107,118,MontrÃƒÂ©al-Est,46.611386975,-71.60607185582857,QC_MTE_DSS,Henri-Bourassa,45.5545124,-73.6682516,QC_BOU_DSS,Bourassa and Henri Bourassa treated as single station
36345,L1227,Hydro-QuÃƒÂ©bec Transmission,QC,Quebec,1,ac,7.98,4.926,7.98,4.926,120,3.36,107,118,Bout-de-lÃƒÅ½le,49.970961200000005,-72.05002239999999,QC_BDI_DSS,MontrÃƒÂ©al-Est,46.611386975,-71.60607185582857,QC_MTE_DSS,Bourassa and Henri Bourassa treated as single station
36346,L1228,Hydro-QuÃƒÂ©bec Transmission,QC,Quebec,1,ac,3.99,2.463,3.99,2.463,120,1.68,107,118,Bout-de-lÃƒÅ½le,49.970961200000005,-72.05002239999999,QC_BDI_DSS,Henri-Bourassa,45.5545124,-73.6682516,QC_BOU_DSS,Bourassa and Henri Bourassa treated as single station
36348,L1230,Hydro-QuÃƒÂ©bec Transmission,QC,Quebec,1,ac,6.384,3.941,11.172,6.896,120,4.7,107,118,Saraguay,45.5109688,-73.7495725,QC_SRG_DSS,Laurent,47.1519,-72.2818354,QC_LRT_DSS,
36349,L1230,Hydro-QuÃƒÂ©bec Transmission,QC,Quebec,1,ac,4.788,2.956,11.172,6.896,120,4.7,107,118,Laurent,47.1519,-72.2818354,QC_LRT_DSS,Mont-Royal,45.5085881,-73.5897111,QC_MTY_DSS,
36352,L1232,Hydro-QuÃƒÂ©bec Transmission,QC,Quebec,1,ac,1.197,0.739,1.197,0.739,120,0.5,107,118,Berri,45.5151125,-73.5610756,QC_BRI_DSS,Dorchester,46.81331905,-71.22569952266213,QC_DOR_DSS,
36353,L1233,Hydro-QuÃƒÂ©bec Transmission,QC,Quebec,1,ac,4.788,2.956,12.372,7.637,120,5.21,107,118,Royalmount,45.500762050000006,-73.66217635588133,QC_RLM_DSS,Mont-Royal,45.5085881,-73.5897111,QC_MTY_DSS,
36354,L1233,Hydro-QuÃƒÂ©bec Transmission,QC,Quebec,1,ac,1.2,0.741,12.372,7.637,120,5.21,107,118,Hampstead,45.4816781,-73.647192,QC_HAM_DSS,Royalmount,45.500762050000006,-73.66217635588133,QC_RLM_DSS,
36355,L1233,Hydro-QuÃƒÂ©bec Transmission,QC,Quebec,1,ac,6.384,3.941,12.372,7.637,120,5.21,107,118,Mont-Royal,45.5085881,-73.5897111,QC_MTY_DSS,Saraguay,45.5109688,-73.7495725,QC_SRG_DSS,
36356,L1235,Hydro-QuÃƒÂ©bec Transmission,QC,Quebec,1,ac,3.99,2.463,3.99,2.463,120,1.68,107,118,Saraguay,45.5109688,-73.7495725,QC_SRG_DSS,Reed,46.0531711,-71.312395,QC_REE_DSS,
36358,L1237,Hydro-QuÃƒÂ©bec Transmission,QC,Quebec,1,ac,4.788,2.956,4.788,2.956,120,2.01,107,118,Reed,46.0531711,-71.312395,QC_REE_DSS,Fleury,46.02624794833683,-74.1527865075071,QC_FLE_DSS,
36360,L1239,Hydro-QuÃƒÂ©bec Transmission,QC,Quebec,1,ac,23.625,14.583,23.625,14.583,120,9.94,107,118,Saint-RÃƒÂ©mi,45.8220535,-72.372265,QC_SRE_DSS,Napierville,45.18608,-73.4042485,QC_NPR_DSS,
36363,L1242,Hydro-QuÃƒÂ©bec Transmission,QC,Quebec,1,ac,3.2,1.975,3.2,1.975,120,1.35,107,118,Hadley,46.1049357,-75.83250776190172,QC_HAD_DSS,Atwater,45.4897865,-73.5863426,QC_ATW_DSS,
36364,L1243,Hydro-QuÃƒÂ©bec Transmission,QC,Quebec,1,ac,8.0,4.938,9.0,5.556,120,3.79,107,118,Langlois,46.728348,-70.54114,QC_LGS_TSS,Eka Chimie Canada Inc,48.752627,-75.61553880240513,QC_EKA_ISS,
36365,L1243,Hydro-QuÃƒÂ©bec Transmission,QC,Quebec,1,ac,1.0,0.617,9.0,5.556,120,3.79,107,118,Eka Chimie Canada Inc,48.752627,-75.61553880240513,QC_EKA_ISS,Larocque,45.4158769,-72.09975126183052,QC_LRQ_ISS,
36366,L1244,Hydro-QuÃƒÂ©bec Transmission,QC,Quebec,1,ac,1.596,0.985,1.596,0.985,120,0.67,107,118,Longue-Pointe,45.5780418,-73.53746749323068,QC_LGP_DSS,Notre-Dame,48.2467777,-79.0166072,QC_NDA_TSS,
36371,L1250,Hydro-QuÃƒÂ©bec Transmission,QC,Quebec,1,ac,4.8,2.963,9.588,5.919,120,4.03,107,118,Berri,45.5151125,-73.5610756,QC_BRI_DSS,Jeanne-dArc,49.067987775,-65.084416775,QC_JDA_DSS,
36372,L1250,Hydro-QuÃƒÂ©bec Transmission,QC,Quebec,1,ac,4.788,2.956,9.588,5.919,120,4.03,107,118,Jeanne-dArc,49.067987775,-65.084416775,QC_JDA_DSS,Notre-Dame,48.2467777,-79.0166072,QC_NDA_TSS,
36374,L1253,Hydro-QuÃƒÂ©bec Transmission,QC,Quebec,1,ac,7.182,4.433,7.98,4.926,120,3.36,107,118,Saint-Jean,45.21290625,-73.21942518689312,QC_SJE_DSS,Salaberry,46.0528433,-71.4328767,QC_SLB_DSS,
36375,L1253,Hydro-QuÃƒÂ©bec Transmission,QC,Quebec,1,ac,0.798,0.493,7.98,4.926,120,3.36,107,118,Salaberry,46.0528433,-71.4328767,QC_SLB_DSS,Saraguay,45.5109688,-73.7495725,QC_SRG_DSS,
36376,L1254,Hydro-QuÃƒÂ©bec Transmission,QC,Quebec,1,ac,10.374,6.404,18.354,11.33,120,7.72,107,118,Baie dUrfÃƒÂ©,46.955703875000005,-71.2756709,QC_BAU_DSS,Saint-Jean,45.21290625,-73.21942518689312,QC_SJE_DSS,
36380,L1256,Hydro-QuÃƒÂ©bec Transmission,QC,Quebec,1,ac,31.92,19.704,31.92,19.704,120,13.43,107,118,LÃƒÅ½le-Perrot,47.37783459581068,-68.92558227726458,QC_LIP_DSS,Beauharnois-Est,45.542896034776035,-73.64469635825193,QC_BEE_GSS,
36381,L1257,Hydro-QuÃƒÂ©bec Transmission,QC,Quebec,1,ac,31.92,19.704,31.92,19.704,120,13.43,107,118,Baie dUrfÃƒÂ©,46.955703875000005,-71.2756709,QC_BAU_DSS,Beauharnois-Est,45.542896034776035,-73.64469635825193,QC_BEE_GSS,
36382,L1260,Hydro-QuÃƒÂ©bec Transmission,QC,Quebec,1,ac,10.0,6.173,10.0,6.173,120,4.21,107,118,Les CÃƒÂ¨dres,47.089184875,-71.87028948625995,QC_LCS_GSS,Beauharnois-Ouest,45.53824493747812,-73.64743398518046,QC_BEO_TSS,
36384,L1262,Hydro-QuÃƒÂ©bec Transmission,QC,Quebec,1,ac,8.0,4.938,8.0,4.938,120,3.37,107,118,Langlois,46.728348,-70.54114,QC_LGS_TSS,Monseigneur-Ãƒâ€°mard,48.9533921125,-66.3494083875,QC_MGE_DSS,
36385,L1263,Hydro-QuÃƒÂ©bec Transmission,QC,Quebec,1,ac,2.5,1.543,2.5,1.543,120,1.05,107,118,Les CÃƒÂ¨dres,47.089184875,-71.87028948625995,QC_LCS_GSS,Langlois,46.728348,-70.54114,QC_LGS_TSS,
36386,L1264,Hydro-QuÃƒÂ©bec Transmission,QC,Quebec,1,ac,0.5,0.309,11.0,6.79,120,4.63,107,118,Larocque,45.4158769,-72.09975126183052,QC_LRQ_ISS,La SociÃƒÂ©tÃƒÂ© en commandite revenu Noranda,45.456908,-73.75785555,QC_LCN_ISS,
36387,L1264,Hydro-QuÃƒÂ©bec Transmission,QC,Quebec,1,ac,2.5,1.543,11.0,6.79,120,4.63,107,118,Valleyfield,45.2555575,-74.1316718,QC_VLF_DSS,Larocque,45.4158769,-72.09975126183052,QC_LRQ_ISS,
36388,L1264,Hydro-QuÃƒÂ©bec Transmission,QC,Quebec,1,ac,8.0,4.938,11.0,6.79,120,4.63,107,118,Langlois,46.728348,-70.54114,QC_LGS_TSS,Valleyfield,45.2555575,-74.1316718,QC_VLF_DSS,
36389,L1265,Hydro-QuÃƒÂ©bec Transmission,QC,Quebec,1,ac,34.125,21.065,34.125,21.065,120,14.36,107,118,Carillon,45.5672971,-74.375248,QC_CAR_GSS,Mirabel,45.6452452,-74.0731738,QC_MIR_DSS,
36390,L1266,Hydro-QuÃƒÂ©bec Transmission,QC,Quebec,1,ac,10.5,6.481,55.125,34.028,120,23.19,107,118,Sainte-ThÃƒÂ©rÃƒÂ¨se-Ouest,45.83906365,-72.5986508,QC_STO_DSS,Chomedey,45.5384715,-73.7427541,QC_CHO_TSS,
36391,L1266,Hydro-QuÃƒÂ©bec Transmission,QC,Quebec,1,ac,44.625,27.546,55.125,34.028,120,23.19,107,118,Carillon,45.5672971,-74.375248,QC_CAR_GSS,Sainte-ThÃƒÂ©rÃƒÂ¨se-Ouest,45.83906365,-72.5986508,QC_STO_DSS,
36392,L1267,Hydro-QuÃƒÂ©bec Transmission,QC,Quebec,1,ac,39.375,24.306,52.5,32.407,120,22.09,107,118,Carillon,45.5672971,-74.375248,QC_CAR_GSS,La Trappe,45.4962688,-74.0265679,QC_LTR_DSS,
36393,L1267,Hydro-QuÃƒÂ©bec Transmission,QC,Quebec,1,ac,13.125,8.102,52.5,32.407,120,22.09,107,118,La Trappe,45.4962688,-74.0265679,QC_LTR_DSS,Saint-Eustache,45.5646052,-73.8929714,QC_SEU_DSS,
36396,L1269,Hydro-QuÃƒÂ©bec Transmission,QC,Quebec,1,ac,4.5,2.778,4.5,2.778,120,1.89,107,118,Goodyear Canada,45.26995665,-74.10802095826693,QC_GOO_ISS,Valleyfield,45.2555575,-74.1316718,QC_VLF_DSS,
36397,L1270,Hydro-QuÃƒÂ©bec Transmission,QC,Quebec,1,ac,26.25,16.204,63.0,38.889,120,26.51,107,118,Saint-Chrysostome,45.1027107,-73.7599069,QC_SCH_DSS,Hemmingford,45.048424,-73.58554645874733,QC_HEM_DSS,
36398,L1270,Hydro-QuÃƒÂ©bec Transmission,QC,Quebec,1,ac,36.75,22.685,63.0,38.889,120,26.51,107,118,Saint-Louis,45.854152,-72.977715,QC_SLO_DSS,Saint-Chrysostome,45.1027107,-73.7599069,QC_SCH_DSS,
36399,L1272,Hydro-QuÃƒÂ©bec Transmission,QC,Quebec,1,ac,14.364,8.867,14.364,8.867,120,6.04,107,118,Chomedey,45.5384715,-73.7427541,QC_CHO_TSS,Fleury,46.02624794833683,-74.1527865075071,QC_FLE_DSS,
36403,L1276,Hydro-QuÃƒÂ©bec Transmission,QC,Quebec,1,ac,10.5,6.481,10.5,6.481,120,4.42,107,118,La Prairie,45.4175472,-73.4891432,QC_LPR_TSS,Saint-Maxime,49.1904619,-65.62753482007003,QC_SMX_DSS,
36408,L1279,Hydro-QuÃƒÂ©bec Transmission,QC,Quebec,1,ac,2.394,1.478,2.394,1.478,120,1.01,107,118,Atwater,45.4897865,-73.5863426,QC_ATW_DSS,Guy,45.4953736,-73.5798383,QC_GUY_DSS,
36409,L1280,Hydro-QuÃƒÂ©bec Transmission,QC,Quebec,1,ac,1.995,1.231,1.995,1.231,120,0.84,107,118,AdÃƒÂ©lard-Godbout,45.408210322449136,-73.22653178254039,QC_ADG_DSS,Dorchester,46.81331905,-71.22569952266213,QC_DOR_DSS,
36410,L1281,Hydro-QuÃƒÂ©bec Transmission,QC,Quebec,1,ac,5.187,3.202,5.187,3.202,120,2.18,107,118,Beaumont,46.8293593,-71.0105418,QC_BEM_DSS,Dorchester,46.81331905,-71.22569952266213,QC_DOR_DSS,
36412,L1283,Hydro-QuÃƒÂ©bec Transmission,QC,Quebec,1,ac,3.99,2.463,3.99,2.463,120,1.68,107,118,Beaumont,46.8293593,-71.0105418,QC_BEM_DSS,Fleury,46.02624794833683,-74.1527865075071,QC_FLE_DSS,
36419,L1288,Hydro-QuÃƒÂ©bec Transmission,QC,Quebec,1,ac,5.586,3.448,5.586,3.448,120,2.35,107,118,Chomedey,45.5384715,-73.7427541,QC_CHO_TSS,Plouffe,46.4461678,-75.5575827,QC_PLF_DSS,
36421,L1291,Hydro-QuÃƒÂ©bec Transmission,QC,Quebec,1,ac,1.0,0.617,12.5,7.716,120,5.26,107,118,Beauharnois-Ouest,45.53824493747812,-73.64743398518046,QC_BEO_TSS,Beauharnois-Est,45.542896034776035,-73.64469635825193,QC_BEE_GSS,
36422,L1291,Hydro-QuÃƒÂ©bec Transmission,QC,Quebec,1,ac,11.5,7.099,12.5,7.716,120,5.26,107,118,ChÃƒÂ¢teauguay,42.10617357969873,-80.73001421112517,QC_CHG_DSS,Beauharnois-Ouest,45.53824493747812,-73.64743398518046,QC_BEO_TSS,
36425,L1295,Hydro-QuÃƒÂ©bec Transmission,QC,Quebec,1,ac,4.788,2.956,4.788,2.956,120,2.01,107,118,Rosemont,45.5314962,-73.5973383,QC_RSM_DSS,BÃƒÂ©langer,47.421543175,-69.70177634999999,QC_BEL_TSS,
36427,L1297,Hydro-QuÃƒÂ©bec Transmission,QC,Quebec,1,ac,3.192,1.97,3.192,1.97,120,1.34,107,118,Jeanne-dArc,49.067987775,-65.084416775,QC_JDA_DSS,De Lorimier,45.53751455,-73.58010120996488,QC_DEL_DSS,
36430,L1301,Hydro-QuÃƒÂ©bec Transmission,QC,Quebec,1,ac,34.9,21.543,68.4,42.222,120,28.78,107,118,Amos,48.5718519,-78.1160856,QC_AMO_DSS,QuÃƒÂ©bec Lithium,45.5723514,-74.212398275,QC_QCL_ISS,
36431,L1301,Hydro-QuÃƒÂ©bec Transmission,QC,Quebec,1,ac,33.5,20.679,68.4,42.222,120,28.78,107,118,QuÃƒÂ©bec Lithium,45.5723514,-74.212398275,QC_QCL_ISS,Val dOr,45.67177509375,-73.82659223706119,QC_VDO_DSS,
36432,L1302,Hydro-QuÃƒÂ©bec Transmission,QC,Quebec,1,ac,5.7,3.519,5.7,3.519,120,2.4,107,118,Notre-Dame-du-Nord,47.593199,-79.487457,QC_NDN_DSS,PremiÃƒÂ¨re Chute,46.10962639122646,-73.04227727845914,QC_PRC_GSS,
36433,L1306,Hydro-QuÃƒÂ©bec Transmission,QC,Quebec,1,ac,57.0,35.185,57.0,35.185,120,23.98,107,118,Rouyn,48.2382498,-79.0201438,QC_RYN_DSS,Pandora,45.5032872,-73.5706814,QC_PND_DSS,
36434,L1308,Hydro-QuÃƒÂ©bec Transmission,QC,Quebec,1,ac,22.8,14.074,22.8,14.074,120,9.59,107,118,Louvicourt,48.0700355,-77.3807566,QC_LVT_DSS,Val dOr,45.67177509375,-73.82659223706119,QC_VDO_DSS,
36435,L1310,Hydro-QuÃƒÂ©bec Transmission,QC,Quebec,1,ac,39.9,24.63,39.9,24.63,120,16.79,107,118,Amos,48.5718519,-78.1160856,QC_AMO_DSS,Pandora,45.5032872,-73.5706814,QC_PND_DSS,
36436,L1311,Hydro-QuÃƒÂ©bec Transmission,QC,Quebec,1,ac,45.6,28.148,93.48,57.704,120,39.33,104,115,Rapide-7,48.214262,-78.32535,QC_RP7_GSS,Cadillac,45.5768358,-73.5466995,QC_CDL_GSS,
36438,L1311,Hydro-QuÃƒÂ©bec Transmission,QC,Quebec,1,ac,2.28,1.407,93.48,57.704,120,39.33,104,115,Cadillac,45.5768358,-73.5466995,QC_CDL_GSS,Pandora,45.5032872,-73.5706814,QC_PND_DSS,
36441,L1313,Hydro-QuÃƒÂ©bec Transmission,QC,Quebec,1,ac,39.9,24.63,57.0,35.185,120,23.98,107,118,Rouyn,48.2382498,-79.0201438,QC_RYN_DSS,Mine Doyon,48.26547105,-78.55017682514514,QC_MDY_ISS,
36442,L1313,Hydro-QuÃƒÂ©bec Transmission,QC,Quebec,1,ac,17.1,10.556,57.0,35.185,120,23.98,107,118,Mine Doyon,48.26547105,-78.55017682514514,QC_MDY_ISS,Pandora,45.5032872,-73.5706814,QC_PND_DSS,
36443,L1315,Hydro-QuÃƒÂ©bec Transmission,QC,Quebec,1,ac,39.9,24.63,39.9,24.63,120,16.79,107,118,Cadillac,45.5768358,-73.5466995,QC_CDL_GSS,Rapide-2,48.2205964,-78.3759423,QC_RP2_GSS,
36444,L1316,Hydro-QuÃƒÂ©bec Transmission,QC,Quebec,1,ac,28.5,17.593,28.5,17.593,120,11.99,107,118,Rapide-2,48.2205964,-78.3759423,QC_RP2_GSS,Rapide-7,48.214262,-78.32535,QC_RP7_GSS,
36445,L1317,Hydro-QuÃƒÂ©bec Transmission,QC,Quebec,1,ac,1.14,0.704,63.84,39.407,120,26.86,107,118,Senneterre,48.390458,-77.242813,QC_STR_DSS,Boralex,45.863618849999995,-72.06290590996895,QC_BLX_ISS,
36446,L1317,Hydro-QuÃƒÂ©bec Transmission,QC,Quebec,1,ac,28.5,17.593,63.84,39.407,120,26.86,107,118,Amos,48.5718519,-78.1160856,QC_AMO_DSS,Saint-Blaise,45.2113406,-73.28738,QC_SBL_DSS,
36447,L1317,Hydro-QuÃƒÂ©bec Transmission,QC,Quebec,1,ac,34.2,21.111,63.84,39.407,120,26.86,107,118,Saint-Blaise,45.2113406,-73.28738,QC_SBL_DSS,Senneterre,48.390458,-77.242813,QC_STR_DSS,
36449,L1320,Hydro-QuÃƒÂ©bec Transmission,QC,Quebec,1,ac,39.9,24.63,62.7,38.704,120,26.38,107,118,Palmarolle,48.661943,-79.200439,QC_PML_DSS,Reneault,48.4665992,-79.0408816,QC_RNT_DSS,
36450,L1320,Hydro-QuÃƒÂ©bec Transmission,QC,Quebec,1,ac,22.8,14.074,62.7,38.704,120,26.38,107,118,Reneault,48.4665992,-79.0408816,QC_RNT_DSS,Rouyn,48.2382498,-79.0201438,QC_RYN_DSS,
36451,L1321,Hydro-QuÃƒÂ©bec Transmission,QC,Quebec,1,ac,68.4,42.222,125.4,77.407,120,52.76,86,95,Amos,48.5718519,-78.1160856,QC_AMO_DSS,Coigny,48.9941119,-77.8871804,QC_COI_DSS,
36452,L1321,Hydro-QuÃƒÂ©bec Transmission,QC,Quebec,1,ac,11.4,7.037,125.4,77.407,120,52.76,86,95,Poirier,45.949524100000005,-74.18413935,QC_POI_DSS,Joutel,49.4623075,-78.3084915,QC_JOU_SWS,
36453,L1321,Hydro-QuÃƒÂ©bec Transmission,QC,Quebec,1,ac,45.6,28.148,125.4,77.407,120,52.76,86,95,Coigny,48.9941119,-77.8871804,QC_COI_DSS,Poirier,45.949524100000005,-74.18413935,QC_POI_DSS,
36454,L1322,Hydro-QuÃƒÂ©bec Transmission,QC,Quebec,1,ac,45.6,28.148,57.0,35.185,120,23.98,107,118,Rouyn,48.2382498,-79.0201438,QC_RYN_DSS,Mines Agnico-Eagle LimitÃƒÂ©e,46.881878675,-76.08101704128882,QC_MAE_ISS,
36455,L1322,Hydro-QuÃƒÂ©bec Transmission,QC,Quebec,1,ac,11.4,7.037,57.0,35.185,120,23.98,107,118,Mines Agnico-Eagle LimitÃƒÂ©e,46.881878675,-76.08101704128882,QC_MAE_ISS,Pandora,45.5032872,-73.5706814,QC_PND_DSS,
36456,L1323,Hydro-QuÃƒÂ©bec Transmission,QC,Quebec,1,ac,78.0,48.148,78.0,48.148,120,32.82,107,118,Rouyn,48.2382498,-79.0201438,QC_RYN_DSS,Rapides-des-Iles,48.3529811,-72.2176902,QC_RPI_GSS,
36458,L1325,Hydro-QuÃƒÂ©bec Transmission,QC,Quebec,1,ac,11.4,7.037,11.4,7.037,120,4.8,107,118,PremiÃƒÂ¨re Chute,46.10962639122646,-73.04227727845914,QC_PRC_GSS,Rapides-des-Iles,48.3529811,-72.2176902,QC_RPI_GSS,
36459,L1327,Hydro-QuÃƒÂ©bec Transmission,QC,Quebec,1,ac,15.4,9.506,15.4,9.506,120,6.48,107,118,Malartic-2,48.137225,-78.125153,QC_MLC_GSS,Cadillac,45.5768358,-73.5466995,QC_CDL_GSS,
36460,L1328,Hydro-QuÃƒÂ©bec Transmission,QC,Quebec,1,ac,22.0,13.58,22.8,14.074,120,9.59,107,118,Malartic-2,48.137225,-78.125153,QC_MLC_GSS,Goldex,48.089954160033415,-77.87103979325806,QC_GDX_ISS,
36461,L1328,Hydro-QuÃƒÂ©bec Transmission,QC,Quebec,1,ac,0.8,0.494,22.8,14.074,120,9.59,107,118,Goldex,48.089954160033415,-77.87103979325806,QC_GDX_ISS,Val dOr,45.67177509375,-73.82659223706119,QC_VDO_DSS,
36462,L1330,Hydro-QuÃƒÂ©bec Transmission,QC,Quebec,1,ac,84.0,51.852,108.3,66.852,120,45.56,95,104,Reneault,48.4665992,-79.0408816,QC_RNT_DSS,Abitibi Consolidated Amos,46.533029375,-72.84024622499999,QC_ACA_ISS,
36463,L1330,Hydro-QuÃƒÂ©bec Transmission,QC,Quebec,1,ac,1.5,0.926,108.3,66.852,120,45.56,95,104,Abitibi Consolidated Amos,46.533029375,-72.84024622499999,QC_ACA_ISS,Amos,48.5718519,-78.1160856,QC_AMO_DSS,
36464,L1330,Hydro-QuÃƒÂ©bec Transmission,QC,Quebec,1,ac,22.8,14.074,108.3,66.852,120,45.56,95,104,Rouyn,48.2382498,-79.0201438,QC_RYN_DSS,Reneault,48.4665992,-79.0408816,QC_RNT_DSS,
36465,L1332,Hydro-QuÃƒÂ©bec Transmission,QC,Quebec,1,ac,74.1,45.741,78.66,48.556,120,33.09,107,118,Lorrainville,47.354641,-79.351501,QC_LRV_DSS,Kipawa,46.7811942,-78.9862187,QC_KIP_DSS,
36466,L1332,Hydro-QuÃƒÂ©bec Transmission,QC,Quebec,1,ac,2.28,1.407,78.66,48.556,120,33.09,107,118,Temcell,45.743002175,-74.801211575,QC_TMC_ISS,Tembec Inc TÃƒÂ©miscaming,45.98763745,-73.99420394999999,QC_TMB_ISS,
36467,L1332,Hydro-QuÃƒÂ©bec Transmission,QC,Quebec,1,ac,2.28,1.407,78.66,48.556,120,33.09,107,118,Kipawa,46.7811942,-78.9862187,QC_KIP_DSS,Temcell,45.743002175,-74.801211575,QC_TMC_ISS,
36468,L1333,Hydro-QuÃƒÂ©bec Transmission,QC,Quebec,1,ac,22.8,14.074,22.8,14.074,120,9.59,107,118,Lorrainville,47.354641,-79.351501,QC_LRV_DSS,Rapides-des-Iles,48.3529811,-72.2176902,QC_RPI_GSS,
36469,L1335,Hydro-QuÃƒÂ©bec Transmission,QC,Quebec,1,ac,51.3,31.667,125.4,77.407,120,52.76,86,95,Quevillon,49.0083908,-76.9395233,QC_QVN_DSS,Saint-Blaise,45.2113406,-73.28738,QC_SBL_DSS,
36470,L1335,Hydro-QuÃƒÂ©bec Transmission,QC,Quebec,1,ac,74.1,45.741,125.4,77.407,120,52.76,86,95,Saint-Blaise,45.2113406,-73.28738,QC_SBL_DSS,Val dOr,45.67177509375,-73.82659223706119,QC_VDO_DSS,
36471,L1338,Hydro-QuÃƒÂ©bec Transmission,QC,Quebec,1,ac,13.68,8.444,13.68,8.444,120,5.76,107,118,Rapides-des-Iles,48.3529811,-72.2176902,QC_RPI_GSS,Rapides-des-Quinze,47.5990242,-79.4483467,QC_RPQ_GSS,
36472,L1339,Hydro-QuÃƒÂ©bec Transmission,QC,Quebec,1,ac,74.1,45.741,74.1,45.741,120,31.17,107,118,Rapides-des-Quinze,47.5990242,-79.4483467,QC_RPQ_GSS,Rapide-7,48.214262,-78.32535,QC_RP7_GSS,
36473,L1340,Hydro-QuÃƒÂ©bec Transmission,QC,Quebec,1,ac,34.2,21.111,34.2,21.111,120,14.39,107,118,Palmarolle,48.661943,-79.200439,QC_PML_DSS,Normetal,48.996438,-79.362488,QC_NMT_DSS,
36474,L1342,Hydro-QuÃƒÂ©bec Transmission,QC,Quebec,1,ac,85.5,52.778,85.5,52.778,120,35.97,107,118,Normetal,48.996438,-79.362488,QC_NMT_DSS,Mines Casa-Berardi,46.2635619375,-75.07709542064441,QC_MCB_ISS,
36475,L1346,Hydro-QuÃƒÂ©bec Transmission,QC,Quebec,1,ac,68.4,42.222,68.4,42.222,120,28.78,107,118,Mines Selbaie,45.95440356875,-74.57513461032221,QC_MNS_ISS,Joutel,49.4623075,-78.3084915,QC_JOU_SWS,
36476,L1347,Hydro-QuÃƒÂ©bec Transmission,QC,Quebec,1,ac,39.9,24.63,39.9,24.63,120,16.79,107,118,Matagami,49.7575884,-77.6300251,QC_MTG_DSS,Joutel,49.4623075,-78.3084915,QC_JOU_SWS,
36478,L1353,Hydro-QuÃƒÂ©bec Transmission,QC,Quebec,1,ac,28.875,17.824,37.653,23.243,120,15.84,107,118,Chomedey,45.5384715,-73.7427541,QC_CHO_TSS,Mirabel,45.6452452,-74.0731738,QC_MIR_DSS,
36479,L1353,Hydro-QuÃƒÂ©bec Transmission,QC,Quebec,1,ac,8.778,5.419,37.653,23.243,120,15.84,107,118,Chomedey,45.5384715,-73.7427541,QC_CHO_TSS,Sainte-ThÃƒÂ©rÃƒÂ¨se-Ouest,45.83906365,-72.5986508,QC_STO_DSS,
36480,L1354,Hydro-QuÃƒÂ©bec Transmission,QC,Quebec,1,ac,10.374,6.404,10.374,6.404,120,4.36,107,118,Chomedey,45.5384715,-73.7427541,QC_CHO_TSS,Saint-Eustache,45.5646052,-73.8929714,QC_SEU_DSS,
36481,L1355,Hydro-QuÃƒÂ©bec Transmission,QC,Quebec,1,ac,26.25,16.204,26.25,16.204,120,11.04,107,118,MontÃƒÂ©rÃƒÂ©gie,46.4257640625,-72.13114978374287,QC_MTR_TSS,Acton,45.6018427,-72.5232917,QC_ACT_DSS,
36482,L1356,Hydro-QuÃƒÂ©bec Transmission,QC,Quebec,1,ac,17.1,10.556,57.0,35.185,120,23.98,107,118,Sainte-Agathe-des-Monts,46.046072,-74.279938,QC_SAG_DSS,Ouimet,46.1699852,-74.58924317944053,QC_OMT_DSS,
36483,L1356,Hydro-QuÃƒÂ©bec Transmission,QC,Quebec,1,ac,39.9,24.63,57.0,35.185,120,23.98,107,118,Ouimet,46.1699852,-74.58924317944053,QC_OMT_DSS,Saint-Donat,46.318718,-74.221916,QC_SDN_DSS,
36486,L1358,Hydro-QuÃƒÂ©bec Transmission,QC,Quebec,1,ac,11.4,7.037,114.0,70.37,120,47.96,92,101,Ouimet,46.1699852,-74.58924317944053,QC_OMT_DSS,Grand-BrulÃƒÂ©,47.13777640824045,-73.11296058588414,QC_GRB_TSS,
36487,L1358,Hydro-QuÃƒÂ©bec Transmission,QC,Quebec,1,ac,22.8,14.074,114.0,70.37,120,47.96,92,101,LAnnonciation,47.14257566768629,-71.80092178403356,QC_LAN_DSS,Joly,46.6147745,-71.8186881,QC_JOL_DSS,
36488,L1358,Hydro-QuÃƒÂ©bec Transmission,QC,Quebec,1,ac,51.3,31.667,114.0,70.37,120,47.96,92,101,Mont-Laurier,46.5524071,-75.4968899,QC_MLR_DSS,LAnnonciation,47.14257566768629,-71.80092178403356,QC_LAN_DSS,
36489,L1358,Hydro-QuÃƒÂ©bec Transmission,QC,Quebec,1,ac,28.5,17.593,114.0,70.37,120,47.96,92,101,Joly,46.6147745,-71.8186881,QC_JOL_DSS,Ouimet,46.1699852,-74.58924317944053,QC_OMT_DSS,
36490,L1359,Hydro-QuÃƒÂ©bec Transmission,QC,Quebec,2,ac,39.9,24.63,39.9,24.63,120,16.79,107,118,Maniwaki,46.3778839,-75.9807967,QC_MNI_DSS,Mont-Laurier,46.5524071,-75.4968899,QC_MLR_DSS,
36497,L1362,Hydro-QuÃƒÂ©bec Transmission,QC,Quebec,1,ac,11.5,7.099,11.5,7.099,120,4.84,107,118,ChÃƒÂ¢teauguay,42.10617357969873,-80.73001421112517,QC_CHG_DSS,Beauharnois-Est,45.542896034776035,-73.64469635825193,QC_BEE_GSS,
36505,L1368,Hydro-QuÃƒÂ©bec Transmission,QC,Quebec,1,ac,3.85,2.377,10.45,6.451,120,4.4,107,118,Vignan,45.4970523,-75.70046002521293,QC_VGN_TSS,Gatineau,45.4277659,-75.710976,QC_GAT_DSS,
36508,L1370,Hydro-QuÃƒÂ©bec Transmission,QC,Quebec,1,ac,6.6,4.074,13.75,8.488,120,5.78,107,118,Val-TÃƒÂ©treau,45.463666296875004,-73.9791320185306,QC_VTR_DSS,Lucerne,45.7562723,-75.7300712,QC_LUC_SWS,
36509,L1370,Hydro-QuÃƒÂ©bec Transmission,QC,Quebec,1,ac,7.15,4.414,13.75,8.488,120,5.78,107,118,Lucerne,45.7562723,-75.7300712,QC_LUC_SWS,Rapides-Farmers,48.06983785,-72.79647161990064,QC_RPF_GSS,
36514,L1371,Hydro-QuÃƒÂ©bec Transmission,QC,Quebec,2,ac,0.55,0.34,19.25,11.883,120,8.1,107,118,Touraine,45.493909650000006,-75.734663440555,QC_TRN_DSS,Vignan,45.4970523,-75.70046002521293,QC_VGN_TSS,
36516,L1376,Hydro-QuÃƒÂ©bec Transmission,QC,Quebec,1,ac,11.4,7.037,11.4,7.037,120,4.8,107,118,Quyon,45.5204631,-76.2302306,QC_QUY_TSS,Wyman,45.5342316,-76.2997241,QC_WYM_DSS,
36523,L1385,Hydro-QuÃƒÂ©bec Transmission,QC,Quebec,1,ac,18.375,11.343,18.375,11.343,120,7.73,107,118,Magog,45.2658014,-72.1480686,QC_MGG_DSS,Sherbrooke,45.403271,-71.889038,QC_SHR_TSS,
36524,L1386,Hydro-QuÃƒÂ©bec Transmission,QC,Quebec,1,ac,5.25,3.241,26.25,16.204,120,11.04,107,118,Magog,45.2658014,-72.1480686,QC_MGG_DSS,B.O.C. Canada Inc,46.467064750000006,-72.0458948,QC_BOC_ISS,Line name assumed
36525,L1386,Hydro-QuÃƒÂ©bec Transmission,QC,Quebec,1,ac,1.05,0.648,26.25,16.204,120,11.04,107,118,B.O.C. Canada Inc,46.467064750000006,-72.0458948,QC_BOC_ISS,EKA Chimie Canada Inc Magog,45.510529425,-72.162109,QC_EKM_ISS,Line name assumed
36526,L1386,Hydro-QuÃƒÂ©bec Transmission,QC,Quebec,1,ac,18.375,11.343,26.25,16.204,120,11.04,107,118,Sherbrooke,45.403271,-71.889038,QC_SHR_TSS,Magog,45.2658014,-72.1480686,QC_MGG_DSS,
36527,L1386,Hydro-QuÃƒÂ©bec Transmission,QC,Quebec,1,ac,1.575,0.972,26.25,16.204,120,11.04,107,118,EKA Chimie Canada Inc Magog,45.510529425,-72.162109,QC_EKM_ISS,Ville de Magog,45.2649413,-72.1468359,QC_VDM_DSS,Line name assumed
36532,L1388,Hydro-QuÃƒÂ©bec Transmission,QC,Quebec,1,ac,21.0,12.963,21.0,12.963,120,8.83,107,118,Stukely,45.321254,-72.418442,QC_STK_DSS,Magog,45.2658014,-72.1480686,QC_MGG_DSS,
36533,L1390,Hydro-QuÃƒÂ©bec Transmission,QC,Quebec,1,ac,15.75,9.722,15.75,9.722,120,6.63,107,118,Cleveland,41.4943941196557,-81.61842511271446,QC_CLV_DSS,Waterloo,45.3441569,-72.5162169,QC_WLO_DSS,
36534,L1391,Hydro-QuÃƒÂ©bec Transmission,QC,Quebec,1,ac,1.0,0.617,1.5,0.926,120,0.63,107,118,Cournoyer,46.8817357,-72.85742668549427,QC_COY_DSS,BÃƒÂ©cancour,46.635082,-72.151083,QC_BEC_TSS,
36535,L1391,Hydro-QuÃƒÂ©bec Transmission,QC,Quebec,1,ac,0.5,0.309,1.5,0.926,120,0.63,107,118,Cournoyer,46.8817357,-72.85742668549427,QC_COY_DSS,Silicium-BÃƒÂ©cancour,47.284587925,-71.30727035,QC_SLB_ISS,
36537,L1392,Hydro-QuÃƒÂ©bec Transmission,QC,Quebec,1,ac,1.5,0.926,3.5,2.16,120,1.47,107,118,Cournoyer,46.8817357,-72.85742668549427,QC_COY_DSS,Hydrogenal Inc,45.35410195,-73.77648615,QC_HYD_ISS,
36538,L1392,Hydro-QuÃƒÂ©bec Transmission,QC,Quebec,1,ac,0.5,0.309,3.5,2.16,120,1.47,107,118,Hydrogenal Inc,45.35410195,-73.77648615,QC_HYD_ISS,P.C.I. Chimie Canada Inc,49.183801925,-74.0527502482326,QC_PCI_ISS,
36539,L1392,Hydro-QuÃƒÂ©bec Transmission,QC,Quebec,1,ac,0.5,0.309,3.5,2.16,120,1.47,107,118,P.C.I. Chimie Canada Inc,49.183801925,-74.0527502482326,QC_PCI_ISS,Viterra Inc.,48.302746662131,-72.84179085,QC_VIT_ISS,
36540,L1393,Hydro-QuÃƒÂ©bec Transmission,QC,Quebec,1,ac,28.875,17.824,28.875,17.824,120,12.15,107,118,Parisville,46.518713,-72.064133,QC_PAR_DSS,BÃƒÂ©cancour,46.635082,-72.151083,QC_BEC_TSS,
36541,L1394,Hydro-QuÃƒÂ©bec Transmission,QC,Quebec,1,ac,21.0,12.963,44.625,27.546,120,18.77,107,118,Villeroy,46.388386,-71.875305,QC_VLL_DSS,Parisville,46.518713,-72.064133,QC_PAR_DSS,
36542,L1394,Hydro-QuÃƒÂ©bec Transmission,QC,Quebec,1,ac,23.625,14.583,44.625,27.546,120,18.77,107,118,Plessisville,46.219515,-71.771965,QC_PLS_DSS,Villeroy,46.388386,-71.875305,QC_VLL_DSS,
36543,L1395,Hydro-QuÃƒÂ©bec Transmission,QC,Quebec,1,ac,26.25,16.204,26.25,16.204,120,11.04,107,118,Daveluyville,46.20431,-72.137604,QC_DVL_DSS,BÃƒÂ©cancour,46.635082,-72.151083,QC_BEC_TSS,
36544,L1398,Hydro-QuÃƒÂ©bec Transmission,QC,Quebec,1,ac,1.0,0.617,1.0,0.617,120,0.42,107,118,Beauharnois-Est,45.542896034776035,-73.64469635825193,QC_BEE_GSS,Beauharnois-Ouest,45.53824493747812,-73.64743398518046,QC_BEO_TSS,
36546,L1401,Hydro-QuÃƒÂ©bec Transmission,QC,Quebec,1,ac,18.0,11.111,81.375,50.231,120,34.24,107,118,Ville de Sherbrooke MassÃƒÂ©,46.89277925,-71.6737745,QC_VSM_DSS,Beaulieu,48.34061249494663,-69.52340078387633,QC_BEL_DSS,
36547,L1401,Hydro-QuÃƒÂ©bec Transmission,QC,Quebec,1,ac,60.375,37.269,81.375,50.231,120,34.24,107,118,Beaulieu,48.34061249494663,-69.52340078387633,QC_BEL_DSS,Stanstead,45.0106604,-72.0972499,QC_STS_DSS,
36548,L1401,Hydro-QuÃƒÂ©bec Transmission,QC,Quebec,1,ac,3.0,1.852,81.375,50.231,120,34.24,107,118,Sherbrooke,45.403271,-71.889038,QC_SHR_TSS,Ville de Sherbrooke MassÃƒÂ©,46.89277925,-71.6737745,QC_VSM_DSS,
36550,L1402,Hydro-QuÃƒÂ©bec Transmission,QC,Quebec,1,ac,42.0,25.926,105.0,64.815,120,44.18,97,107,Beaulieu,48.34061249494663,-69.52340078387633,QC_BEL_DSS,Coaticook,45.1334169,-71.803479,QC_CTK_DSS,
36551,L1402,Hydro-QuÃƒÂ©bec Transmission,QC,Quebec,1,ac,42.0,25.926,105.0,64.815,120,44.18,97,107,Coaticook,45.1334169,-71.803479,QC_CTK_DSS,Sleeper et Akhurst,46.46862655,-72.21372149999999,QC_SAK_ISS,
36553,L1403,Hydro-QuÃƒÂ©bec Transmission,QC,Quebec,1,ac,7.875,4.861,7.875,4.861,120,3.31,107,118,Joliette,46.0239798,-73.4419936,QC_JLT_DSS,Papiers-Scott Inc,45.589951799999994,-74.65777685,QC_PSI_ISS,
36554,L1404,Hydro-QuÃƒÂ©bec Transmission,QC,Quebec,1,ac,21.0,12.963,91.875,56.713,120,38.65,106,116,Ramezay,45.5087643,-73.55316909929684,QC_RAM_DSS,Laurendeau,45.43620265,-73.60544000484967,QC_LRD_DSS,
36555,L1404,Hydro-QuÃƒÂ©bec Transmission,QC,Quebec,1,ac,36.75,22.685,91.875,56.713,120,38.65,106,116,Ramezay,45.5087643,-73.55316909929684,QC_RAM_DSS,Magnan,49.879428,-79.4386778343079,QC_MGN_DSS,
36557,L1404,Hydro-QuÃƒÂ©bec Transmission,QC,Quebec,1,ac,21.0,12.963,91.875,56.713,120,38.65,106,116,Ramezay,45.5087643,-73.55316909929684,QC_RAM_DSS,Sainte-Ãƒâ€°mÃƒÂ©lie,45.945953475,-72.01576374999999,QC_SEM_DSS,
36562,L1406,Hydro-QuÃƒÂ©bec Transmission,QC,Quebec,1,ac,39.9,24.63,39.9,24.63,120,16.79,107,118,Sainte-Ãƒâ€°mÃƒÂ©lie,45.945953475,-72.01576374999999,QC_SEM_DSS,Provost,45.36983288830195,-73.76340557127885,QC_PVT_DSS,
36563,L1407,Hydro-QuÃƒÂ©bec Transmission,QC,Quebec,1,ac,10.5,6.481,49.875,30.787,120,20.98,107,118,Lavaltrie,45.883078,-73.282242,QC_LVL_DSS,LAssomption,48.09011316692157,-71.25211769600838,QC_LAS_DSS,
36564,L1407,Hydro-QuÃƒÂ©bec Transmission,QC,Quebec,1,ac,10.5,6.481,49.875,30.787,120,20.98,107,118,LanaudiÃƒÂ¨re,45.55676775,-72.59395724999999,QC_LND_TSS,Lavaltrie,45.883078,-73.282242,QC_LVL_DSS,
36565,L1407,Hydro-QuÃƒÂ©bec Transmission,QC,Quebec,1,ac,21.0,12.963,49.875,30.787,120,20.98,107,118,Berthier,46.33476485,-73.13786806802949,QC_BTH_DSS,Lavaltrie,45.883078,-73.282242,QC_LVL_DSS,
36566,L1407,Hydro-QuÃƒÂ©bec Transmission,QC,Quebec,1,ac,7.875,4.861,49.875,30.787,120,20.98,107,118,LAssomption,48.09011316692157,-71.25211769600838,QC_LAS_DSS,Saint-Sulpice,45.826646,-73.358116,QC_SSL_DSS,
36571,L1409,Hydro-QuÃƒÂ©bec Transmission,QC,Quebec,1,ac,21.0,12.963,21.0,12.963,120,8.83,107,118,Joliette,46.0239798,-73.4419936,QC_JLT_DSS,Kildare,46.078336,-73.5523887,QC_KLD_DSS,
36573,L1414,Hydro-QuÃƒÂ©bec Transmission,QC,Quebec,1,ac,15.75,9.722,23.625,14.583,120,9.94,107,118,Duvernay,45.5935503,-73.6699909,QC_DUV_TSS,Groulx,45.4827728,-73.5798271,QC_GRX_DSS,
36574,L1414,Hydro-QuÃƒÂ©bec Transmission,QC,Quebec,1,ac,7.875,4.861,23.625,14.583,120,9.94,107,118,Groulx,45.4827728,-73.5798271,QC_GRX_DSS,Sainte-Anne-des-Plaines,45.76417,-73.818855,QC_SAP_DSS,
36577,L1416,Hydro-QuÃƒÂ©bec Transmission,QC,Quebec,1,ac,28.5,17.593,28.5,17.593,120,11.99,107,118,Petite-Nation,45.8525649,-75.12670561529993,QC_PTN_TSS,ChenÃƒÂ©ville,48.23052215,-73.380544,QC_CHV_DSS,
36578,L1417,Hydro-QuÃƒÂ©bec Transmission,QC,Quebec,1,ac,3.42,2.111,3.42,2.111,120,1.44,107,118,Papineauville,45.61884,-75.020142,QC_PAP_DSS,Petite-Nation,45.8525649,-75.12670561529993,QC_PTN_TSS,
36579,L1418,Hydro-QuÃƒÂ©bec Transmission,QC,Quebec,1,ac,10.5,6.481,55.125,34.028,120,23.19,107,118,Beauceville,46.210725,-70.774269,QC_BCV_TSS,Saint-Joseph,46.8494476,-71.2929097,QC_SJO_DSS,
36580,L1418,Hydro-QuÃƒÂ©bec Transmission,QC,Quebec,1,ac,23.625,14.583,55.125,34.028,120,23.19,107,118,Saint-Joseph,46.8494476,-71.2929097,QC_SJO_DSS,Sainte-Marie,46.450395,-71.030731,QC_SMA_DSS,
36581,L1418,Hydro-QuÃƒÂ©bec Transmission,QC,Quebec,1,ac,21.0,12.963,55.125,34.028,120,23.19,107,118,Neubois,47.06618665,-77.29973996010068,QC_NBS_DSS,Sainte-Marie,46.450395,-71.030731,QC_SMA_DSS,
36583,L1420,Hydro-QuÃƒÂ©bec Transmission,QC,Quebec,1,ac,21.0,12.963,49.875,30.787,120,20.98,107,118,Acton,45.6018427,-72.5232917,QC_ACT_DSS,Heriot,45.8842858,-72.4870998,QC_HER_TSS,
36584,L1420,Hydro-QuÃƒÂ©bec Transmission,QC,Quebec,1,ac,5.25,3.241,49.875,30.787,120,20.98,107,118,Heriot,45.8842858,-72.4870998,QC_HER_TSS,Marcotte,46.7807744,-73.2234448,QC_MAR_DSS,
36585,L1421,Hydro-QuÃƒÂ©bec Transmission,QC,Quebec,1,ac,63.0,38.889,63.0,38.889,120,26.51,107,118,Sainte-Rosalie,45.6452982,-72.8981076,QC_SRO_DSS,Acton,45.6018427,-72.5232917,QC_ACT_DSS,
36586,L1422,Hydro-QuÃƒÂ©bec Transmission,QC,Quebec,1,ac,7.875,4.861,18.375,11.343,120,7.73,107,118,Granby,45.3990409,-72.721834,QC_GRY_DSS,Leclerc,47.3526187,-72.64153625,QC_LCL_DSS,
36587,L1422,Hydro-QuÃƒÂ©bec Transmission,QC,Quebec,1,ac,10.5,6.481,18.375,11.343,120,7.73,107,118,Leclerc,47.3526187,-72.64153625,QC_LCL_DSS,MontÃƒÂ©rÃƒÂ©gie,46.4257640625,-72.13114978374287,QC_MTR_TSS,
36590,L1424,Hydro-QuÃƒÂ©bec Transmission,QC,Quebec,1,ac,28.875,17.824,28.875,17.824,120,12.15,107,118,Saint-CÃƒÂ©saire,46.014716175,-74.106413725,QC_SCS_DSS,Iberville,45.3039219,-73.2297415,QC_IBR_DSS,
36592,L1425,Hydro-QuÃƒÂ©bec Transmission,QC,Quebec,1,ac,23.625,14.583,52.5,32.407,120,22.09,107,118,Iberville,45.3039219,-73.2297415,QC_IBR_DSS,Saint-SÃƒÂ©bastien,45.936359,-73.819027,QC_SSB_DSS,
36593,L1426,Hydro-QuÃƒÂ©bec Transmission,QC,Quebec,1,ac,15.75,9.722,15.75,9.722,120,6.63,107,118,Saint-CÃƒÂ©saire,46.014716175,-74.106413725,QC_SCS_DSS,Farnham,45.2831,-72.974968,QC_FRN_DSS,
36594,L1427,Hydro-QuÃƒÂ©bec Transmission,QC,Quebec,1,ac,21.0,12.963,21.0,12.963,120,8.83,107,118,Farnham,45.2831,-72.974968,QC_FRN_DSS,Bedford,45.1205194,-72.9885161,QC_BED_DSS,
36595,L1428,Hydro-QuÃƒÂ©bec Transmission,QC,Quebec,1,ac,15.75,9.722,15.75,9.722,120,6.63,107,118,Saint-SÃƒÂ©bastien,45.936359,-73.819027,QC_SSB_DSS,Bedford,45.1205194,-72.9885161,QC_BED_DSS,
36596,L1430,Hydro-QuÃƒÂ©bec Transmission,QC,Quebec,1,ac,34.125,21.065,34.125,21.065,120,14.36,107,118,Sainte-Claire,46.600629,-70.864906,QC_SCL_DSS,ChaudiÃƒÂ¨re,46.5762592,-73.27212225,QC_CHU_DSS,
36597,L1431,Hydro-QuÃƒÂ©bec Transmission,QC,Quebec,1,ac,21.0,12.963,42.0,25.926,120,17.67,107,118,Sainte-Claire,46.600629,-70.864906,QC_SCL_DSS,Neubois,47.06618665,-77.29973996010068,QC_NBS_DSS,
36601,L1434,Hydro-QuÃƒÂ©bec Transmission,QC,Quebec,1,ac,10.5,6.481,10.5,6.481,120,4.42,107,118,Sainte-Claire,46.600629,-70.864906,QC_SCL_DSS,Saint-Lazare,45.3995886,-74.1359632,QC_SLZ_DSS,
36603,L1435,Hydro-QuÃƒÂ©bec Transmission,QC,Quebec,2,ac,3.0,1.852,10.0,6.173,120,4.21,107,118,Langlois,46.728348,-70.54114,QC_LGS_TSS,Les CÃƒÂ¨dres,47.089184875,-71.87028948625995,QC_LCS_GSS,
36604,L1436,Hydro-QuÃƒÂ©bec Transmission,QC,Quebec,1,ac,1.0,0.617,2.7,1.667,120,1.14,107,118,PPG Canada Inc,48.9228724625,-76.62659462411631,QC_PPG_ISS,LÃƒÂ©ry,46.621105524432366,-72.10101044120778,QC_LRY_ISS,
36605,L1436,Hydro-QuÃƒÂ©bec Transmission,QC,Quebec,1,ac,0.2,0.123,2.7,1.667,120,1.14,107,118,Usine Beauharnois Alcan,46.920427875,-72.91135354824478,QC_UBA_ISS,PPG Canada Inc,48.9228724625,-76.62659462411631,QC_PPG_ISS,
36606,L1436,Hydro-QuÃƒÂ©bec Transmission,QC,Quebec,1,ac,1.5,0.926,2.7,1.667,120,1.14,107,118,Beauharnois-Est,45.542896034776035,-73.64469635825193,QC_BEE_GSS,Usine Beauharnois Alcan,46.920427875,-72.91135354824478,QC_UBA_ISS,
36608,L1437,Hydro-QuÃƒÂ©bec Transmission,QC,Quebec,1,ac,1.0,0.617,4.0,2.469,120,1.68,107,118,Beauharnois-Est,45.542896034776035,-73.64469635825193,QC_BEE_GSS,PPG Canada Inc,48.9228724625,-76.62659462411631,QC_PPG_ISS,
36609,L1438,Hydro-QuÃƒÂ©bec Transmission,QC,Quebec,1,ac,3.5,2.16,3.5,2.16,120,1.47,107,118,LÃƒÂ©ry,46.621105524432366,-72.10101044120778,QC_LRY_ISS,Beauharnois-Est,45.542896034776035,-73.64469635825193,QC_BEE_GSS,
36611,L1440,Hydro-QuÃƒÂ©bec Transmission,QC,Quebec,1,ac,4.0,2.469,8.0,4.938,120,3.37,107,118,RiviÃƒÂ¨re-du-Loup,48.513775156250006,-72.167076125,QC_RDL_TSS,F.F. Soucy S.E.C.,45.39152271875,-73.05748583757517,QC_FFS_ISS,
36612,L1440,Hydro-QuÃƒÂ©bec Transmission,QC,Quebec,1,ac,4.0,2.469,8.0,4.938,120,3.37,107,118,F.F. Soucy S.E.C.,45.39152271875,-73.05748583757517,QC_FFS_ISS,Grand-Portage,48.876511916480894,-73.50408717176828,QC_GPG_DSS,
36613,L1442,Hydro-QuÃƒÂ©bec Transmission,QC,Quebec,1,ac,7.98,4.926,7.98,4.926,120,3.36,107,118,RiviÃƒÂ¨re-du-Loup,48.513775156250006,-72.167076125,QC_RDL_TSS,Grand-Portage,48.876511916480894,-73.50408717176828,QC_GPG_DSS,
36614,L1443,Hydro-QuÃƒÂ©bec Transmission,QC,Quebec,1,ac,17.1,10.556,62.7,38.704,120,26.38,107,118,Saint-Alexandre,45.23026655,-73.12452476062859,QC_SAL_DSS,RiviÃƒÂ¨re-du-Loup,48.513775156250006,-72.167076125,QC_RDL_TSS,
36615,L1443,Hydro-QuÃƒÂ©bec Transmission,QC,Quebec,1,ac,22.8,14.074,62.7,38.704,120,26.38,107,118,Saint-Pascal,47.5266271,-69.8074463,QC_SPA_DSS,Saint-Alexandre,45.23026655,-73.12452476062859,QC_SAL_DSS,
36616,L1443,Hydro-QuÃƒÂ©bec Transmission,QC,Quebec,1,ac,22.8,14.074,62.7,38.704,120,26.38,107,118,La PocatiÃƒÂ¨re,49.647954275,-73.47882094209962,QC_LPC_DSS,Saint-Pascal,47.5266271,-69.8074463,QC_SPA_DSS,
36620,L1448,Hydro-QuÃƒÂ©bec Transmission,QC,Quebec,1,ac,17.1,10.556,79.8,49.259,120,33.57,107,118,Sully JCT,46.476908,-72.38018869999999,QC_SLY_JCT,Cabano,47.6836969,-68.8853408,QC_CAB_DSS,
36621,L1448,Hydro-QuÃƒÂ©bec Transmission,QC,Quebec,1,ac,28.5,17.593,79.8,49.259,120,33.57,107,118,Cabano,47.6836969,-68.8853408,QC_CAB_DSS,Squatec,47.8814362,-68.7253306,QC_SQU_DSS,
36622,L1448,Hydro-QuÃƒÂ©bec Transmission,QC,Quebec,1,ac,34.2,21.111,79.8,49.259,120,33.57,107,118,RiviÃƒÂ¨re-du-Loup,48.513775156250006,-72.167076125,QC_RDL_TSS,Sully JCT,46.476908,-72.38018869999999,QC_SLY_JCT,
36623,L1449,Hydro-QuÃƒÂ©bec Transmission,QC,Quebec,1,ac,51.3,31.667,51.3,31.667,120,21.58,107,118,RiviÃƒÂ¨re-du-Loup,48.513775156250006,-72.167076125,QC_RDL_TSS,Cabano,47.6836969,-68.8853408,QC_CAB_DSS,
36624,L1450,Hydro-QuÃƒÂ©bec Transmission,QC,Quebec,1,ac,17.1,10.556,26.3,16.235,120,11.06,107,118,Amqui,48.4656706,-67.4315171,QC_AMQ_DSS,Causapscal,48.3542375,-67.2269621,QC_CSP_DSS,
36625,L1450,Hydro-QuÃƒÂ©bec Transmission,QC,Quebec,1,ac,9.2,5.679,26.3,16.235,120,11.06,107,118,Causapscal,48.3542375,-67.2269621,QC_CSP_DSS,Vents du Kempt,45.445360475,-73.89120278517787,QC_VDK_GSS,
36626,L1451,Hydro-QuÃƒÂ©bec Transmission,QC,Quebec,1,ac,28.5,17.593,28.5,17.593,120,11.99,107,118,Sully JCT,46.476908,-72.38018869999999,QC_SLY_JCT,Sully,47.4554491,-69.1521582,QC_SLY_DSS,
36627,L1453,Hydro-QuÃƒÂ©bec Transmission,QC,Quebec,1,ac,22.8,14.074,22.8,14.074,120,9.59,107,118,Cabano,47.6836969,-68.8853408,QC_CAB_DSS,DÃƒÂ©gelis,45.53820305,-72.6647363,QC_DEG_DSS,
36628,L1454,Hydro-QuÃƒÂ©bec Transmission,QC,Quebec,1,ac,17.1,10.556,39.1,24.136,120,16.45,107,118,Sayabec,48.566157,-67.688141,QC_SYB_DSS,Amqui,48.4656706,-67.4315171,QC_AMQ_DSS,
36629,L1454,Hydro-QuÃƒÂ©bec Transmission,QC,Quebec,1,ac,22.0,13.58,39.1,24.136,120,16.45,107,118,Les Boules,48.6839287,-67.9841822,QC_LBS_TSS,Sayabec,48.566157,-67.688141,QC_SYB_DSS,
36630,L1455,Hydro-QuÃƒÂ©bec Transmission,QC,Quebec,1,ac,17.1,10.556,40.7,25.123,120,17.12,107,118,Uniboard Canada Inc,48.55627025,-67.65539453226316,QC_UCI_ISS,Amqui,48.4656706,-67.4315171,QC_AMQ_DSS,
36632,L1455,Hydro-QuÃƒÂ©bec Transmission,QC,Quebec,1,ac,0.8,0.494,40.7,25.123,120,17.12,107,118,Sayabec,48.566157,-67.688141,QC_SYB_DSS,Uniboard Canada Inc,48.55627025,-67.65539453226316,QC_UCI_ISS,
36633,L1457,Hydro-QuÃƒÂ©bec Transmission,QC,Quebec,1,ac,2.625,1.62,56.875,35.108,120,23.93,107,118,Beauceville,46.210725,-70.774269,QC_BCV_TSS,Beauceville-Est,46.2024008,-70.7717706,QC_BCE_DSS,
36634,L1457,Hydro-QuÃƒÂ©bec Transmission,QC,Quebec,1,ac,26.25,16.204,56.875,35.108,120,23.93,107,118,Saint-Georges,46.122987,-70.671959,QC_SGO_DSS,Bolduc,49.53344365,-71.34141304089493,QC_BLD_DSS,
36635,L1457,Hydro-QuÃƒÂ©bec Transmission,QC,Quebec,1,ac,10.5,6.481,56.875,35.108,120,23.93,107,118,Beauceville-Est,46.2024008,-70.7717706,QC_BCE_DSS,Saint-Georges,46.122987,-70.671959,QC_SGO_DSS,
36636,L1457,Hydro-QuÃƒÂ©bec Transmission,QC,Quebec,1,ac,17.5,10.802,56.875,35.108,120,23.93,107,118,Bolduc,49.53344365,-71.34141304089493,QC_BLD_DSS,Saint-Robert-Bellarmin,45.749798,-70.586472,QC_SRB_GSS,
36637,L1458,Hydro-QuÃƒÂ©bec Transmission,QC,Quebec,1,ac,18.375,11.343,18.375,11.343,120,7.73,107,118,Beauceville,46.210725,-70.774269,QC_BCV_TSS,East Broughton,46.216664,-71.075706,QC_EAB_DSS,
36638,L1459,Hydro-QuÃƒÂ©bec Transmission,QC,Quebec,1,ac,36.75,22.685,36.75,22.685,120,15.46,107,118,Saint-Ãƒâ€°variste,46.018643749999995,-74.16471025000001,QC_SEV_DSS,Beauceville,46.210725,-70.774269,QC_BCV_TSS,
36639,L1460,Hydro-QuÃƒÂ©bec Transmission,QC,Quebec,1,ac,15.96,9.852,31.71,19.574,120,13.34,107,118,Saint-Georges,46.122987,-70.671959,QC_SGO_DSS,LiniÃƒÂ¨re,46.2021573,-72.38530824661534,QC_LNR_DSS,
36640,L1460,Hydro-QuÃƒÂ©bec Transmission,QC,Quebec,1,ac,15.75,9.722,31.71,19.574,120,13.34,107,118,Beauceville,46.210725,-70.774269,QC_BCV_TSS,Saint-Georges,46.122987,-70.671959,QC_SGO_DSS,
36643,L1462,Hydro-QuÃƒÂ©bec Transmission,QC,Quebec,1,ac,27.36,16.889,67.26,41.519,120,28.3,107,118,Beauceville,46.210725,-70.774269,QC_BCV_TSS,Sainte-Germaine,48.601133,-79.116669,QC_SGE_DSS,
36644,L1466,Hydro-QuÃƒÂ©bec Transmission,QC,Quebec,1,ac,11.4,7.037,39.9,24.63,120,16.79,107,118,RiviÃƒÂ¨re-du-Loup,48.513775156250006,-72.167076125,QC_RDL_TSS,Cacouna,47.9171789,-69.5016092,QC_CAC_DSS,
36645,L1466,Hydro-QuÃƒÂ©bec Transmission,QC,Quebec,1,ac,28.5,17.593,39.9,24.63,120,16.79,107,118,Cacouna,47.9171789,-69.5016092,QC_CAC_DSS,Saint-ClÃƒÂ©ment,45.71071435,-73.99091145,QC_SCM_DSS,
36647,L1468,Hydro-QuÃƒÂ©bec Transmission,QC,Quebec,1,ac,4.788,2.956,4.788,2.956,120,2.01,107,118,Jeanne-dArc,49.067987775,-65.084416775,QC_JDA_DSS,Longue-Pointe,45.5780418,-73.53746749323068,QC_LGP_DSS,
36648,L1469,Hydro-QuÃƒÂ©bec Transmission,QC,Quebec,1,ac,7.182,4.433,7.182,4.433,120,3.02,107,118,De Lorimier,45.53751455,-73.58010120996488,QC_DEL_DSS,Notre-Dame,48.2467777,-79.0166072,QC_NDA_TSS,
36652,L1472,Hydro-QuÃƒÂ©bec Transmission,QC,Quebec,2,ac,9.0,5.556,9.0,5.556,120,3.79,107,118,Langlois,46.728348,-70.54114,QC_LGS_TSS,Beauharnois-Ouest,45.53824493747812,-73.64743398518046,QC_BEO_TSS,
36653,L1473,Hydro-QuÃƒÂ©bec Transmission,QC,Quebec,1,ac,21.0,12.963,21.0,12.963,120,8.83,107,118,Coleraine,45.98652805,-71.37767158285382,QC_COL_DSS,Thetford,46.091329,-71.30127,QC_THT_DSS,
36654,L1474,Hydro-QuÃƒÂ©bec Transmission,QC,Quebec,1,ac,52.5,32.407,52.5,32.407,120,22.09,107,118,MÃƒÂ©gantic,46.84625857420376,-71.9345345494974,QC_MEG_DSS,Coleraine,45.98652805,-71.37767158285382,QC_COL_DSS,
36655,L1475,Hydro-QuÃƒÂ©bec Transmission,QC,Quebec,1,ac,57.0,35.185,57.0,35.185,120,23.98,107,118,La VÃƒÂ©rendrye,50.135235675,-70.01441771673795,QC_LVR_TSS,Parent,47.9195154,-74.6185295,QC_PRT_DSS,
36656,L1477,Hydro-QuÃƒÂ©bec Transmission,QC,Quebec,1,ac,5.0,3.086,6.5,4.012,120,2.73,107,118,Thibaudeau,45.3186017,-73.881845,QC_THI_DSS,Leman,49.2577153,-69.5450717,QC_LMN_SWS,
36657,L1477,Hydro-QuÃƒÂ©bec Transmission,QC,Quebec,1,ac,1.5,0.926,6.5,4.012,120,2.73,107,118,Des HÃƒÂªtres,47.25966735,-70.20037306638403,QC_DEH_DSS,Thibaudeau,45.3186017,-73.881845,QC_THI_DSS,
36660,L1491,Hydro-QuÃƒÂ©bec Transmission,QC,Quebec,1,ac,84.0,51.852,85.5,52.778,120,35.97,107,118,Palmarolle,48.661943,-79.200439,QC_PML_DSS,Abitibi Consolidated Amos,46.533029375,-72.84024622499999,QC_ACA_ISS,
36664,L1493,Hydro-QuÃƒÂ©bec Transmission,QC,Quebec,1,ac,28.5,17.593,33.0,20.37,120,13.88,107,118,Quevillon,49.0083908,-76.9395233,QC_QVN_DSS,Domtar QuÃƒÂ©villon,45.8373784375,-71.97060144916922,QC_DOQ_ISS,
36665,L1493,Hydro-QuÃƒÂ©bec Transmission,QC,Quebec,1,ac,4.5,2.778,33.0,20.37,120,13.88,107,118,Domtar QuÃƒÂ©villon,45.8373784375,-71.97060144916922,QC_DOQ_ISS,Mine Gonzague-Langlois,47.019059075,-75.25137617463312,QC_MGL_ISS,
36666,L1495,Hydro-QuÃƒÂ©bec Transmission,QC,Quebec,1,ac,22.8,14.074,22.8,14.074,120,9.59,107,118,Saint-ClÃƒÂ©ment,45.71071435,-73.99091145,QC_SCM_DSS,Squatec,47.8814362,-68.7253306,QC_SQU_DSS,
36667,L1498,Hydro-QuÃƒÂ©bec Transmission,QC,Quebec,1,ac,22.8,14.074,22.8,14.074,120,9.59,107,118,La Grande-1,48.7151352,6.2596602,QC_LG1_GSS,Chisasibi,53.6520138,-78.3384139877295,QC_CHA_DSS,
36668,L1524,Hydro-QuÃƒÂ©bec Transmission,QC,Quebec,1,ac,79.8,49.259,79.8,49.259,120,33.57,107,118,La Grande-1,48.7151352,6.2596602,QC_LG1_GSS,Wemindji,52.9247619,-78.80623302926833,QC_WJI_DSS,
36669,L1525,Hydro-QuÃƒÂ©bec Transmission,QC,Quebec,1,ac,14.0,8.642,14.0,8.642,120,5.89,107,118,Grand-BrulÃƒÂ©,47.13777640824045,-73.11296058588414,QC_GRB_TSS,Mont-Tremblant,46.11588,-74.5891426,QC_MTB_DSS,
36671,L1530,Hydro-QuÃƒÂ©bec Transmission,QC,Quebec,1,ac,26.25,16.204,52.5,32.407,120,22.09,107,118,Bois-Francs,45.49389955,-73.73277019090784,QC_BSF_DSS,Plessisville,46.219515,-71.771965,QC_PLS_DSS,
36672,L1530,Hydro-QuÃƒÂ©bec Transmission,QC,Quebec,1,ac,26.25,16.204,52.5,32.407,120,22.09,107,118,Plessisville,46.219515,-71.771965,QC_PLS_DSS,Plessisville,46.219515,-71.771965,QC_PLS_DSS,
36673,L1533,Hydro-QuÃƒÂ©bec Transmission,QC,Quebec,1,ac,15.75,9.722,15.75,9.722,120,6.63,107,118,Pierre-Le Gardeur,45.7188859,-73.51726880996449,QC_PLG_TSS,Repetigny,46.95525925,-76.14484355,QC_RPT_DSS,
36675,L1535,Hydro-QuÃƒÂ©bec Transmission,QC,Quebec,1,ac,10.5,6.481,10.5,6.481,120,4.42,107,118,Terrebonne,45.6951527,-73.6350148,QC_TER_DSS,Pierre-Le Gardeur,45.7188859,-73.51726880996449,QC_PLG_TSS,
36676,L1536,Hydro-QuÃƒÂ©bec Transmission,QC,Quebec,1,ac,26.0,16.049,26.0,16.049,120,10.94,107,118,Sainte-Germaine,48.601133,-79.116669,QC_SGE_DSS,Massif-du-Sud,46.585034,-70.44851431985381,QC_MSF_GSS,
36677,L1537,Hydro-QuÃƒÂ©bec Transmission,QC,Quebec,1,ac,45.6,28.148,45.6,28.148,120,19.18,107,118,Sainte-Germaine,48.601133,-79.116669,QC_SGE_DSS,Daaquam,46.5896913,-70.0606033,QC_DAQ_DSS,
36678,L1538,Hydro-QuÃƒÂ©bec Transmission,QC,Quebec,1,ac,6.0,3.704,6.0,19.0,120,2.52,107,118,Cadillac,45.5768358,-73.5466995,QC_CDL_GSS,Mine Malartic,48.11851215,-78.08886028257761,QC_MML_ISS,
36683,L1542,Hydro-QuÃƒÂ©bec Transmission,QC,Quebec,1,ac,15.0,9.259,15.0,9.259,120,6.31,107,118,LAssomption,48.09011316692157,-71.25211769600838,QC_LAS_DSS,Pierre-Le Gardeur,45.7188859,-73.51726880996449,QC_PLG_TSS,
36685,L1546,Hydro-QuÃƒÂ©bec Transmission,QC,Quebec,1,ac,8.4,5.185,8.4,5.185,120,3.53,107,118,Cleveland,41.4943941196557,-81.61842511271446,QC_CLV_DSS,Adamsville,45.2801055,-72.7853418,QC_ADM_DSS,
36687,L1548,Hydro-QuÃƒÂ©bec Transmission,QC,Quebec,1,ac,18.375,11.343,68.875,42.515,120,28.98,107,118,Sainte-Agathe-des-Monts,46.046072,-74.279938,QC_SAG_DSS,Doc-Grignon,46.107985625,-71.95703196611282,QC_DOG_DSS,
36688,L1548,Hydro-QuÃƒÂ©bec Transmission,QC,Quebec,1,ac,10.5,6.481,68.875,42.515,120,28.98,107,118,Saint-Sauveur,45.894309,-74.158058,QC_SSA_DSS,Doc-Grignon,46.107985625,-71.95703196611282,QC_DOG_DSS,
36689,L1548,Hydro-QuÃƒÂ©bec Transmission,QC,Quebec,1,ac,40.0,24.691,68.875,42.515,120,28.98,107,118,Grand-BrulÃƒÂ©,47.13777640824045,-73.11296058588414,QC_GRB_TSS,Sainte-Agathe-des-Monts,46.046072,-74.279938,QC_SAG_DSS,
36693,L1550,Hydro-QuÃƒÂ©bec Transmission,QC,Quebec,1,ac,34.2,21.111,68.4,42.222,120,28.78,107,118,Paugan,45.810699549999995,-75.9328932541377,QC_PAU_GSS,Gracefield,46.0933721,-76.0531906,QC_GRC_DSS,
36694,L1550,Hydro-QuÃƒÂ©bec Transmission,QC,Quebec,1,ac,34.2,21.111,68.4,42.222,120,28.78,107,118,Gracefield,46.0933721,-76.0531906,QC_GRC_DSS,Maniwaki,46.3778839,-75.9807967,QC_MNI_DSS,
36696,L1562,Hydro-QuÃƒÂ©bec Transmission,QC,Quebec,1,ac,10.374,6.404,10.374,6.404,120,4.36,107,118,Baie dUrfÃƒÂ©,46.955703875000005,-71.2756709,QC_BAU_DSS,Compass YUL II,45.87352184375,-73.00496081035674,QC_CMP_ISS,
36697,L1601,Hydro-QuÃƒÂ©bec Transmission,QC,Quebec,1,ac,57.0,35.185,91.2,56.296,161,41.04,191,210,RiviÃƒÂ¨re-Sainte-Anne,48.482470000000006,-70.377388,QC_RVS_DSS,Copper Mountain,45.5768869,-73.7078156,QC_CMT_DSS,
36698,L1601,Hydro-QuÃƒÂ©bec Transmission,QC,Quebec,1,ac,34.2,21.111,91.2,56.296,161,41.04,191,210,GoÃƒÂ©mon,45.681664375,-75.08060577913346,QC_GOE_TSS,RiviÃƒÂ¨re-Sainte-Anne,48.482470000000006,-70.377388,QC_RVS_DSS,
36699,L1602,Hydro-QuÃƒÂ©bec Transmission,QC,Quebec,1,ac,91.2,56.296,91.2,56.296,161,41.04,191,210,Copper Mountain,45.5768869,-73.7078156,QC_CMT_DSS,Micmac,48.609741850000006,-70.50899784989917,QC_MCM_DSS,
36700,L1603,Hydro-QuÃƒÂ©bec Transmission,QC,Quebec,1,ac,34.2,21.111,34.2,21.111,161,15.39,193,212,Micmac,48.609741850000006,-70.50899784989917,QC_MCM_DSS,PercÃƒÂ©,45.8420985625,-75.32825252500936,QC_PCE_DSS,
36701,L1604,Hydro-QuÃƒÂ©bec Transmission,QC,Quebec,1,ac,45.6,28.148,45.6,28.148,161,20.52,193,212,GaspÃƒÂ©,45.471498025,-74.63544627690524,QC_GSP_DSS,PercÃƒÂ©,45.8420985625,-75.32825252500936,QC_PCE_DSS,
36702,L1605,Hydro-QuÃƒÂ©bec Transmission,QC,Quebec,1,ac,28.5,17.593,28.5,17.593,161,12.83,193,212,RiviÃƒÂ¨re-au-Renard,48.498627500000005,-71.301098,QC_RVD_DSS,GaspÃƒÂ©,45.471498025,-74.63544627690524,QC_GSP_DSS,
36703,L1606,Hydro-QuÃƒÂ©bec Transmission,QC,Quebec,1,ac,7.98,4.926,7.98,4.926,161,3.59,193,212,Micmac,48.609741850000006,-70.50899784989917,QC_MCM_DSS,GaspÃƒÂ©sia,45.4496319625,-75.17321113845261,QC_GSA_ISS,
36704,L1607,Hydro-QuÃƒÂ©bec Transmission,QC,Quebec,1,ac,51.3,31.667,51.3,31.667,161,23.09,193,212,Micmac,48.609741850000006,-70.50899784989917,QC_MCM_DSS,GaspÃƒÂ©,45.471498025,-74.63544627690524,QC_GSP_DSS,
36705,L1608,Hydro-QuÃƒÂ©bec Transmission,QC,Quebec,1,ac,23.94,14.778,23.94,14.778,161,10.77,193,212,Alcoa,49.2553229,-68.1495681106384,QC_ALC_ISS,Hauterive,49.1929593,-68.2570763,QC_HTR_DSS,
36707,L1610,Hydro-QuÃƒÂ©bec Transmission,QC,Quebec,1,ac,2.28,1.407,2.28,1.407,120,0.96,107,118,Hauterive,49.1929593,-68.2570763,QC_HTR_DSS,LaflÃƒÂ¨che,45.7338497,-74.1771614,QC_LFL_DSS,
36708,L1611,SociÃƒÂ©tÃƒÂ© en Commandite HydroÃƒÂ©lectrique Manicouagan,QC,Quebec,1,ac,11.4,7.037,13.68,8.444,120,5.76,107,118,Hauterive,49.1929593,-68.2570763,QC_HTR_DSS,Manic-1,49.19624005518989,-68.32839204590813,QC_MC1_GSS,
36709,L1611,SociÃƒÂ©tÃƒÂ© en Commandite HydroÃƒÂ©lectrique Manicouagan,QC,Quebec,1,ac,2.28,1.407,13.68,8.444,120,5.76,107,118,Manic-1,49.19624005518989,-68.32839204590813,QC_MC1_GSS,McCormick,49.19300885,-68.32691228536461,QC_MCC_GSS,
36712,L1613,Hydro-QuÃƒÂ©bec Transmission,QC,Quebec,1,ac,1.14,0.704,11.4,7.037,161,5.13,193,212,Mont-Rothery,48.9870126,-65.3658587,QC_MRY_GSS,Mont-Copper,48.9621597,-65.5124088,QC_MTC_GSS,
36713,L1613,Hydro-QuÃƒÂ©bec Transmission,QC,Quebec,1,ac,5.7,3.519,11.4,7.037,161,5.13,193,212,Mont-Copper,48.9621597,-65.5124088,QC_MTC_GSS,Mont-Miller,48.9603814,-65.474662,QC_MTM_GSS,
36714,L1613,Hydro-QuÃƒÂ©bec Transmission,QC,Quebec,1,ac,4.56,2.815,11.4,7.037,161,5.13,193,212,Copper Mountain,45.5768869,-73.7078156,QC_CMT_DSS,Mont-Rothery,48.9870126,-65.3658587,QC_MRY_GSS,
36715,L1615,Hydro-QuÃƒÂ©bec Transmission,QC,Quebec,1,ac,5.7,3.519,157.32,97.111,120,66.19,74,82,CÃƒÂ´te-Nord,45.8986519,-71.4042614,QC_CON_DSS,Alcoa,49.2553229,-68.1495681106384,QC_ALC_ISS,
36716,L1615,Hydro-QuÃƒÂ©bec Transmission,QC,Quebec,1,ac,39.9,24.63,157.32,97.111,120,66.19,74,82,PentecÃƒÂ´te,45.83163222499999,-75.52979943471881,QC_PTC_DSS,Baie-TrinitÃƒÂ©,46.827534,-70.639858,QC_BAT_DSS,
36717,L1615,Hydro-QuÃƒÂ©bec Transmission,QC,Quebec,1,ac,28.5,17.593,157.32,97.111,120,66.19,74,82,Godbout,49.323332,-67.59613,QC_GOD_DSS,CÃƒÂ´te-Nord,45.8986519,-71.4042614,QC_CON_DSS,
36718,L1615,Hydro-QuÃƒÂ©bec Transmission,QC,Quebec,1,ac,28.5,17.593,157.32,97.111,120,66.19,74,82,Baie-TrinitÃƒÂ©,46.827534,-70.639858,QC_BAT_DSS,Godbout,49.323332,-67.59613,QC_GOD_DSS,
36719,L1615,Hydro-QuÃƒÂ©bec Transmission,QC,Quebec,1,ac,3.42,2.111,157.32,97.111,120,66.19,74,82,McCormick,49.19300885,-68.32691228536461,QC_MCC_GSS,Hauterive,49.1929593,-68.2570763,QC_HTR_DSS,
36720,L1615,Hydro-QuÃƒÂ©bec Transmission,QC,Quebec,1,ac,11.4,7.037,157.32,97.111,120,66.19,74,82,Alcoa,49.2553229,-68.1495681106384,QC_ALC_ISS,McCormick,49.19300885,-68.32691228536461,QC_MCC_GSS,
36721,L1615,Hydro-QuÃƒÂ©bec Transmission,QC,Quebec,1,ac,39.9,24.63,157.32,97.111,120,66.19,74,82,RiviÃƒÂ¨re-aux-Rochers,48.51276531250001,-72.10934424999999,QC_RVR_DSS,PentecÃƒÂ´te,45.83163222499999,-75.52979943471881,QC_PTC_DSS,
36722,L1616,Hydro-QuÃƒÂ©bec Transmission,QC,Quebec,1,ac,2.28,1.407,33.06,20.407,120,13.91,107,118,Port Cartier,50.0187481,-66.8756913,QC_PCR_SWS,Companie-MiniÃƒÂ¨re-QuÃƒÂ©bec-Cartier,45.8896655875,-72.77249092071347,QC_CMQ_ISS,
36723,L1616,Hydro-QuÃƒÂ©bec Transmission,QC,Quebec,1,ac,2.28,1.407,33.06,20.407,120,13.91,107,118,Companie-MiniÃƒÂ¨re-QuÃƒÂ©bec-Cartier,45.8896655875,-72.77249092071347,QC_CMQ_ISS,Katahdin PÃƒÂ¢te QuÃƒÂ©bec,46.425776799999994,-72.612028975,QC_KPQ_ISS,
36724,L1616,Hydro-QuÃƒÂ©bec Transmission,QC,Quebec,1,ac,22.8,14.074,33.06,20.407,120,13.91,107,118,Laure,48.32179805,-74.41234547326698,QC_LAU_DSS,Port Cartier,50.0187481,-66.8756913,QC_PCR_SWS,
36725,L1616,Hydro-QuÃƒÂ©bec Transmission,QC,Quebec,1,ac,5.7,3.519,33.06,20.407,120,13.91,107,118,Katahdin PÃƒÂ¢te QuÃƒÂ©bec,46.425776799999994,-72.612028975,QC_KPQ_ISS,RiviÃƒÂ¨re-aux-Rochers,48.51276531250001,-72.10934424999999,QC_RVR_DSS,
36726,L1617,Hydro-QuÃƒÂ©bec Transmission,QC,Quebec,1,ac,1.14,0.704,25.08,15.481,161,11.29,193,212,Sept-ÃƒÅ½les,47.46505805,-74.99733835,QC_STI_DSS,Iron-Ore-du-Canada,45.41253695,-72.12873764999999,QC_IOC_ISS,
36727,L1617,Hydro-QuÃƒÂ©bec Transmission,QC,Quebec,1,ac,1.14,0.704,25.08,15.481,161,11.29,193,212,Arnaud,59.970508094129215,-71.96636733876329,QC_ARN_TSS,Laure,48.32179805,-74.41234547326698,QC_LAU_DSS,Connection assumed between Laure and Arnaud
36728,L1617,Hydro-QuÃƒÂ©bec Transmission,QC,Quebec,1,ac,22.8,14.074,25.08,15.481,161,11.29,193,212,Laure,48.32179805,-74.41234547326698,QC_LAU_DSS,Sept-ÃƒÅ½les,47.46505805,-74.99733835,QC_STI_DSS,
36729,L1618,Hydro-QuÃƒÂ©bec Transmission,QC,Quebec,1,ac,5.7,3.519,5.7,3.519,161,2.57,193,212,Aluminerie Alouette,50.16014375,-66.44030932883572,QC_ALO_ISS,Laure,48.32179805,-74.41234547326698,QC_LAU_DSS,
36730,L1619,Hydro-QuÃƒÂ©bec Transmission,QC,Quebec,1,ac,22.8,14.074,159.6,98.519,161,71.82,132,145,RiviÃƒÂ¨re-au-Tonnerre,48.50670625000001,-71.762953,QC_RVT_DSS,Magpie,50.3078598,-64.4999864,QC_MGP_GSS,
36731,L1619,Hydro-QuÃƒÂ©bec Transmission,QC,Quebec,1,ac,39.9,24.63,159.6,98.519,161,71.82,132,145,RiviÃƒÂ¨re-aux-Bouleaux,48.510745625000006,-71.99388049999999,QC_RVB_DSS,RiviÃƒÂ¨re-ÃƒÂ -la-Chaloupe,48.51465876953125,-72.217591515625,QC_RVC_DSS,
36732,L1619,Hydro-QuÃƒÂ©bec Transmission,QC,Quebec,1,ac,17.1,10.556,159.6,98.519,161,71.82,132,145,RiviÃƒÂ¨re-ÃƒÂ -la-Chaloupe,48.51465876953125,-72.217591515625,QC_RVC_DSS,RiviÃƒÂ¨re-au-Tonnerre,48.50670625000001,-71.762953,QC_RVT_DSS,
36733,L1619,Hydro-QuÃƒÂ©bec Transmission,QC,Quebec,1,ac,62.7,38.704,159.6,98.519,161,71.82,132,145,Sept-ÃƒÅ½les,47.46505805,-74.99733835,QC_STI_DSS,RiviÃƒÂ¨re-aux-Bouleaux,48.510745625000006,-71.99388049999999,QC_RVB_DSS,
36739,L1622,Hydro-QuÃƒÂ©bec Transmission,QC,Quebec,1,ac,17.1,10.556,22.8,14.074,120,9.59,107,118,Roberval,48.514785,-72.224808,QC_RBV_DSS,CogÃƒÂ©nÃƒÂ©ration Saint-FÃƒÂ©licien,47.0637644,-74.84532970000001,QC_CSF_GSS,
36740,L1622,Hydro-QuÃƒÂ©bec Transmission,QC,Quebec,1,ac,5.7,3.519,22.8,14.074,120,9.59,107,118,CogÃƒÂ©nÃƒÂ©ration Saint-FÃƒÂ©licien,47.0637644,-74.84532970000001,QC_CSF_GSS,Saint-FÃƒÂ©licien,45.98339155000001,-71.4772121,QC_SFE_DSS,
36741,L1623,Hydro-QuÃƒÂ©bec Transmission,QC,Quebec,1,ac,22.8,14.074,22.8,14.074,120,9.59,107,118,Roberval,48.514785,-72.224808,QC_RBV_DSS,Desbiens,48.417809,-71.949463,QC_DBN_DSS,
36742,L1624,Hydro-QuÃƒÂ©bec Transmission,QC,Quebec,1,ac,37.8,23.333,37.8,23.333,120,15.9,107,118,LIsle Maligne,48.24803608346079,-71.1606503480042,QC_LIM_ISS,Desbiens,48.417809,-71.949463,QC_DBN_DSS,
36743,L1625,Hydro-QuÃƒÂ©bec Transmission,QC,Quebec,1,ac,125.4,77.407,182.4,112.593,161,82.08,121,133,Obalski,49.7475006,-74.3980202,QC_OBL_DSS,Corporation MiniÃƒÂ¨re Inmet,45.4366413,-73.94300805,QC_CMI_ISS,
36744,L1625,Hydro-QuÃƒÂ©bec Transmission,QC,Quebec,1,ac,57.0,35.185,182.4,112.593,161,82.08,121,133,Obalski,49.7475006,-74.3980202,QC_OBL_DSS,Waconichi,50.21710732426201,-73.8082767,QC_WCO_DSS,
36747,L1627,Hydro-QuÃƒÂ©bec Transmission,QC,Quebec,1,ac,17.1,10.556,39.9,24.63,120,16.79,107,118,Chapais,49.7829998,-74.8572812,QC_CHP_DSS,Chibougamau,49.9137407,-74.3713954,QC_CHB_TSS,
36748,L1627,Hydro-QuÃƒÂ©bec Transmission,QC,Quebec,1,ac,22.8,14.074,39.9,24.63,120,16.79,107,118,Chibougamau,49.9137407,-74.3713954,QC_CHB_TSS,Obalski,49.7475006,-74.3980202,QC_OBL_DSS,
36750,L1629,Hydro-QuÃƒÂ©bec Transmission,QC,Quebec,1,ac,68.4,42.222,68.4,42.222,161,30.78,193,212,Saint-FÃƒÂ©licien,45.98339155000001,-71.4772121,QC_SFE_DSS,Chigoubiche,48.98968517382856,-73.26403868063218,QC_CHI_DSS,
36751,L1630,Hydro-QuÃƒÂ©bec Transmission,QC,Quebec,1,ac,28.5,17.593,28.5,17.593,161,12.83,193,212,Saint-FÃƒÂ©licien,45.98339155000001,-71.4772121,QC_SFE_DSS,Mistassini,48.892019,-72.2084055,QC_MIS_DSS,
36752,L1635,Hydro-QuÃƒÂ©bec Transmission,QC,Quebec,1,ac,2.0,1.235,2.0,1.235,161,0.9,193,212,LIsle Maligne,48.24803608346079,-71.1606503480042,QC_LIM_ISS,Abitibi Consolidated Alma,47.26126095,-74.53158855,QC_ACL_ISS,
36753,L1638,Hydro-QuÃƒÂ©bec Transmission,QC,Quebec,1,ac,7.98,4.926,15.96,9.852,161,7.18,193,212,SFK PÃƒÂ¢te SENC,46.95336052500001,-72.36567967794066,QC_SFK_ISS,Normandin,48.837153,-72.529678,QC_NRN_DSS,
36754,L1638,Hydro-QuÃƒÂ©bec Transmission,QC,Quebec,1,ac,7.98,4.926,15.96,9.852,161,7.18,193,212,Saint-FÃƒÂ©licien,45.98339155000001,-71.4772121,QC_SFE_DSS,SFK PÃƒÂ¢te SENC,46.95336052500001,-72.36567967794066,QC_SFK_ISS,
36755,L1639,Hydro-QuÃƒÂ©bec Transmission,QC,Quebec,1,ac,22.8,14.074,28.5,17.593,161,12.83,193,212,Saint-FÃƒÂ©licien,45.98339155000001,-71.4772121,QC_SFE_DSS,Bowater Produits Forestiers,53.3246663,-70.91049362499999,QC_BPF_ISS,
36756,L1639,Hydro-QuÃƒÂ©bec Transmission,QC,Quebec,1,ac,5.7,3.519,28.5,17.593,161,12.83,193,212,Bowater Produits Forestiers,53.3246663,-70.91049362499999,QC_BPF_ISS,Mistassini,48.892019,-72.2084055,QC_MIS_DSS,
36757,L1640,Hydro-QuÃƒÂ©bec Transmission / Rio Tinto Alcan,QC,Quebec,1,ac,22.4,13.827,28.1,17.346,161,12.65,193,212,Saguenay,48.405959,-71.069183,QC_SAG_TSS,Dubuc,45.517426400000005,-73.5667089438662,QC_DBC_ISS,
36758,L1640,Rio Tinto Alcan,QC,Quebec,1,ac,0.1,0.062,28.1,17.346,161,12.65,193,212,Elkem Metal Canada,47.0178635,-74.29525340120256,QC_EMC_ISS,Dubuc,45.517426400000005,-73.5667089438662,QC_DBC_ISS,
36759,L1640,Rio Tinto Alcan,QC,Quebec,1,ac,5.6,3.457,28.1,17.346,161,12.65,193,212,Chicoutimi-Nord,48.4382053,-71.0750109,QC_CHN_DSS,Elkem Metal Canada,47.0178635,-74.29525340120256,QC_EMC_ISS,
36760,L1641,Hydro-QuÃƒÂ©bec Transmission / Rio Tinto Alcan,QC,Quebec,1,ac,22.4,13.827,22.4,13.827,161,10.08,193,212,Saguenay,48.405959,-71.069183,QC_SAG_TSS,Chicoutimi,48.3370248,-71.12352613559267,QC_CHC_DSS,
36761,L1642,Hydro-QuÃƒÂ©bec Transmission,QC,Quebec,1,ac,1.4,0.864,43.8,27.037,161,19.71,193,212,JonquiÃƒÂ¨re,48.038541,-75.0635898,QC_JNQ_DSS,Abitibi Consolidated KÃƒÂ©nogami,46.1689135875,-71.99457506249999,QC_ACK_ISS,
36762,L1642,Hydro-QuÃƒÂ©bec Transmission,QC,Quebec,1,ac,7.0,4.321,43.8,27.037,161,19.71,193,212,Saguenay,48.405959,-71.069183,QC_SAG_TSS,Cascades Canada Saguenay,47.83064635000001,-69.16896555697971,QC_CCS_ISS,
36763,L1642,Hydro-QuÃƒÂ©bec Transmission,QC,Quebec,1,ac,5.6,3.457,43.8,27.037,161,19.71,193,212,Cascades Canada Saguenay,47.83064635000001,-69.16896555697971,QC_CCS_ISS,JonquiÃƒÂ¨re,48.038541,-75.0635898,QC_JNQ_DSS,
36764,L1642,Hydro-QuÃƒÂ©bec Transmission,QC,Quebec,1,ac,20.0,12.346,43.8,27.037,161,19.71,193,212,Cascades Canada Saguenay,47.83064635000001,-69.16896555697971,QC_CCS_ISS,Junction 1646,43.664022488348074,-79.47146885912669,QC_1646_JCT,
36765,L1642,Hydro-QuÃƒÂ©bec Transmission,QC,Quebec,1,ac,7.0,4.321,43.8,27.037,161,19.71,193,212,Junction 1646,43.664022488348074,-79.47146885912669,QC_1646_JCT,Saint-Ambroise,48.557523,-71.324615,QC_SAM_DSS,
36766,L1642,Hydro-QuÃƒÂ©bec Transmission,QC,Quebec,1,ac,2.8,1.728,43.8,27.037,161,19.71,193,212,Abitibi Consolidated KÃƒÂ©nogami,46.1689135875,-71.99457506249999,QC_ACK_ISS,Ville de Saguenay,48.405959,-71.069183,QC_VSA_DSS,
36770,L1643,Hydro-QuÃƒÂ©bec Transmission,QC,Quebec,1,ac,7.0,4.321,30.8,19.012,161,13.86,193,212,Cascades Canada Saguenay,47.83064635000001,-69.16896555697971,QC_CCS_ISS,Junction 1647,43.664022488348074,-79.47146885912669,QC_1647_JCT,
36771,L1643,Hydro-QuÃƒÂ©bec Transmission,QC,Quebec,1,ac,7.0,4.321,30.8,19.012,161,13.86,193,212,Junction 1647,43.664022488348074,-79.47146885912669,QC_1647_JCT,Saint-Ambroise,48.557523,-71.324615,QC_SAM_DSS,
36773,L1644,Hydro-QuÃƒÂ©bec Transmission,QC,Quebec,1,ac,15.0,9.259,15.0,9.259,161,6.75,193,212,Saguenay,48.405959,-71.069183,QC_SAG_TSS,Du Portage,47.7672259,-69.6105212,QC_DPT_DSS,
36775,L1646,Hydro-QuÃƒÂ©bec Transmission,QC,Quebec,1,ac,11.2,6.914,19.6,12.099,161,8.82,193,212,Niobec,48.532098899999994,-71.14996136645,QC_NIO_ISS,Chicoutimi-Nord,48.4382053,-71.0750109,QC_CHN_DSS,
36776,L1646,Hydro-QuÃƒÂ©bec Transmission,QC,Quebec,1,ac,4.2,2.593,19.6,12.099,161,8.82,193,212,Junction 1646,43.664022488348074,-79.47146885912669,QC_1646_JCT,Niobec,48.532098899999994,-71.14996136645,QC_NIO_ISS,
36777,L1646,Hydro-QuÃƒÂ©bec Transmission,QC,Quebec,1,ac,4.2,2.593,19.6,12.099,161,8.82,193,212,Junction 1646,43.664022488348074,-79.47146885912669,QC_1646_JCT,Simard,46.8928491,-71.322699,QC_SIM_TSS,
36778,L1647,Hydro-QuÃƒÂ©bec Transmission,QC,Quebec,1,ac,15.4,9.506,25.3,15.617,161,11.39,193,212,Junction 1647,43.664022488348074,-79.47146885912669,QC_1647_JCT,Chicoutimi-Nord,48.4382053,-71.0750109,QC_CHN_DSS,
36781,L1647,Hydro-QuÃƒÂ©bec Transmission,QC,Quebec,1,ac,4.2,2.593,25.3,15.617,161,11.39,193,212,Junction 1647,43.664022488348074,-79.47146885912669,QC_1647_JCT,Simard,46.8928491,-71.322699,QC_SIM_TSS,
36782,L1648,Hydro-QuÃƒÂ©bec Transmission,QC,Quebec,1,ac,108.3,66.852,108.3,66.852,161,48.74,171,188,Simard,46.8928491,-71.322699,QC_SIM_TSS,PÃƒÂ©ribonka,47.18911184415097,-75.35146443563943,QC_PRB_GSS,
36784,L1650,Hydro-QuÃƒÂ©bec Transmission,QC,Quebec,1,ac,5.7,3.519,5.7,3.519,161,2.57,193,212,Laure,48.32179805,-74.41234547326698,QC_LAU_DSS,Pointe-Noire,46.80664,-75.7425446,QC_PNE_ISS,
36785,L1652,Hydro-QuÃƒÂ©bec Transmission,QC,Quebec,1,ac,31.92,19.704,94.62,58.407,120,39.81,104,114,Romaine-1,50.38593355,-63.260307946624934,QC_RM1_GSS,Johan-Beetz,50.289411,-62.8063611,QC_JHB_DSS,
36786,L1652,Hydro-QuÃƒÂ©bec Transmission,QC,Quebec,1,ac,62.7,38.704,94.62,58.407,120,39.81,104,114,Johan-Beetz,50.289411,-62.8063611,QC_JHB_DSS,Natashquan,50.1839077,-61.8174062,QC_NTS_DSS,
36787,L1653,Hydro-QuÃƒÂ©bec Transmission,QC,Quebec,1,ac,31.92,19.704,31.92,19.704,120,13.43,107,118,Havre-Saint-Pierre,50.2463647,-63.6003951,QC_HSP_DSS,Romaine-1,50.38593355,-63.260307946624934,QC_RM1_GSS,
36788,L1657,Hydro-QuÃƒÂ©bec Transmission,QC,Quebec,1,ac,11.4,7.037,28.5,17.593,161,12.83,193,212,RiviÃƒÂ¨re-au-Renard,48.498627500000005,-71.301098,QC_RVD_DSS,Anse-ÃƒÂ -Valleau,46.343401,-71.64715952914058,QC_ANV_GSS,
36789,L1657,Hydro-QuÃƒÂ©bec Transmission,QC,Quebec,1,ac,17.1,10.556,28.5,17.593,161,12.83,193,212,Anse-ÃƒÂ -Valleau,46.343401,-71.64715952914058,QC_ANV_GSS,Montagne-SÃƒÂ¨che,47.44862519787838,-71.23124315102879,QC_MSH_GSS,
36790,L1659,Hydro-QuÃƒÂ©bec Transmission,QC,Quebec,1,ac,17.1,10.556,17.1,10.556,161,7.7,193,212,Montagne-SÃƒÂ¨che,47.44862519787838,-71.23124315102879,QC_MSH_GSS,Grande VallÃƒÂ©e,46.599697229120224,-72.80366429294207,QC_GVL_DSS,
36791,L1665,Hydro-QuÃƒÂ©bec Transmission,QC,Quebec,1,ac,62.7,38.704,62.7,38.704,161,28.22,193,212,Magpie,50.3078598,-64.4999864,QC_MGP_GSS,Havre-Saint-Pierre,50.2463647,-63.6003951,QC_HSP_DSS,
36792,L1695,Hydro-QuÃƒÂ©bec Transmission,QC,Quebec,1,ac,78.0,48.148,203.4,125.556,120,85.57,63,69,Lac-Hope,47.25425745,-77.28142836195065,QC_LHP_DSS,Hart-Jaune,51.81437425,-67.85196915488217,QC_HTJ_GSS,
36793,L1695,Hydro-QuÃƒÂ©bec Transmission,QC,Quebec,1,ac,125.4,77.407,203.4,125.556,120,85.57,63,69,Normand,46.6973109,-71.30426825,QC_NRM_DSS,Lac-Hope,47.25425745,-77.28142836195065,QC_LHP_DSS,
36794,L2304,Hydro-QuÃƒÂ©bec Transmission,QC,Quebec,1,ac,22.8,14.074,22.8,14.074,230,10.94,402,435,Chute-Allard,47.8929364,-73.7185591011652,QC_CAL_GSS,Rapide-des-Coeurs,47.7866946,-73.3752530398013,QC_RPC_GSS,
36795,L2305,Hydro-QuÃƒÂ©bec Transmission,QC,Quebec,1,ac,28.5,17.593,28.5,17.593,230,13.68,402,435,Rapide-des-Coeurs,47.7866946,-73.3752530398013,QC_RPC_GSS,Rapide-Blanc,47.790592450000005,-72.96269459384149,QC_RPB_TSS,
36796,L2306,Hydro-QuÃƒÂ©bec Transmission,QC,Quebec,1,ac,21.0,12.963,21.0,12.963,230,10.08,402,435,Sherbrooke,45.403271,-71.889038,QC_SHR_TSS,Des Cantons,46.414044,-70.5966801,QC_DEC_TSS,
36799,L2311,Hydro-QuÃƒÂ©bec Transmission,QC,Quebec,1,ac,11.4,7.037,62.7,38.704,230,30.1,402,435,LÃƒÂ©vis,47.05352213664855,-70.28648006181166,QC_LVS_DSS,Bourget,45.4993544,-73.5693941,QC_BGT_DSS,
36800,L2311,Hydro-QuÃƒÂ©bec Transmission,QC,Quebec,1,ac,22.8,14.074,62.7,38.704,230,30.1,402,435,Bourget,45.4993544,-73.5693941,QC_BGT_DSS,La Durantaye,46.835066,-70.85598,QC_LAD_DSS,
36801,L2311,Hydro-QuÃƒÂ©bec Transmission,QC,Quebec,1,ac,28.5,17.593,62.7,38.704,230,30.1,402,435,La Durantaye,46.835066,-70.85598,QC_LAD_DSS,Montmagny,46.9826328,-70.555916,QC_MNM_DSS,
36805,L2313,Hydro-QuÃƒÂ©bec Transmission,QC,Quebec,1,ac,57.0,35.185,96.9,59.815,230,46.51,383,414,Trois-Pistoles,48.122101,-69.169922,QC_TRP_DSS,Rimouski,48.450155,-68.529968,QC_RIM_TSS,
36806,L2313,Hydro-QuÃƒÂ©bec Transmission,QC,Quebec,1,ac,39.9,24.63,96.9,59.815,230,46.51,383,414,RiviÃƒÂ¨re-du-Loup,48.513775156250006,-72.167076125,QC_RDL_TSS,Trois-Pistoles,48.122101,-69.169922,QC_TRP_DSS,
36809,L2317,Hydro-QuÃƒÂ©bec Transmission,QC,Quebec,1,ac,1.0,0.617,1.0,0.617,230,0.48,402,435,Sorel,46.044404,-73.104744,QC_SOR_DSS,Qit-Fer-et-Titane,48.78098093051887,-76.74101594195494,QC_QFT_ISS,
36811,L2319,Hydro-QuÃƒÂ©bec Transmission,QC,Quebec,1,ac,13.125,8.102,42.0,25.926,230,20.16,402,435,Saint-Basile,46.7565352,-71.8248449,QC_SAB_DSS,Boucherville,45.6050197,-73.4526144,QC_BCH_TSS,
36812,L2319,Hydro-QuÃƒÂ©bec Transmission,QC,Quebec,1,ac,28.875,17.824,42.0,25.926,230,20.16,402,435,Saint-CÃƒÂ©saire,46.014716175,-74.106413725,QC_SCS_DSS,Saint-Basile,46.7565352,-71.8248449,QC_SAB_DSS,
36813,L2320,Hydro-QuÃƒÂ©bec Transmission,QC,Quebec,2,ac,47.25,29.167,47.25,29.167,230,22.68,402,435,Varennes,45.6834691,-73.4362737,QC_VRN_DSS,Sorel-Sud,46.0428486,-73.1148817,QC_SRS_DSS,
36814,L2321,Hydro-QuÃƒÂ©bec Transmission,QC,Quebec,1,ac,13.125,8.102,13.125,8.102,230,6.3,402,435,Boucherville,45.6050197,-73.4526144,QC_BCH_TSS,Varennes,45.6834691,-73.4362737,QC_VRN_DSS,
36815,L2322,Hydro-QuÃƒÂ©bec Transmission,QC,Quebec,1,ac,18.375,11.343,18.375,11.343,230,8.82,402,435,Sidbec-Dosco,47.67632675,-71.29184169999999,QC_SDD_ISS,Carignan,45.437955,-73.3554902,QC_CRG_TSS,
36816,L2323,Hydro-QuÃƒÂ©bec Transmission,QC,Quebec,1,ac,18.375,11.343,22.575,13.935,230,10.84,402,435,Varennes,45.6834691,-73.4362737,QC_VRN_DSS,Mittal Canada Inc Contrecoeur,48.944624525,-67.18640797500001,QC_MTC_ISS,
36817,L2323,Hydro-QuÃƒÂ©bec Transmission,QC,Quebec,1,ac,4.2,2.593,22.575,13.935,230,10.84,402,435,Mittal Canada Inc Contrecoeur,48.944624525,-67.18640797500001,QC_MTC_ISS,Sidbec-Dosco,47.67632675,-71.29184169999999,QC_SDD_ISS,
36820,L2325,Hydro-QuÃƒÂ©bec Transmission,QC,Quebec,1,ac,5.7,3.519,231.42,142.852,230,111.08,215,233,LIsle Maligne,48.24803608346079,-71.1606503480042,QC_LIM_ISS,Alma,48.548887,-71.651459,QC_ALM_DSS,
36821,L2325,Hydro-QuÃƒÂ©bec Transmission,QC,Quebec,1,ac,216.6,133.704,231.42,142.852,230,111.08,215,233,Alma,48.548887,-71.651459,QC_ALM_DSS,Charlesbourg,46.89564985,-71.2908285897658,QC_CHB_DSS,
36822,L2325,Hydro-QuÃƒÂ©bec Transmission,QC,Quebec,2,ac,9.12,5.63,231.42,142.852,230,111.08,215,233,Charlesbourg,46.89564985,-71.2908285897658,QC_CHB_DSS,QuÃƒÂ©bec,45.5550553,-74.88500905000001,QC_QBC_TSS,
36824,L2327,Hydro-QuÃƒÂ©bec Transmission,QC,Quebec,1,ac,1.05,0.648,14.175,8.75,230,6.8,402,435,Varennes,45.6834691,-73.4362737,QC_VRN_DSS,PÃƒÂ©tremont Inc,48.553571061037744,-76.54250858390986,QC_PMT_ISS,
36826,L2328,Hydro-QuÃƒÂ©bec Transmission,QC,Quebec,2,ac,18.375,11.343,42.0,25.926,230,20.16,402,435,Rouville,45.4234799,-73.0378779,QC_RVL_DSS,Boucherville,45.6050197,-73.4526144,QC_BCH_TSS,
36827,L2328,Hydro-QuÃƒÂ©bec Transmission,QC,Quebec,2,ac,23.625,14.583,42.0,25.926,230,20.16,402,435,Saint-CÃƒÂ©saire,46.014716175,-74.106413725,QC_SCS_DSS,Rouville,45.4234799,-73.0378779,QC_RVL_DSS,
36828,L2329,Hydro-QuÃƒÂ©bec Transmission,QC,Quebec,1,ac,7.875,4.861,7.875,4.861,230,3.78,402,435,Thetford,46.091329,-71.30127,QC_THT_DSS,Appalaches,46.5895686,-71.01398860552078,QC_APP_TSS,
36829,L2330,Hydro-QuÃƒÂ©bec Transmission,QC,Quebec,1,ac,8.0,4.938,8.0,4.938,230,3.84,402,435,QuÃƒÂ©bec,45.5550553,-74.88500905000001,QC_QBC_TSS,La SuÃƒÂ¨te,45.4765884,-73.89221172500001,QC_LST_DSS,
36830,L2331,Hydro-QuÃƒÂ©bec Transmission,QC,Quebec,1,ac,159.6,98.519,159.6,98.519,230,76.61,275,298,Trenche,47.7449387,-72.8819776,QC_TRC_GSS,Trois-RiviÃƒÂ¨res,48.339185625,-68.41265826613159,QC_TRR_SWS,
36831,L2332,Hydro-QuÃƒÂ©bec Transmission,QC,Quebec,1,ac,8.6,5.309,8.6,5.309,230,4.13,402,435,Carignan,45.437955,-73.3554902,QC_CRG_TSS,Sorel,46.044404,-73.104744,QC_SOR_DSS,
36832,L2333,Hydro-QuÃƒÂ©bec Transmission,QC,Quebec,1,ac,10.0,6.173,10.0,6.173,230,4.8,402,435,ChaudiÃƒÂ¨re,46.5762592,-73.27212225,QC_CHU_DSS,LÃƒÂ©vis,47.05352213664855,-70.28648006181166,QC_LVS_DSS,
36833,L2334,Hydro-QuÃƒÂ©bec Transmission,QC,Quebec,1,ac,7.0,4.321,12.0,7.407,230,5.76,402,435,Trois-RiviÃƒÂ¨res,48.339185625,-68.41265826613159,QC_TRR_SWS,Cap-de-la-Madeleine,46.368253,-72.509079,QC_CPM_DSS,
36834,L2334,Hydro-QuÃƒÂ©bec Transmission,QC,Quebec,1,ac,5.0,3.086,12.0,7.407,230,5.76,402,435,Chenaux,46.5473036,-72.3896926,QC_CHE_DSS,Trois-RiviÃƒÂ¨res,48.339185625,-68.41265826613159,QC_TRR_SWS,
36836,L2336,Hydro-QuÃƒÂ©bec Transmission,QC,Quebec,1,ac,8.0,4.938,16.6,10.247,230,7.97,402,435,Sorel,46.044404,-73.104744,QC_SOR_DSS,Sorel-Sud,46.0428486,-73.1148817,QC_SRS_DSS,
36837,L2337,Hydro-QuÃƒÂ©bec Transmission,QC,Quebec,1,ac,7.0,4.321,7.0,4.321,230,3.36,402,435,Laurentides,46.6070866,-75.1209782075808,QC_LDS_TSS,QuÃƒÂ©bec,45.5550553,-74.88500905000001,QC_QBC_TSS,
36839,L2340,Hydro-QuÃƒÂ©bec Transmission,QC,Quebec,1,ac,5.7,3.519,34.2,21.111,230,16.42,402,435,Saint-Ulric-Saint-LÃƒÂ©andre,45.9912155,-74.04948250000001,QC_SUL_GSS,Le Nordais-1,49.0594699,-66.7585946,QC_LN1_GSS,
36840,L2340,Hydro-QuÃƒÂ©bec Transmission,QC,Quebec,1,ac,5.7,3.519,34.2,21.111,230,16.42,402,435,Le Nordais-1,49.0594699,-66.7585946,QC_LN1_GSS,Matane,48.8468773,-67.5295498,QC_MAT_DSS,
36841,L2340,Hydro-QuÃƒÂ©bec Transmission,QC,Quebec,1,ac,22.8,14.074,34.2,21.111,230,16.42,402,435,Les Boules,48.6839287,-67.9841822,QC_LBS_TSS,Saint-Ulric-Saint-LÃƒÂ©andre,45.9912155,-74.04948250000001,QC_SUL_GSS,
36842,L2341,Hydro-QuÃƒÂ©bec Transmission,QC,Quebec,1,ac,68.4,42.222,102.6,63.333,230,49.25,368,399,Matane,48.8468773,-67.5295498,QC_MAT_DSS,GoÃƒÂ©mon,45.681664375,-75.08060577913346,QC_GOE_TSS,
36843,L2341,Hydro-QuÃƒÂ©bec Transmission,QC,Quebec,1,ac,5.7,3.519,102.6,63.333,230,49.25,368,399,Spruce Falls Inc,46.8162625,-70.2461726,QC_SPF_ISS,Matane,48.8468773,-67.5295498,QC_MAT_DSS,
36844,L2341,Hydro-QuÃƒÂ©bec Transmission,QC,Quebec,1,ac,28.5,17.593,102.6,63.333,230,49.25,368,399,Les Boules,48.6839287,-67.9841822,QC_LBS_TSS,Spruce Falls Inc,46.8162625,-70.2461726,QC_SPF_ISS,
36845,L2342,Hydro-QuÃƒÂ©bec Transmission,QC,Quebec,1,ac,2.5,1.543,2.5,1.543,230,1.2,402,435,Des HÃƒÂªtres,47.25966735,-70.20037306638403,QC_DEH_DSS,Alcan Usine Shawinigan,49.06950295,-70.2960210553192,QC_AUS_ISS,
36846,L2343,Hydro-QuÃƒÂ©bec Transmission,QC,Quebec,1,ac,4.0,2.469,4.0,2.469,230,1.92,402,435,BÃƒÂ©cancour,46.635082,-72.151083,QC_BEC_TSS,Trans Canada Ãƒâ€°nergie,46.619424175000006,-74.3083205202775,QC_TCE_ISS,
36850,L2346,Hydro-QuÃƒÂ©bec Transmission,QC,Quebec,2,ac,10.0,6.173,10.0,6.173,230,4.8,402,435,Mauricie,47.57124705,-73.20809134761296,QC_MAU_TSS,La Gabelle,46.44853335,-72.74107537170389,QC_LAG_GSS,
36851,L2349,Hydro-QuÃƒÂ©bec Transmission,QC,Quebec,1,ac,11.4,7.037,69.4,42.84,230,33.31,402,435,Le Nordais-2,49.0594699,-66.7585946,QC_LN2_GSS,GoÃƒÂ©mon,45.681664375,-75.08060577913346,QC_GOE_TSS,
36852,L2349,Hydro-QuÃƒÂ©bec Transmission,QC,Quebec,1,ac,58.0,35.802,69.4,42.84,230,33.31,402,435,Matane,48.8468773,-67.5295498,QC_MAT_DSS,Le Nordais-2,49.0594699,-66.7585946,QC_LN2_GSS,
36855,L2351,Hydro-QuÃƒÂ©bec Transmission,QC,Quebec,1,ac,39.9,24.63,96.9,59.815,230,46.51,383,414,PaspÃƒÂ©biac,46.13748215,-72.65410727636343,QC_PSP_DSS,CascapÃƒÂ©dia,48.22333971250001,-67.71246296424493,QC_CSC_DSS,
36856,L2351,Hydro-QuÃƒÂ©bec Transmission,QC,Quebec,1,ac,57.0,35.185,96.9,59.815,230,46.51,383,414,Micmac,48.609741850000006,-70.50899784989917,QC_MCM_DSS,PaspÃƒÂ©biac,46.13748215,-72.65410727636343,QC_PSP_DSS,
36859,L2353,Hydro-QuÃƒÂ©bec Transmission,QC,Quebec,1,ac,7.98,4.926,7.98,4.926,230,3.83,402,435,Micmac,48.609741850000006,-70.50899784989917,QC_MCM_DSS,GaspÃƒÂ©sia,45.4496319625,-75.17321113845261,QC_GSA_ISS,
36860,L2354,Hydro-QuÃƒÂ©bec Transmission,QC,Quebec,1,ac,2.5,1.543,2.5,1.543,230,1.2,402,435,BÃƒÂ©cancour,46.635082,-72.151083,QC_BEC_TSS,Aluminerie-de-BÃƒÂ©cancour,49.365997825,-72.27819746441787,QC_ABC_ISS,
36862,L2356,Hydro-QuÃƒÂ©bec Transmission,QC,Quebec,1,ac,63.0,38.889,65.625,40.509,230,31.5,402,435,Sorel,46.044404,-73.104744,QC_SOR_DSS,Francheville,54.966359100000005,-67.93776825734012,QC_FRA_DSS,
36863,L2356,Hydro-QuÃƒÂ©bec Transmission,QC,Quebec,1,ac,2.625,1.62,65.625,40.509,230,31.5,402,435,Francheville,54.966359100000005,-67.93776825734012,QC_FRA_DSS,Trois-RiviÃƒÂ¨res,48.339185625,-68.41265826613159,QC_TRR_SWS,
36864,L2357,Hydro-QuÃƒÂ©bec Transmission,QC,Quebec,1,ac,10.1,6.235,10.1,6.235,230,4.85,402,435,New Richmond,48.1651194,-65.8655584,QC_NRD_GSS,CascapÃƒÂ©dia,48.22333971250001,-67.71246296424493,QC_CSC_DSS,Line name assumed
36865,L2358,Hydro-QuÃƒÂ©bec Transmission,QC,Quebec,1,ac,92.5,57.099,142.5,87.963,230,68.4,297,321,Beaumont GS,46.863854225,-71.1084155238058,QC_BMT_GSS,MÃƒÂ©kanic,46.016169287101874,-72.6693915247487,QC_MEK_DSS,
36866,L2358,Hydro-QuÃƒÂ©bec Transmission,QC,Quebec,1,ac,50.0,30.864,142.5,87.963,230,68.4,297,321,MÃƒÂ©kanic,46.016169287101874,-72.6693915247487,QC_MEK_DSS,Trois-RiviÃƒÂ¨res,48.339185625,-68.41265826613159,QC_TRR_SWS,
36867,L2360,Hydro-QuÃƒÂ©bec Transmission,QC,Quebec,1,ac,42.0,25.926,42.0,25.926,230,20.16,402,435,Heriot,45.8842858,-72.4870998,QC_HER_TSS,Nicolet,46.2272898,-72.6192665,QC_NIC_TSS,
36870,L2367,Hydro-QuÃƒÂ©bec Transmission,QC,Quebec,1,ac,12.0,7.407,12.0,7.407,230,5.76,402,435,La SuÃƒÂ¨te,45.4765884,-73.89221172500001,QC_LST_DSS,ChaudiÃƒÂ¨re,46.5762592,-73.27212225,QC_CHU_DSS,
36871,L2369,Hydro-QuÃƒÂ©bec Transmission,QC,Quebec,1,ac,10.0,6.173,10.0,6.173,230,4.8,402,435,Laurentides,46.6070866,-75.1209782075808,QC_LDS_TSS,La SuÃƒÂ¨te,45.4765884,-73.89221172500001,QC_LST_DSS,
36872,L2370,Hydro-QuÃƒÂ©bec Transmission,QC,Quebec,1,ac,91.2,56.296,93.48,57.704,230,44.87,392,424,La Tuque,47.441092,-72.78511,QC_LTU_GSS,Emballages-Smurfit-Stone La Tuque,45.716790875,-73.30503935030063,QC_EST_ISS,Line name assumed
36873,L2370,Hydro-QuÃƒÂ©bec Transmission,QC,Quebec,1,ac,2.28,1.407,93.48,57.704,230,44.87,392,424,Des HÃƒÂªtres,47.25966735,-70.20037306638403,QC_DEH_DSS,La Tuque,47.441092,-72.78511,QC_LTU_GSS,
36874,L2371,Hydro-QuÃƒÂ©bec Transmission,QC,Quebec,1,ac,17.0,10.494,17.0,10.494,230,8.16,402,435,Mauricie,47.57124705,-73.20809134761296,QC_MAU_TSS,Des HÃƒÂªtres,47.25966735,-70.20037306638403,QC_DEH_DSS,
36875,L2372,Hydro-QuÃƒÂ©bec Transmission,QC,Quebec,1,ac,16.0,9.877,16.0,9.877,230,7.68,402,435,Trois-RiviÃƒÂ¨res,48.339185625,-68.41265826613159,QC_TRR_SWS,Mauricie,47.57124705,-73.20809134761296,QC_MAU_TSS,
36876,L2373,Hydro-QuÃƒÂ©bec Transmission,QC,Quebec,1,ac,7.875,4.861,7.875,4.861,230,3.78,402,435,Thetford,46.091329,-71.30127,QC_THT_DSS,Antoine-Lemieux,46.4664848,-71.33057406733067,QC_ANL_DSS,
36877,L2374,Hydro-QuÃƒÂ©bec Transmission,QC,Quebec,1,ac,55.125,34.028,55.125,34.028,230,26.46,402,435,Thetford,46.091329,-71.30127,QC_THT_DSS,Beauceville,46.210725,-70.774269,QC_BCV_TSS,
36879,L2376,Hydro-QuÃƒÂ©bec Transmission,QC,Quebec,1,ac,34.125,21.065,34.125,21.065,230,16.38,402,435,Nicolet,46.2272898,-72.6192665,QC_NIC_TSS,Kingsey,45.857978,-72.069283,QC_KSY_TSS,
36885,L2380,Hydro-QuÃƒÂ©bec Transmission,QC,Quebec,1,ac,153.9,95.0,153.9,95.0,230,73.87,282,305,Rapide-Blanc,47.790592450000005,-72.96269459384149,QC_RPB_TSS,Des HÃƒÂªtres,47.25966735,-70.20037306638403,QC_DEH_DSS,
36886,L2381,Hydro-QuÃƒÂ©bec Transmission,QC,Quebec,1,ac,42.0,25.926,42.0,25.926,230,20.16,402,435,Nicolet,46.2272898,-72.6192665,QC_NIC_TSS,BÃƒÂ©cancour,46.635082,-72.151083,QC_BEC_TSS,
36889,L2383,Hydro-QuÃƒÂ©bec Transmission,QC,Quebec,1,ac,7.5,4.63,52.125,32.176,230,25.02,402,435,BÃƒÂ©cancour,46.635082,-72.151083,QC_BEC_TSS,BÃƒÂ©cancour GS,47.15938945,-70.5182119,QC_BEC_GSS,
36890,L2384,Hydro-QuÃƒÂ©bec Transmission,QC,Quebec,1,ac,13.125,8.102,13.125,8.102,230,6.3,402,435,MÃƒÂ©tallurgie Magnola Inc,45.60112464355093,-73.03682001237435,QC_MMI_ISS,Kingsey,45.857978,-72.069283,QC_KSY_TSS,
36891,L2385,Hydro-QuÃƒÂ©bec Transmission,QC,Quebec,1,ac,30.0,18.519,30.0,18.519,230,14.4,402,435,Trois-RiviÃƒÂ¨res,48.339185625,-68.41265826613159,QC_TRR_SWS,BÃƒÂ©cancour,46.635082,-72.151083,QC_BEC_TSS,
36893,L2387,Hydro-QuÃƒÂ©bec Transmission,QC,Quebec,1,ac,5.7,3.519,45.6,28.148,230,21.89,402,435,Rimouski,48.450155,-68.529968,QC_RIM_TSS,Jules-A.-Brillant,48.45042586808255,-68.52407645976726,QC_JUB_DSS,
36894,L2387,Hydro-QuÃƒÂ©bec Transmission,QC,Quebec,1,ac,17.1,10.556,45.6,28.148,230,21.89,402,435,Mont-Joli,48.583875,-68.183899,QC_MTJ_DSS,Les Boules,48.6839287,-67.9841822,QC_LBS_TSS,
36895,L2387,Hydro-QuÃƒÂ©bec Transmission,QC,Quebec,1,ac,22.8,14.074,45.6,28.148,230,21.89,402,435,Jules-A.-Brillant,48.45042586808255,-68.52407645976726,QC_JUB_DSS,Mont-Joli,48.583875,-68.183899,QC_MTJ_DSS,
36899,L2389,Hydro-QuÃƒÂ©bec Transmission,QC,Quebec,1,ac,7.0,4.321,7.0,4.321,230,3.36,402,435,Trois-RiviÃƒÂ¨res,48.339185625,-68.41265826613159,QC_TRR_SWS,Kruger Inc Trois-RiviÃƒÂ¨res,46.10469280152944,-74.14605010105035,QC_KRT_ISS,
36900,L2392,Hydro-QuÃƒÂ©bec Transmission,QC,Quebec,1,ac,5.7,3.519,74.1,45.741,230,35.57,402,435,Saint-Ulric-Saint-LÃƒÂ©andre,45.9912155,-74.04948250000001,QC_SUL_GSS,Le Nordais-2,49.0594699,-66.7585946,QC_LN2_GSS,
36901,L2392,Hydro-QuÃƒÂ©bec Transmission,QC,Quebec,1,ac,39.9,24.63,74.1,45.741,230,35.57,402,435,Rimouski,48.450155,-68.529968,QC_RIM_TSS,Les Boules,48.6839287,-67.9841822,QC_LBS_TSS,
36905,L2394,Hydro-QuÃƒÂ©bec Transmission,QC,Quebec,1,ac,11.4,7.037,85.5,52.778,230,41.04,402,435,LAnse Pleureuse,47.77426733384314,-71.43505239201679,QC_LPL_DSS,Gros-Morne,49.2520793,-65.54472,QC_GRM_GSS,
36906,L2394,Hydro-QuÃƒÂ©bec Transmission,QC,Quebec,1,ac,5.7,3.519,85.5,52.778,230,41.04,402,435,Mont-Louis,49.2191155,-65.6972276,QC_MTL_GSS,LAnse Pleureuse,47.77426733384314,-71.43505239201679,QC_LPL_DSS,
36907,L2394,Hydro-QuÃƒÂ©bec Transmission,QC,Quebec,1,ac,68.4,42.222,85.5,52.778,230,41.04,402,435,GoÃƒÂ©mon,45.681664375,-75.08060577913346,QC_GOE_TSS,Mont-Louis,49.2191155,-65.6972276,QC_MTL_GSS,
36908,L2396,Hydro-QuÃƒÂ©bec Transmission,QC,Quebec,1,ac,17.1,10.556,85.5,52.778,230,41.04,402,435,Mont-Louis,49.2191155,-65.6972276,QC_MTL_GSS,Gros-Morne,49.2520793,-65.54472,QC_GRM_GSS,
36910,L2397,Hydro-QuÃƒÂ©bec Transmission,QC,Quebec,1,ac,34.2,21.111,96.9,59.815,230,46.51,383,414,CascapÃƒÂ©dia,48.22333971250001,-67.71246296424493,QC_CSC_DSS,Carleton,48.101464,-66.1140521,QC_CLT_GSS,
36911,L2397,Hydro-QuÃƒÂ©bec Transmission,QC,Quebec,1,ac,62.7,38.704,96.9,59.815,230,46.51,383,414,Carleton,48.101464,-66.1140521,QC_CLT_GSS,MatapÃƒÂ©dia,48.209062175,-70.36882057380649,QC_MTP_DSS,
36914,L2399,Hydro-QuÃƒÂ©bec Transmission,QC,Quebec,1,ac,65.625,40.509,65.625,40.509,230,31.5,402,435,Beauceville,46.210725,-70.774269,QC_BCV_TSS,LÃƒÂ©vis,47.05352213664855,-70.28648006181166,QC_LVS_DSS,
36915,L2403,Hydro-QuÃƒÂ©bec Transmission,QC,Quebec,1,ac,13.75,8.488,13.75,8.488,230,6.6,402,435,Outaouais,46.6099678,-76.7719627720078,QC_OUT_TSS,Masson-Sud,45.5452687,-75.4211068,QC_MSS_DSS,
36917,L2405,Hydro-QuÃƒÂ©bec Transmission,QC,Quebec,2,ac,3.5,2.16,3.5,2.16,230,1.68,402,435,Charlesbourg,46.89564985,-71.2908285897658,QC_CHB_DSS,Frontenac-1,45.428991,-75.72145898091603,QC_FR1_DSS,
36918,L2406,Hydro-QuÃƒÂ©bec Transmission,QC,Quebec,2,ac,3.5,2.16,3.5,2.16,230,1.68,402,435,Laurentides,46.6070866,-75.1209782075808,QC_LDS_TSS,Charlesbourg,46.89564985,-71.2908285897658,QC_CHB_DSS,
36919,L2407,Hydro-QuÃƒÂ©bec Transmission,QC,Quebec,1,ac,0.8,0.494,5.8,3.58,230,2.78,402,435,Limoilou,46.8262728,-71.233149,QC_LLL_DSS,Compagnie Papiers Stadacona S.E.C.,45.921953075,-72.30755114142691,QC_CPS_ISS,
36920,L2407,Hydro-QuÃƒÂ©bec Transmission,QC,Quebec,1,ac,5.0,3.086,5.8,3.58,230,2.78,402,435,QuÃƒÂ©bec,45.5550553,-74.88500905000001,QC_QBC_TSS,Limoilou,46.8262728,-71.233149,QC_LLL_DSS,
36922,L3001,Hydro-QuÃƒÂ©bec Transmission,QC,Quebec,1,ac,387.6,239.259,387.6,239.259,315,175.68,303,366,Bersimis-1,49.2933544,-69.5515852,QC_BS1_GSS,Laurentides,46.6070866,-75.1209782075808,QC_LDS_TSS,
36926,L3005,Hydro-QuÃƒÂ©bec Transmission,QC,Quebec,2,ac,47.25,29.167,131.25,81.019,315,59.49,618,748,Bout-de-lÃƒÅ½le,49.970961200000005,-72.05002239999999,QC_BDI_DSS,LanaudiÃƒÂ¨re,45.55676775,-72.59395724999999,QC_LND_TSS,
36927,L3005,Hydro-QuÃƒÂ©bec Transmission,QC,Quebec,2,ac,84.0,51.852,131.25,81.019,315,59.49,618,748,LanaudiÃƒÂ¨re,45.55676775,-72.59395724999999,QC_LND_TSS,Mauricie,47.57124705,-73.20809134761296,QC_MAU_TSS,
36928,L3006,Hydro-QuÃƒÂ©bec Transmission,QC,Quebec,1,ac,21.0,12.963,21.0,12.963,315,9.52,794,960,Laurentides,46.6070866,-75.1209782075808,QC_LDS_TSS,Anne-HÃƒÂ©bert,46.0972334,-72.28033045276038,QC_ANH_DSS,
36929,L3007,Hydro-QuÃƒÂ©bec Transmission,QC,Quebec,1,ac,18.375,11.343,28.875,17.824,315,13.09,794,960,Saint-Bruno-de-Montarville,45.5256161,-73.3391798,QC_SBM_DSS,Boucherville,45.6050197,-73.4526144,QC_BCH_TSS,
36930,L3007,Hydro-QuÃƒÂ©bec Transmission,QC,Quebec,1,ac,5.25,3.241,28.875,17.824,315,13.09,794,960,La Prairie,45.4175472,-73.4891432,QC_LPR_TSS,Brossard,45.4554579,-73.4678695,QC_BRS_DSS,
36931,L3007,Hydro-QuÃƒÂ©bec Transmission,QC,Quebec,1,ac,5.25,3.241,28.875,17.824,315,13.09,794,960,Brossard,45.4554579,-73.4678695,QC_BRS_DSS,Saint-Bruno-de-Montarville,45.5256161,-73.3391798,QC_SBM_DSS,
36935,L3009,Hydro-QuÃƒÂ©bec Transmission,QC,Quebec,1,ac,34.2,21.111,34.2,21.111,315,15.5,794,960,Bersimis-2,49.175351500000005,-69.22591330326088,QC_BS2_GSS,Bersimis-1,49.2933544,-69.5515852,QC_BS1_GSS,
36936,L3010,Hydro-QuÃƒÂ©bec Transmission,QC,Quebec,1,ac,62.7,38.704,74.1,45.741,315,33.59,794,960,Bersimis-2,49.175351500000005,-69.22591330326088,QC_BS2_GSS,Hauterive,49.1929593,-68.2570763,QC_HTR_DSS,
36937,L3010,Hydro-QuÃƒÂ©bec Transmission,QC,Quebec,1,ac,11.4,7.037,74.1,45.741,315,33.59,794,960,Manicouagan,50.4356692,-68.7676678,QC_MGN_TSS,Hauterive,49.1929593,-68.2570763,QC_HTR_DSS,
36938,L3011,Hydro-QuÃƒÂ©bec Transmission,QC,Quebec,1,ac,102.6,63.333,250.8,154.815,315,113.67,403,488,Les Basques,48.1282639,-69.0332332,QC_BSQ_DSS,Charlevoix,47.6493447,-70.7362215,QC_CHX_DSS,
36939,L3011,Hydro-QuÃƒÂ©bec Transmission,QC,Quebec,1,ac,148.2,91.481,250.8,154.815,315,113.67,403,488,Bersimis-2,49.175351500000005,-69.22591330326088,QC_BS2_GSS,Les Basques,48.1282639,-69.0332332,QC_BSQ_DSS,
36943,L3015,Hydro-QuÃƒÂ©bec Transmission,QC,Quebec,2,ac,78.75,48.611,78.75,48.611,315,35.69,794,960,Mauricie,47.57124705,-73.20809134761296,QC_MAU_TSS,LanaudiÃƒÂ¨re,45.55676775,-72.59395724999999,QC_LND_TSS,
36944,L3016,Hydro-QuÃƒÂ©bec Transmission,QC,Quebec,1,ac,7.875,4.861,55.125,34.028,315,24.98,794,960,Lachenaie,45.702283,-73.5535424,QC_LAC_DSS,Bout-de-lÃƒÅ½le,49.970961200000005,-72.05002239999999,QC_BDI_DSS,
36945,L3016,Hydro-QuÃƒÂ©bec Transmission,QC,Quebec,1,ac,7.875,4.861,55.125,34.028,315,24.98,794,960,Pierre-Le Gardeur,45.7188859,-73.51726880996449,QC_PLG_TSS,Lachenaie,45.702283,-73.5535424,QC_LAC_DSS,
36946,L3016,Hydro-QuÃƒÂ©bec Transmission,QC,Quebec,1,ac,39.375,24.306,55.125,34.028,315,24.98,794,960,LanaudiÃƒÂ¨re,45.55676775,-72.59395724999999,QC_LND_TSS,Pierre-Le Gardeur,45.7188859,-73.51726880996449,QC_PLG_TSS,
36947,L3017,Hydro-QuÃƒÂ©bec Transmission,QC,Quebec,1,ac,4.0,2.469,46.374,28.626,315,21.02,794,960,Saint-Michel,45.5597489,-73.5999622,QC_SMC_DSS,Anjou,45.6048982,-73.5466723,QC_ANJ_DSS,
36949,L3017,Hydro-QuÃƒÂ©bec Transmission,QC,Quebec,1,ac,6.65,4.105,46.374,28.626,315,21.02,794,960,Henri-Bourassa,45.5545124,-73.6682516,QC_BOU_DSS,Bout-de-lÃƒÅ½le,49.970961200000005,-72.05002239999999,QC_BDI_DSS,Bourassa and Henri Bourassa treated as single station
36950,L3017,Hydro-QuÃƒÂ©bec Transmission,QC,Quebec,1,ac,2.394,1.478,46.374,28.626,120,19.51,107,118,Fleury,46.02624794833683,-74.1527865075071,QC_FLE_DSS,Charland,46.7355594,-71.4707002,QC_CLD_DSS,
36951,L3017,Hydro-QuÃƒÂ©bec Transmission,QC,Quebec,1,ac,1.33,0.821,46.374,28.626,315,21.02,794,960,MontrÃƒÂ©al-Est,46.611386975,-71.60607185582857,QC_MTE_DSS,Henri-Bourassa,45.5545124,-73.6682516,QC_BOU_DSS,Bourassa and Henri Bourassa treated as single station
36952,L3017,Hydro-QuÃƒÂ©bec Transmission,QC,Quebec,1,ac,10.0,6.173,46.374,28.626,315,21.02,794,960,Anjou,45.6048982,-73.5466723,QC_ANJ_DSS,MontrÃƒÂ©al-Est,46.611386975,-71.60607185582857,QC_MTE_DSS,
36954,L3017,Hydro-QuÃƒÂ©bec Transmission,QC,Quebec,1,ac,4.0,2.469,46.374,28.626,315,21.02,794,960,Charland,46.7355594,-71.4707002,QC_CLD_DSS,Saint-Michel,45.5597489,-73.5999622,QC_SMC_DSS,
36956,L3019,Hydro-QuÃƒÂ©bec Transmission,QC,Quebec,1,ac,3.192,1.97,11.067,6.831,315,5.02,794,960,Bout-de-lÃƒÅ½le,49.970961200000005,-72.05002239999999,QC_BDI_DSS,Boucherville,45.6050197,-73.4526144,QC_BCH_TSS,
36958,L3020,Hydro-QuÃƒÂ©bec Transmission,QC,Quebec,1,ac,136.8,84.444,136.8,84.444,315,62.0,602,728,Les Basques,48.1282639,-69.0332332,QC_BSQ_DSS,Baie-Saint-Paul,47.444343,-70.505447,QC_BSP_DSS,
36959,L3021,Hydro-QuÃƒÂ©bec Transmission,QC,Quebec,1,ac,7.98,4.926,7.98,4.926,315,3.62,794,960,Manicouagan,50.4356692,-68.7676678,QC_MGN_TSS,Manic-2,46.0539253,-71.9562359,QC_MC2_GSS,
36963,L3026,Hydro-QuÃƒÂ©bec Transmission,QC,Quebec,1,ac,5.7,3.519,5.7,3.519,315,2.58,794,960,Hauterive,49.1929593,-68.2570763,QC_HTR_DSS,Outardes-2,45.9076891,-73.2607234,QC_OT2_GSS,
36964,L3027,Hydro-QuÃƒÂ©bec Transmission,QC,Quebec,1,ac,9.12,5.63,9.12,5.63,315,4.13,794,960,Manic-3,49.7407017,-68.5945136447803,QC_MC3_GSS,Micoua,48.43760645,-74.52958733752216,QC_MIC_TSS,
36966,L3029,Hydro-QuÃƒÂ©bec Transmission,QC,Quebec,1,ac,34.2,21.111,34.2,21.111,315,15.5,794,960,Outardes-3,45.9078756,-73.2606304,QC_OT3_GSS,Manicouagan,50.4356692,-68.7676678,QC_MGN_TSS,
36968,L3031,Hydro-QuÃƒÂ©bec Transmission,QC,Quebec,1,ac,114.0,70.37,114.0,70.37,315,51.67,679,821,Micoua,48.43760645,-74.52958733752216,QC_MIC_TSS,Manic-5,50.6422916,-68.736306,QC_MC5_GSS,
36970,L3033,Hydro-QuÃƒÂ©bec Transmission,QC,Quebec,1,ac,114.0,70.37,114.0,70.37,315,51.67,679,821,Micoua,48.43760645,-74.52958733752216,QC_MIC_TSS,Manic-5A,46.7035326688093,-71.18691394768163,QC_M5A_GSS,
36972,L3035,Hydro-QuÃƒÂ©bec Transmission,QC,Quebec,1,ac,11.4,7.037,11.4,7.037,315,5.17,794,960,Micoua,48.43760645,-74.52958733752216,QC_MIC_TSS,Outardes-4,49.70566085,-68.9050614964652,QC_OT4_GSS,
36974,L3039,Hydro-QuÃƒÂ©bec Transmission,QC,Quebec,1,ac,3.42,2.111,147.06,90.778,315,66.65,574,694,Normand,46.6973109,-71.30426825,QC_NRM_DSS,Lac Bloom,52.82937935,-67.2437254334759,QC_LBM_ISS,
36975,L3039,Hydro-QuÃƒÂ©bec Transmission,QC,Quebec,1,ac,143.64,88.667,147.06,90.778,315,66.65,574,694,Lac Bloom,52.82937935,-67.2437254334759,QC_LBM_ISS,Montagnais,47.91461759575676,-71.90657030205759,QC_MTG_TSS,
36976,L3040,Hydro-QuÃƒÂ©bec Transmission,QC,Quebec,2,ac,15.75,9.722,28.875,17.824,315,13.09,794,960,Chomedey,45.5384715,-73.7427541,QC_CHO_TSS,Blainville,45.67932,-73.87619,QC_BLV_DSS,
36977,L3040,Hydro-QuÃƒÂ©bec Transmission,QC,Quebec,2,ac,13.125,8.102,28.875,17.824,315,13.09,794,960,Blainville,45.67932,-73.87619,QC_BLV_DSS,ChÃƒÂ©nier,41.800283849677214,-81.1742196619198,QC_CHN_TSS,
36980,L3042,Hydro-QuÃƒÂ©bec Transmission,QC,Quebec,1,ac,2.394,1.478,2.394,1.478,315,1.09,794,960,Viger,45.51254115,-73.55318567035573,QC_VIG_SWS,Guy,45.4953736,-73.5798383,QC_GUY_DSS,
36982,L3044,Hydro-QuÃƒÂ©bec Transmission,QC,Quebec,1,ac,5.25,3.241,21.21,13.093,315,9.61,794,960,Roussillon,45.3433881,-73.5900357,QC_RSN_DSS,Hertel,46.3439278,-72.53696442909092,QC_HRT_TSS,
36983,L3044,Hydro-QuÃƒÂ©bec Transmission,QC,Quebec,1,ac,15.96,9.852,21.21,13.093,315,9.61,794,960,Aqueduc,45.439324368280325,-73.59722016511155,QC_AQD_TSS,Roussillon,45.3433881,-73.5900357,QC_RSN_DSS,
36986,L3046,Hydro-QuÃƒÂ©bec Transmission,QC,Quebec,1,ac,2.793,1.724,29.127,17.98,315,13.2,794,960,Sources,45.7510888,-71.7670146,QC_SOU_DSS,Saint-Jean,45.21290625,-73.21942518689312,QC_SJE_DSS,
36987,L3046,Hydro-QuÃƒÂ©bec Transmission,QC,Quebec,1,ac,21.546,13.3,29.127,17.98,315,13.2,794,960,Duvernay,45.5935503,-73.6699909,QC_DUV_TSS,Saraguay,45.5109688,-73.7495725,QC_SRG_DSS,
36988,L3046,Hydro-QuÃƒÂ©bec Transmission,QC,Quebec,1,ac,4.788,2.956,29.127,17.98,315,13.2,794,960,Saraguay,45.5109688,-73.7495725,QC_SRG_DSS,Sources,45.7510888,-71.7670146,QC_SOU_DSS,
36992,L3048,Hydro-QuÃƒÂ©bec Transmission,QC,Quebec,1,ac,7.182,4.433,21.546,13.3,315,9.77,794,960,Duvernay,45.5935503,-73.6699909,QC_DUV_TSS,Le Corbusier,45.5520825,-73.72255830409135,QC_LEC_DSS,
36993,L3048,Hydro-QuÃƒÂ©bec Transmission,QC,Quebec,1,ac,14.364,8.867,21.546,13.3,315,9.77,794,960,Le Corbusier,45.5520825,-73.72255830409135,QC_LEC_DSS,Saraguay,45.5109688,-73.7495725,QC_SRG_DSS,
36994,L3049,Hydro-QuÃƒÂ©bec Transmission,QC,Quebec,1,ac,7.182,4.433,14.364,8.867,315,6.51,794,960,Le Corbusier,45.5520825,-73.72255830409135,QC_LEC_DSS,Chomedey,45.5384715,-73.7427541,QC_CHO_TSS,
37002,L3052,Hydro-QuÃƒÂ©bec Transmission,QC,Quebec,1,ac,79.8,49.259,112.8,69.63,315,51.13,683,827,Petite-Nation,45.8525649,-75.12670561529993,QC_PTN_TSS,ChÃƒÂ©nier,41.800283849677214,-81.1742196619198,QC_CHN_TSS,
37003,L3052,Hydro-QuÃƒÂ©bec Transmission,QC,Quebec,1,ac,33.0,20.37,112.8,69.63,315,51.13,683,827,Outaouais,46.6099678,-76.7719627720078,QC_OUT_TSS,Petite-Nation,45.8525649,-75.12670561529993,QC_PTN_TSS,
37006,L3054,Hydro-QuÃƒÂ©bec Transmission,QC,Quebec,1,ac,21.0,12.963,57.75,35.648,315,26.17,794,960,Patriotes,45.7562513,-73.24408155272687,QC_PAT_DSS,ChÃƒÂ©nier,41.800283849677214,-81.1742196619198,QC_CHN_TSS,
37007,L3054,Hydro-QuÃƒÂ©bec Transmission,QC,Quebec,1,ac,36.75,22.685,57.75,35.648,315,26.17,794,960,Chomedey,45.5384715,-73.7427541,QC_CHO_TSS,Patriotes,45.7562513,-73.24408155272687,QC_PAT_DSS,
37010,L3056,Hydro-QuÃƒÂ©bec Transmission,QC,Quebec,1,ac,2.625,1.62,2.625,1.62,315,1.19,794,960,Boucherville,45.6050197,-73.4526144,QC_BCH_TSS,Du Tremblay,45.5223886,-73.75567758141023,QC_DUT_DSS,
37011,L3057,Hydro-QuÃƒÂ©bec Transmission,QC,Quebec,1,ac,7.875,4.861,7.875,4.861,315,3.57,794,960,Du Tremblay,45.5223886,-73.75567758141023,QC_DUT_DSS,Notre-Dame,48.2467777,-79.0166072,QC_NDA_TSS,
37012,L3058,Hydro-QuÃƒÂ©bec Transmission,QC,Quebec,1,ac,21.0,12.963,21.0,12.963,315,9.52,794,960,ChÃƒÂ©nier,41.800283849677214,-81.1742196619198,QC_CHN_TSS,Lafontaine,45.8116516,-74.014184,QC_LAF_TSS,
37014,L3061,Hydro-QuÃƒÂ©bec Transmission,QC,Quebec,1,ac,2.1,1.296,8.4,5.185,315,3.81,794,960,Du Tremblay,45.5223886,-73.75567758141023,QC_DUT_DSS,Mittal Canada Inc,48.92708935,-68.86040715,QC_MCI_ISS,
37015,L3061,Hydro-QuÃƒÂ©bec Transmission,QC,Quebec,1,ac,6.3,3.889,8.4,5.185,315,3.81,794,960,Mittal Canada Inc,48.92708935,-68.86040715,QC_MCI_ISS,Notre-Dame,48.2467777,-79.0166072,QC_NDA_TSS,
37016,L3062,Hydro-QuÃƒÂ©bec Transmission,QC,Quebec,1,ac,2.625,1.62,2.625,1.62,315,1.19,794,960,Hertel,46.3439278,-72.53696442909092,QC_HRT_TSS,La Prairie,45.4175472,-73.4891432,QC_LPR_TSS,
37018,L3065,Hydro-QuÃƒÂ©bec Transmission,QC,Quebec,1,ac,15.75,9.722,15.75,9.722,315,7.14,794,960,Viger,45.51254115,-73.55318567035573,QC_VIG_SWS,Hertel,46.3439278,-72.53696442909092,QC_HRT_TSS,
37020,L3067,Hydro-QuÃƒÂ©bec Transmission,QC,Quebec,1,ac,13.125,8.102,13.125,8.102,315,5.95,794,960,Jacques-Cartier,45.4037181,-71.9185838,QC_JQC_TSS,Leneuf,47.0899776,-72.09585699311879,QC_LNF_DSS,
37021,L3068,Hydro-QuÃƒÂ©bec Transmission,QC,Quebec,1,ac,6.0,3.704,6.0,3.704,315,2.72,794,960,Laurentides,46.6070866,-75.1209782075808,QC_LDS_TSS,NeufchÃƒÂ¢tel,47.615653025,-71.58264918005034,QC_NEU_DSS,
37022,L3069,Hydro-QuÃƒÂ©bec Transmission,QC,Quebec,1,ac,47.25,29.167,47.25,29.167,315,21.42,794,960,Duvernay,45.5935503,-73.6699909,QC_DUV_TSS,LanaudiÃƒÂ¨re,45.55676775,-72.59395724999999,QC_LND_TSS,
37023,L3070,Hydro-QuÃƒÂ©bec Transmission,QC,Quebec,1,ac,8.0,4.938,15.188,9.375,315,6.88,794,960,Duvernay,45.5935503,-73.6699909,QC_DUV_TSS,Anjou,45.6048982,-73.5466723,QC_ANJ_DSS,
37024,L3070,Hydro-QuÃƒÂ©bec Transmission,QC,Quebec,1,ac,2.4,1.481,15.188,9.375,315,6.88,794,960,Anjou,45.6048982,-73.5466723,QC_ANJ_DSS,Langelier,45.5827257,-73.5431577,QC_LGL_DSS,
37025,L3070,Hydro-QuÃƒÂ©bec Transmission,QC,Quebec,1,ac,4.788,2.956,15.188,9.375,315,6.88,794,960,Langelier,45.5827257,-73.5431577,QC_LGL_DSS,Notre-Dame,48.2467777,-79.0166072,QC_NDA_TSS,
37029,L3072,Hydro-QuÃƒÂ©bec Transmission,QC,Quebec,1,ac,0.399,0.246,3.192,1.97,315,1.45,794,960,Saint-Patrick,46.358488,-72.5443572,QC_SPK_DSS,Atwater,45.4897865,-73.5863426,QC_ATW_DSS,
37030,L3072,Hydro-QuÃƒÂ©bec Transmission,QC,Quebec,1,ac,2.793,1.724,3.192,1.97,315,1.45,794,960,Viger,45.51254115,-73.55318567035573,QC_VIG_SWS,Saint-Patrick,46.358488,-72.5443572,QC_SPK_DSS,
37031,L3073,Hydro-QuÃƒÂ©bec Transmission,QC,Quebec,1,ac,6.384,3.941,9.576,5.911,315,4.34,794,960,Aqueduc,45.439324368280325,-73.59722016511155,QC_AQD_TSS,Atwater,45.4897865,-73.5863426,QC_ATW_DSS,
37032,L3073,Hydro-QuÃƒÂ©bec Transmission,QC,Quebec,1,ac,0.399,0.246,9.576,5.911,315,4.34,794,960,Saint-Patrick,46.358488,-72.5443572,QC_SPK_DSS,Des Irlandais,48.1052907,-69.80406603276806,QC_IRL_DSS,
37033,L3073,Hydro-QuÃƒÂ©bec Transmission,QC,Quebec,1,ac,2.394,1.478,9.576,5.911,315,4.34,794,960,Atwater,45.4897865,-73.5863426,QC_ATW_DSS,Saint-Patrick,46.358488,-72.5443572,QC_SPK_DSS,
37034,L3073,Hydro-QuÃƒÂ©bec Transmission,QC,Quebec,1,ac,0.399,0.246,9.576,5.911,315,4.34,794,960,Des Irlandais,48.1052907,-69.80406603276806,QC_IRL_DSS,Viger,45.51254115,-73.55318567035573,QC_VIG_SWS,
37035,L3078,Hydro-QuÃƒÂ©bec Transmission,QC,Quebec,1,ac,136.8,84.444,176.7,109.074,315,80.09,508,615,LÃƒÂ©vis,47.05352213664855,-70.28648006181166,QC_LVS_DSS,Kamouraska,47.4680992,-69.7909498,QC_KAM_SWS,
37036,L3078,Hydro-QuÃƒÂ©bec Transmission,QC,Quebec,1,ac,39.9,24.63,176.7,109.074,315,80.09,508,615,Kamouraska,47.4680992,-69.7909498,QC_KAM_SWS,RiviÃƒÂ¨re-du-loup,48.5145325390625,-72.21037503125,QC_RDL_TSS,
37037,L3079,Hydro-QuÃƒÂ©bec Transmission,QC,Quebec,1,ac,136.8,84.444,176.7,109.074,315,80.09,508,615,LÃƒÂ©vis,47.05352213664855,-70.28648006181166,QC_LVS_DSS,Kamouraska_SCS,46.773217599999995,-71.67166925000001,QC_KAM_SWS,
37038,L3079,Hydro-QuÃƒÂ©bec Transmission,QC,Quebec,1,ac,39.9,24.63,176.7,109.074,315,80.09,508,615,Kamouraska_SCS,46.773217599999995,-71.67166925000001,QC_KAM_SWS,RiviÃƒÂ¨re-du-loup,48.5145325390625,-72.21037503125,QC_RDL_TSS,
37043,L3082,Hydro-QuÃƒÂ©bec Transmission,QC,Quebec,1,ac,91.2,56.296,91.2,56.296,315,41.34,786,951,RiviÃƒÂ¨re-du-loup,48.5145325390625,-72.21037503125,QC_RDL_TSS,Rimouski,48.450155,-68.529968,QC_RIM_TSS,
37045,L3084,Hydro-QuÃƒÂ©bec Transmission,QC,Quebec,1,ac,79.8,49.259,79.8,49.259,315,36.17,794,960,RiviÃƒÂ¨re-du-loup,48.5145325390625,-72.21037503125,QC_RDL_TSS,Madawaska,47.48593874886473,-68.47194968241556,QC_MAD_SWS,
37047,L3086,Hydro-QuÃƒÂ©bec Transmission,QC,Quebec,1,ac,5.0,3.086,5.0,3.086,315,2.27,794,960,LÃƒÂ©ry,46.621105524432366,-72.10101044120778,QC_LRY_ISS,ChÃƒÂ¢teauguay,42.10617357969873,-80.73001421112517,QC_CHG_DSS,
37049,L3088,Hydro-QuÃƒÂ©bec Transmission,QC,Quebec,1,ac,18.0,11.111,18.0,11.111,315,8.16,794,960,NeufchÃƒÂ¢tel,47.615653025,-71.58264918005034,QC_NEU_DSS,Anne-HÃƒÂ©bert,46.0972334,-72.28033045276038,QC_ANH_DSS,
37050,L3089,Hydro-QuÃƒÂ©bec Transmission,QC,Quebec,1,ac,85.4,52.716,125.4,77.407,315,56.84,637,771,Rimouski,48.450155,-68.529968,QC_RIM_TSS,Le Plateau,45.4405234,-75.7797332,QC_LPT_GSS,
37051,L3089,Hydro-QuÃƒÂ©bec Transmission,QC,Quebec,1,ac,40.0,24.691,125.4,77.407,315,56.84,637,771,Le Plateau,45.4405234,-75.7797332,QC_LPT_GSS,MatapÃƒÂ©dia,48.209062175,-70.36882057380649,QC_MTP_DSS,
37052,L3090,Hydro-QuÃƒÂ©bec Transmission,QC,Quebec,1,ac,74.1,45.741,125.4,77.407,315,56.84,637,771,Rimouski,48.450155,-68.529968,QC_RIM_TSS,Lac-Alfred,48.3957056,-67.75891387347299,QC_LAD_GSS,
37053,L3090,Hydro-QuÃƒÂ©bec Transmission,QC,Quebec,1,ac,51.3,31.667,125.4,77.407,315,56.84,637,771,Lac-Alfred,48.3957056,-67.75891387347299,QC_LAD_GSS,MatapÃƒÂ©dia,48.209062175,-70.36882057380649,QC_MTP_DSS,
37054,L3091,Hydro-QuÃƒÂ©bec Transmission,QC,Quebec,1,ac,17.0,10.494,17.0,10.494,315,7.71,794,960,Langlois,46.728348,-70.54114,QC_LGS_TSS,ChÃƒÂ¢teauguay,42.10617357969873,-80.73001421112517,QC_CHG_DSS,
37056,L3093,Hydro-QuÃƒÂ©bec Transmission,QC,Quebec,1,ac,0.5,0.309,7.5,4.63,315,3.4,794,960,QuÃƒÂ©bec,45.5550553,-74.88500905000001,QC_QBC_TSS,Frontenac-1,45.428991,-75.72145898091603,QC_FR1_DSS,Line name assumed
37057,L3093,Hydro-QuÃƒÂ©bec Transmission,QC,Quebec,1,ac,7.0,4.321,7.5,4.63,315,3.4,794,960,Laurentides,46.6070866,-75.1209782075808,QC_LDS_TSS,QuÃƒÂ©bec,45.5550553,-74.88500905000001,QC_QBC_TSS,
37058,L3094,Hydro-QuÃƒÂ©bec Transmission,QC,Quebec,1,ac,0.5,0.309,7.5,4.63,315,3.4,794,960,QuÃƒÂ©bec,45.5550553,-74.88500905000001,QC_QBC_TSS,Frontenac-2,46.0467294,-71.9918462,QC_FR2_DSS,Line name assumed
37060,L3095,Hydro-QuÃƒÂ©bec Transmission,QC,Quebec,1,ac,136.8,84.444,216.6,133.704,345,96.13,546,714,RiviÃƒÂ¨re-du-Moulin,48.514280078125005,-72.1959420625,QC_RDM_GSS,Laurentides,46.6070866,-75.1209782075808,QC_LDS_TSS,
37061,L3095,Hydro-QuÃƒÂ©bec Transmission,QC,Quebec,1,ac,79.8,49.259,216.6,133.704,345,96.13,546,714,Delisle,48.6020438,-71.6244396,QC_DLS_ISS,RiviÃƒÂ¨re-du-Moulin,48.514280078125005,-72.1959420625,QC_RDM_GSS,
37062,L3096,Hydro-QuÃƒÂ©bec Transmission,QC,Quebec,1,ac,0.5,0.309,0.5,0.309,315,0.23,794,960,Frontenac-1,45.428991,-75.72145898091603,QC_FR1_DSS,Frontenac-2,46.0467294,-71.9918462,QC_FR2_DSS,Line name assumed
37065,L3099,Hydro-QuÃƒÂ©bec Transmission,QC,Quebec,1,ac,7.182,4.433,7.182,4.433,315,3.26,794,960,Chomedey,45.5384715,-73.7427541,QC_CHO_TSS,Saraguay,45.5109688,-73.7495725,QC_SRG_DSS,
37066,L3100,Hydro-QuÃƒÂ©bec Transmission,QC,Quebec,1,ac,84.0,51.852,84.0,51.852,315,38.07,794,960,Jacques-Cartier,45.4037181,-71.9185838,QC_JQC_TSS,Mauricie,47.57124705,-73.20809134761296,QC_MAU_TSS,
37067,L3101,Hydro-QuÃƒÂ©bec Transmission,QC,Quebec,1,ac,73.5,45.37,73.5,45.37,315,33.31,794,960,Leneuf,47.0899776,-72.09585699311879,QC_LNF_DSS,Mauricie,47.57124705,-73.20809134761296,QC_MAU_TSS,
37068,L3102,Hydro-QuÃƒÂ©bec Transmission,QC,Quebec,2,ac,47.25,29.167,47.25,29.167,315,21.42,794,960,Alain-Grandbois,45.536315144898275,-73.66772176508078,QC_AGB_DSS,Mauricie,47.57124705,-73.20809134761296,QC_MAU_TSS,
37069,L3104,Hydro-QuÃƒÂ©bec Transmission,QC,Quebec,1,ac,21.0,12.963,36.75,22.685,315,16.66,794,960,Jacques-Cartier,45.4037181,-71.9185838,QC_JQC_TSS,Duchesnay,46.8572271,-71.195907,QC_DUC_DSS,
37070,L3104,Hydro-QuÃƒÂ©bec Transmission,QC,Quebec,1,ac,15.75,9.722,36.75,22.685,315,16.66,794,960,Duchesnay,46.8572271,-71.195907,QC_DUC_DSS,Laurentides,46.6070866,-75.1209782075808,QC_LDS_TSS,
37073,L3106,Hydro-QuÃƒÂ©bec Transmission,QC,Quebec,1,ac,28.875,17.824,28.875,17.824,315,13.09,794,960,Jacques-Cartier,45.4037181,-71.9185838,QC_JQC_TSS,Deschambault,46.6492,-71.929893,QC_DSM_SWS,
37074,L3107,Hydro-QuÃƒÂ©bec Transmission,QC,Quebec,2,ac,15.75,9.722,16.8,10.37,315,7.61,794,960,Alcoa-Aluminierie de Deschambault SENC,48.90210495,-69.90051355531921,QC_AAD_ISS,Alain-Grandbois,45.536315144898275,-73.66772176508078,QC_AGB_DSS,
37075,L3107,Hydro-QuÃƒÂ©bec Transmission,QC,Quebec,2,ac,1.05,0.648,16.8,10.37,315,7.61,794,960,Deschambault,46.6492,-71.929893,QC_DSM_SWS,Alcoa-Aluminierie de Deschambault SENC,48.90210495,-69.90051355531921,QC_AAD_ISS,
37076,L3110,Hydro-QuÃƒÂ©bec Transmission,QC,Quebec,1,ac,18.375,11.343,44.625,27.546,315,20.23,794,960,Deschambault,46.6492,-71.929893,QC_DSM_SWS,Jacques-Cartier,45.4037181,-71.9185838,QC_JQC_TSS,
37077,L3110,Hydro-QuÃƒÂ©bec Transmission,QC,Quebec,1,ac,26.25,16.204,44.625,27.546,315,20.23,794,960,Jacques-Cartier,45.4037181,-71.9185838,QC_JQC_TSS,NeufchÃƒÂ¢tel,47.615653025,-71.58264918005034,QC_NEU_DSS,
37078,L3115,Hydro-QuÃƒÂ©bec Transmission,QC,Quebec,1,ac,2.28,1.407,61.56,38.0,315,27.9,794,960,Sainte-Marguerite-1,48.316454,-67.084712,QC_SM1_GSS,Arnaud,59.970508094129215,-71.96636733876329,QC_ARN_TSS,
37079,L3115,Hydro-QuÃƒÂ©bec Transmission,QC,Quebec,1,ac,2.28,1.407,61.56,38.0,315,27.9,794,960,Sainte-Marguerite-2,48.315673,-67.084404,QC_SM2_GSS,Sainte-Marguerite-1,48.316454,-67.084712,QC_SM1_GSS,
37080,L3115,Hydro-QuÃƒÂ©bec Transmission,QC,Quebec,1,ac,57.0,35.185,61.56,38.0,315,27.9,794,960,Sainte-Marguerite-3,47.04192365714285,-70.88830578571428,QC_SM3_GSS,Sainte-Marguerite-2,48.315673,-67.084404,QC_SM2_GSS,
37084,L3117,Hydro-QuÃƒÂ©bec Transmission,QC,Quebec,1,ac,28.6,17.654,28.6,17.654,315,12.96,794,960,Outaouais,46.6099678,-76.7719627720078,QC_OUT_TSS,Vignan,45.4970523,-75.70046002521293,QC_VGN_TSS,
37086,L3121,Hydro-QuÃƒÂ©bec Transmission,QC,Quebec,1,ac,108.3,66.852,108.3,66.852,315,49.09,702,849,ChÃƒÂ©nier,41.800283849677214,-81.1742196619198,QC_CHN_TSS,Outaouais,46.6099678,-76.7719627720078,QC_OUT_TSS,
37088,L3123,Hydro-QuÃƒÂ©bec Transmission,QC,Quebec,1,ac,45.6,28.148,45.6,28.148,315,20.67,794,960,Manic-3,49.7407017,-68.5945136447803,QC_MC3_GSS,Toulnustouc,49.9706305,-68.15939380426352,QC_TLC_GSS,
37089,L3127,Hydro-QuÃƒÂ©bec Transmission,QC,Quebec,1,ac,39.9,24.63,39.9,24.63,315,18.08,794,960,Romaine-2,50.6242462,-63.194130997842706,QC_RM2_GSS,Romaine-1,50.38593355,-63.260307946624934,QC_RM1_GSS,
37090,L3129,Hydro-QuÃƒÂ©bec Transmission,QC,Quebec,1,ac,239.4,147.778,239.4,147.778,315,108.51,416,503,Arnaud,59.970508094129215,-71.96636733876329,QC_ARN_TSS,Murailles,48.506437148407514,-70.4648205989948,QC_MUR_TSS,
37091,L3130,Hydro-QuÃƒÂ©bec Transmission,QC,Quebec,1,ac,34.0,20.988,206.0,127.16,315,93.37,459,556,Romaine-4,51.359594900000005,-63.49716299580088,QC_RM4_GSS,Romaine-3,51.11408085,-63.40029252162382,QC_RM3_GSS,
37092,L3130,Hydro-QuÃƒÂ©bec Transmission,QC,Quebec,1,ac,172.0,106.173,206.0,127.16,315,93.37,459,556,Montagnais,47.91461759575676,-71.90657030205759,QC_MTG_TSS,Romaine-4,51.359594900000005,-63.49716299580088,QC_RM4_GSS,
37093,L3131,Hydro-QuÃƒÂ©bec Transmission,QC,Quebec,1,ac,0.2,0.123,0.2,0.123,315,0.09,794,960,Murailles,48.506437148407514,-70.4648205989948,QC_MUR_TSS,Romaine-2,50.6242462,-63.194130997842706,QC_RM2_GSS,
37096,L3150,Hydro-QuÃƒÂ©bec Transmission,QC,Quebec,1,ac,34.2,21.111,142.5,87.963,315,64.59,586,709,Waswanipi,49.6934501,-76.14958691395637,QC_WSW_DSS,Lebel,45.4475221,-75.7380008,QC_LBL_ISS,
37097,L3150,Hydro-QuÃƒÂ©bec Transmission,QC,Quebec,1,ac,108.3,66.852,142.5,87.963,315,64.59,586,709,Abitibi,48.7177241,-77.9142732,QC_ABT_TSS,Waswanipi,49.6934501,-76.14958691395637,QC_WSW_DSS,
37100,L3152,Hydro-QuÃƒÂ©bec Transmission,QC,Quebec,1,ac,57.0,35.185,57.0,35.185,315,25.83,794,960,La Grande-1,48.7151352,6.2596602,QC_LG1_GSS,Radisson,45.5896475,-73.5397875,QC_RAD_TSS,
37102,L3154,Hydro-QuÃƒÂ©bec Transmission,QC,Quebec,1,ac,96.9,59.815,96.9,59.815,315,43.92,755,914,Figuery,48.472466,-78.046188,QC_FIG_TSS,Lebel,45.4475221,-75.7380008,QC_LBL_ISS,
37104,L3162,Hydro-QuÃƒÂ©bec Transmission,QC,Quebec,2,ac,11.4,7.037,11.4,7.037,315,5.17,794,960,La Grande-2A,53.780807,-77.54891330388159,QC_LG2A_GSS,Radisson,45.5896475,-73.5397875,QC_RAD_TSS,
37106,L3166,Hydro-QuÃƒÂ©bec Transmission,QC,Quebec,1,ac,62.7,38.704,62.7,38.704,315,28.42,794,960,Brisay,54.442568,-70.5306507,QC_BSY_GSS,Laforge-2,47.5962712,-79.4853307,QC_LF2_GSS,
37108,L3168,Hydro-QuÃƒÂ©bec Transmission,QC,Quebec,1,ac,108.3,66.852,108.3,66.852,315,49.09,702,849,Nikamo,47.379694349999994,-71.884613933225,QC_NIK_SWS,Laforge-2,47.5962712,-79.4853307,QC_LF2_GSS,
37110,L3170,Hydro-QuÃƒÂ©bec Transmission,QC,Quebec,1,ac,5.7,3.519,5.7,3.519,315,2.58,794,960,Nikamo,47.379694349999994,-71.884613933225,QC_NIK_SWS,Laforge-1,54.1704862,-72.6042223,QC_LF1_GSS,
37112,L3172,Hydro-QuÃƒÂ©bec Transmission,QC,Quebec,1,ac,79.8,49.259,79.8,49.259,315,36.17,794,960,Nikamo,47.379694349999994,-71.884613933225,QC_NIK_SWS,Tilly,46.6467078,-71.53878952334757,QC_TLY_TSS,
37114,L3176,Hydro-QuÃƒÂ©bec Transmission,QC,Quebec,1,ac,47.88,29.556,47.88,29.556,315,21.7,794,960,Nemiscau,51.6879428,-76.2568664,QC_NEM_DSS,Eastmain-1,52.222154,-78.25610960481026,QC_EM1_GSS,
37116,L3186,Hydro-QuÃƒÂ©bec Transmission,QC,Quebec,1,ac,13.4,8.272,48.425,29.892,315,21.95,794,960,Le FranÃƒÂ§ois,46.25509825,-72.38094510204567,QC_LEF_DSS,Beauport,46.89834915,-71.2062892476116,QC_BPT_DSS,
37117,L3186,Hydro-QuÃƒÂ©bec Transmission,QC,Quebec,1,ac,11.4,7.037,48.425,29.892,315,21.95,794,960,Beauport,46.89834915,-71.2062892476116,QC_BPT_DSS,Laurentides,46.6070866,-75.1209782075808,QC_LDS_TSS,
37118,L3186,Hydro-QuÃƒÂ©bec Transmission,QC,Quebec,1,ac,23.625,14.583,48.425,29.892,315,21.95,794,960,BeauprÃƒÂ©,46.009434275,-72.09740267380579,QC_BPR_DSS,Le FranÃƒÂ§ois,46.25509825,-72.38094510204567,QC_LEF_DSS,
37119,L3187,Hydro-QuÃƒÂ©bec Transmission,QC,Quebec,1,ac,34.2,21.111,91.2,56.296,315,41.34,786,951,Charlevoix,47.6493447,-70.7362215,QC_CHX_DSS,Baie-Saint-Paul,47.444343,-70.505447,QC_BSP_DSS,
37120,L3187,Hydro-QuÃƒÂ©bec Transmission,QC,Quebec,1,ac,22.8,14.074,91.2,56.296,315,41.34,786,951,Seigneurie de BeauprÃƒÂ©,48.4783075,-72.46547699999999,QC_SDB_GSS,BeauprÃƒÂ©,46.009434275,-72.09740267380579,QC_BPR_DSS,
37121,L3187,Hydro-QuÃƒÂ©bec Transmission,QC,Quebec,1,ac,34.2,21.111,91.2,56.296,315,41.34,786,951,Baie-Saint-Paul,47.444343,-70.505447,QC_BSP_DSS,Seigneurie de BeauprÃƒÂ©,48.4783075,-72.46547699999999,QC_SDB_GSS,
37122,L3188,Hydro-QuÃƒÂ©bec Transmission,QC,Quebec,1,ac,57.0,35.185,80.625,49.769,315,36.54,794,960,Baie-Saint-Paul,47.444343,-70.505447,QC_BSP_DSS,BeauprÃƒÂ©,46.009434275,-72.09740267380579,QC_BPR_DSS,
37124,L3189,Hydro-QuÃƒÂ©bec Transmission,QC,Quebec,1,ac,79.8,49.259,79.8,49.259,315,36.17,794,960,Sarcelle,52.6678087,-76.63236835023662,QC_SRC_GSS,Eastmain-1,52.222154,-78.25610960481026,QC_EM1_GSS,
37127,L3198,Hydro-QuÃƒÂ©bec Transmission,QC,Quebec,1,ac,2.394,1.478,5.586,3.448,315,2.53,794,960,Dorchester,46.81331905,-71.22569952266213,QC_DOR_DSS,De Lorimier,45.53751455,-73.58010120996488,QC_DEL_DSS,
37128,L3198,Hydro-QuÃƒÂ©bec Transmission,QC,Quebec,1,ac,3.192,1.97,5.586,3.448,315,2.53,794,960,Viger,45.51254115,-73.55318567035573,QC_VIG_SWS,Dorchester,46.81331905,-71.22569952266213,QC_DOR_DSS,
37129,L3199,Hydro-QuÃƒÂ©bec Transmission,QC,Quebec,1,ac,5.586,3.448,5.586,3.448,315,2.53,794,960,Viger,45.51254115,-73.55318567035573,QC_VIG_SWS,De Lorimier,45.53751455,-73.58010120996488,QC_DEL_DSS,
37130,L3210,Hydro-QuÃƒÂ©bec Transmission,QC,Quebec,1,ac,13.965,8.62,15.295,9.441,315,6.93,794,960,Jean-R Marcotte,47.84656455,-67.36247245,QC_JRM_ISS,Duvernay,45.5935503,-73.6699909,QC_DUV_TSS,
37131,L3210,Hydro-QuÃƒÂ©bec Transmission,QC,Quebec,1,ac,1.33,0.821,15.295,9.441,315,6.93,794,960,Bout-de-lÃƒÅ½le,49.970961200000005,-72.05002239999999,QC_BDI_DSS,Jean-R Marcotte,47.84656455,-67.36247245,QC_JRM_ISS,Line name assumed. 
37132,L3211,Hydro-QuÃƒÂ©bec Transmission,QC,Quebec,1,ac,14.364,8.867,14.364,8.867,315,6.51,794,960,Bout-de-lÃƒÅ½le,49.970961200000005,-72.05002239999999,QC_BDI_DSS,Duvernay,45.5935503,-73.6699909,QC_DUV_TSS,
37134,L4003,Hydro-QuÃƒÂ©bec Transmission,QC,Quebec,1,dc,148.2,91.481,835.62,515.815,450,,1000,1000,Rapide-Blanc,47.790592450000005,-72.96269459384149,QC_RPB_TSS,Grondines,46.592662,-72.0406309,QC_GRO_SWS,
37135,L4003,Hydro-QuÃƒÂ©bec Transmission,QC,Quebec,1,dc,687.42,424.333,835.62,515.815,450,,1000,1000,Radisson,45.5896475,-73.5397875,QC_RAD_TSS,Rapide-Blanc,47.790592450000005,-72.96269459384149,QC_RPB_TSS,
37138,L4005,Hydro-QuÃƒÂ©bec Transmission,QC,Quebec,1,dc,5.7,3.519,5.7,3.519,450,,1000,1000,Grondines,46.592662,-72.0406309,QC_GRO_SWS,LotbiniÃƒÂ¨re,47.71233825,-78.3661288,QC_LTB_SWS,
37140,L4007,Hydro-QuÃƒÂ©bec Transmission,QC,Quebec,1,dc,68.4,42.222,68.4,42.222,450,,1000,1000,LotbiniÃƒÂ¨re,47.71233825,-78.3661288,QC_LTB_SWS,Nicolet,46.2272898,-72.6192665,QC_NIC_TSS,
37142,L4009,Hydro-QuÃƒÂ©bec Transmission,QC,Quebec,1,dc,79.8,49.259,79.8,49.259,450,,1000,1000,Nicolet,46.2272898,-72.6192665,QC_NIC_TSS,Des Cantons,46.414044,-70.5966801,QC_DEC_TSS,
37144,L7002,Hydro-QuÃƒÂ©bec Transmission,QC,Quebec,1,ac,183.75,113.426,183.75,113.426,735,69.83,3745,4045,Carignan,45.437955,-73.3554902,QC_CRG_TSS,Jacques-Cartier,45.4037181,-71.9185838,QC_JQC_TSS,
37145,L7004,Hydro-QuÃƒÂ©bec Transmission,QC,Quebec,1,ac,159.6,98.519,365.94,225.889,735,139.06,2378,2568,PÃƒÂ©rigny,48.098751322075486,-76.14549386781971,QC_PER_SWS,Laurentides,46.6070866,-75.1209782075808,QC_LDS_TSS,
37146,L7004,Hydro-QuÃƒÂ©bec Transmission,QC,Quebec,1,ac,206.34,127.37,365.94,225.889,735,139.06,2378,2568,Outardes,50.7771784,-69.3811298,QC_OTD_TSS,PÃƒÂ©rigny,48.098751322075486,-76.14549386781971,QC_PER_SWS,L7004 rerouted to Outardes substation
37147,L7005,Hydro-QuÃƒÂ©bec Transmission,QC,Quebec,1,ac,115.5,71.296,115.5,71.296,735,43.89,5087,5494,Nicolet,46.2272898,-72.6192665,QC_NIC_TSS,LÃƒÂ©vis,47.05352213664855,-70.28648006181166,QC_LVS_DSS,
37148,L7006,Hydro-QuÃƒÂ©bec Transmission,QC,Quebec,1,ac,26.25,16.204,141.75,87.5,735,53.87,4444,4800,Hertel,46.3439278,-72.53696442909092,QC_HRT_TSS,Boucherville,45.6050197,-73.4526144,QC_BCH_TSS,
37149,L7006,Hydro-QuÃƒÂ©bec Transmission,QC,Quebec,1,ac,115.5,71.296,141.75,87.5,735,53.87,4444,4800,Boucherville,45.6050197,-73.4526144,QC_BCH_TSS,Nicolet,46.2272898,-72.6192665,QC_NIC_TSS,
37150,L7007,Hydro-QuÃƒÂ©bec Transmission,QC,Quebec,1,ac,131.1,80.926,348.84,215.333,735,132.56,2454,2650,Manicouagan,50.4356692,-68.7676678,QC_MGN_TSS,Bergeronnes,48.243882,-69.545517,QC_BRG_SWS,
37151,L7007,Hydro-QuÃƒÂ©bec Transmission,QC,Quebec,1,ac,217.74,134.407,348.84,215.333,735,132.56,2454,2650,Bergeronnes,48.243882,-69.545517,QC_BRG_SWS,LÃƒÂ©vis,47.05352213664855,-70.28648006181166,QC_LVS_DSS,
37154,L7009,Hydro-QuÃƒÂ©bec Transmission,QC,Quebec,1,ac,15.75,9.722,15.75,9.722,735,5.99,6003,6483,Boucherville,45.6050197,-73.4526144,QC_BCH_TSS,Bout-de-lÃƒÅ½le,49.970961200000005,-72.05002239999999,QC_BDI_DSS,
37155,L7010,Hydro-QuÃƒÂ©bec Transmission,QC,Quebec,1,ac,30.0,18.519,30.0,18.519,735,11.4,6003,6483,Laurentides,46.6070866,-75.1209782075808,QC_LDS_TSS,LÃƒÂ©vis,47.05352213664855,-70.28648006181166,QC_LVS_DSS,
37156,L7011,Hydro-QuÃƒÂ©bec Transmission,QC,Quebec,1,ac,47.88,29.556,47.88,29.556,735,18.19,6003,6483,Outardes,50.7771784,-69.3811298,QC_OTD_TSS,Manicouagan,50.4356692,-68.7676678,QC_MGN_TSS,L7011 terminated at Outardes substation
37157,L7014,Hydro-QuÃƒÂ©bec Transmission,QC,Quebec,1,ac,52.5,32.407,52.5,32.407,735,19.95,6003,6483,Boucherville,45.6050197,-73.4526144,QC_BCH_TSS,Carignan,45.437955,-73.3554902,QC_CRG_TSS,
37158,L7016,Hydro-QuÃƒÂ©bec Transmission,QC,Quebec,1,ac,229.14,141.444,229.14,141.444,735,87.07,3238,3497,La VÃƒÂ©rendrye,50.135235675,-70.01441771673795,QC_LVR_TSS,Duvernay,45.5935503,-73.6699909,QC_DUV_TSS,
37159,L7017,Hydro-QuÃƒÂ©bec Transmission,QC,Quebec,1,ac,223.44,137.926,223.44,137.926,735,84.91,3292,3556,Jacques-Cartier,45.4037181,-71.9185838,QC_JQC_TSS,Bout-de-lÃƒÅ½le,49.970961200000005,-72.05002239999999,QC_BDI_DSS,
37160,L7018,Hydro-QuÃƒÂ©bec Transmission,QC,Quebec,1,ac,165.3,102.037,165.3,102.037,735,62.81,4016,4337,Jacques-Cartier,45.4037181,-71.9185838,QC_JQC_TSS,Saguenay,48.405959,-71.069183,QC_SAG_TSS,
37161,L7019,Hydro-QuÃƒÂ©bec Transmission,QC,Quebec,1,ac,229.14,141.444,229.14,141.444,735,87.07,3238,3497,Micoua,48.43760645,-74.52958733752216,QC_MIC_TSS,Saguenay,48.405959,-71.069183,QC_SAG_TSS,
37162,L7020,Hydro-QuÃƒÂ©bec Transmission,QC,Quebec,1,ac,28.5,17.593,28.5,17.593,735,10.83,6003,6483,Jacques-Cartier,45.4037181,-71.9185838,QC_JQC_TSS,Laurentides,46.6070866,-75.1209782075808,QC_LDS_TSS,
37166,L7024,Hydro-QuÃƒÂ©bec Transmission,QC,Quebec,1,ac,194.94,120.333,194.94,120.333,735,74.08,3602,3890,Jacques-Cartier,45.4037181,-71.9185838,QC_JQC_TSS,Chamouchouane,47.61567325,-74.0754878,QC_CHM_SWS,
37168,L7026,Hydro-QuÃƒÂ©bec Transmission,QC,Quebec,1,ac,114.0,70.37,114.0,70.37,735,43.32,5131,5542,Saguenay,48.405959,-71.069183,QC_SAG_TSS,Chamouchouane,47.61567325,-74.0754878,QC_CHM_SWS,
37169,L7027,Hydro-QuÃƒÂ©bec Transmission,QC,Quebec,1,ac,136.8,84.444,136.8,84.444,735,51.98,4550,4914,Arnaud,59.970508094129215,-71.96636733876329,QC_ARN_TSS,Manic-3,49.7407017,-68.5945136447803,QC_MC3_GSS,
37170,L7028,Hydro-QuÃƒÂ©bec Transmission,QC,Quebec,1,ac,153.9,95.0,153.9,95.0,735,58.48,4210,4547,Arnaud,59.970508094129215,-71.96636733876329,QC_ARN_TSS,Manicouagan,50.4356692,-68.7676678,QC_MGN_TSS,
37172,L7031,Hydro-QuÃƒÂ©bec Transmission,QC,Quebec,1,ac,217.74,134.407,217.74,134.407,735,82.74,3349,3617,Montagnais,47.91461759575676,-71.90657030205759,QC_MTG_TSS,Arnaud,59.970508094129215,-71.96636733876329,QC_ARN_TSS,
37178,L7038,Hydro-QuÃƒÂ©bec Transmission,QC,Quebec,1,ac,52.5,32.407,52.5,32.407,5,19.95,6003,6483,ChÃƒÂ¢teauguay,42.10617357969873,-80.73001421112517,QC_CHG_DSS,Hertel,46.3439278,-72.53696442909092,QC_HRT_TSS,
37179,L7042,Hydro-QuÃƒÂ©bec Transmission,QC,Quebec,1,ac,99.75,61.574,99.75,61.574,735,37.91,5604,6052,ChÃƒÂ¢teauguay,42.10617357969873,-80.73001421112517,QC_CHG_DSS,ChÃƒÂ©nier,41.800283849677214,-81.1742196619198,QC_CHN_TSS,
37180,L7044,Hydro-QuÃƒÂ©bec Transmission,QC,Quebec,1,ac,239.4,147.778,239.4,147.778,735,90.97,3146,3397,La VÃƒÂ©rendrye,50.135235675,-70.01441771673795,QC_LVR_TSS,ChÃƒÂ©nier,41.800283849677214,-81.1742196619198,QC_CHN_TSS,
37181,L7045,Hydro-QuÃƒÂ©bec Transmission,QC,Quebec,1,ac,159.6,98.519,159.6,98.519,735,60.65,4110,4439,La VÃƒÂ©rendrye,50.135235675,-70.01441771673795,QC_LVR_TSS,Grand-BrulÃƒÂ©,47.13777640824045,-73.11296058588414,QC_GRB_TSS,
37182,L7046,Hydro-QuÃƒÂ©bec Transmission,QC,Quebec,1,ac,31.5,19.444,42.0,25.926,735,15.96,6003,6483,Judith-Jasmin,45.717545900000005,-73.72539926505519,QC_JUJ_DSS,ChÃƒÂ©nier,41.800283849677214,-81.1742196619198,QC_CHN_TSS,
37183,L7046,Hydro-QuÃƒÂ©bec Transmission,QC,Quebec,1,ac,10.5,6.481,42.0,25.926,735,15.96,6003,6483,Duvernay,45.5935503,-73.6699909,QC_DUV_TSS,Judith-Jasmin,45.717545900000005,-73.72539926505519,QC_JUJ_DSS,
37184,L7047,Hydro-QuÃƒÂ©bec Transmission,QC,Quebec,1,ac,79.8,49.259,79.8,49.259,735,30.32,6003,6483,Grand-BrulÃƒÂ©,47.13777640824045,-73.11296058588414,QC_GRB_TSS,ChÃƒÂ©nier,41.800283849677214,-81.1742196619198,QC_CHN_TSS,
37185,L7048,Hydro-QuÃƒÂ©bec Transmission,QC,Quebec,1,ac,73.5,45.37,73.5,45.37,735,27.93,6003,6483,MontÃƒÂ©rÃƒÂ©gie,46.4257640625,-72.13114978374287,QC_MTR_TSS,Des Cantons,46.414044,-70.5966801,QC_DEC_TSS,
37186,L7049,Hydro-QuÃƒÂ©bec Transmission,QC,Quebec,1,ac,78.75,48.611,78.75,48.611,735,29.93,6003,6483,Hertel,46.3439278,-72.53696442909092,QC_HRT_TSS,MontÃƒÂ©rÃƒÂ©gie,46.4257640625,-72.13114978374287,QC_MTR_TSS,
37187,L7054,Hydro-QuÃƒÂ©bec Transmission,QC,Quebec,1,ac,102.6,63.333,102.6,63.333,735,38.99,5500,5941,Le Moyne,46.958114,-71.0393319,QC_LEM_SWS,Tilly,46.6467078,-71.53878952334757,QC_TLY_TSS,
37190,L7057,Hydro-QuÃƒÂ©bec Transmission,QC,Quebec,1,ac,96.9,59.815,96.9,59.815,735,36.82,5712,6169,Le Moyne,46.958114,-71.0393319,QC_LEM_SWS,Chissibi,53.733769800000005,-76.00903082363152,QC_CHS_SWS,
37191,L7059,Hydro-QuÃƒÂ©bec Transmission,QC,Quebec,1,ac,234.84,144.963,234.84,144.963,735,89.24,3186,3441,Albanel,48.883683,-72.442474,QC_ALB_SWS,Chissibi,53.733769800000005,-76.00903082363152,QC_CHS_SWS,
37192,L7060,Hydro-QuÃƒÂ©bec Transmission,QC,Quebec,1,ac,136.8,84.444,136.8,84.444,735,51.98,4550,4914,La Grande-2,45.3816858,-72.8412893,QC_LG2_GSS,Chissibi,53.733769800000005,-76.00903082363152,QC_CHS_SWS,
37193,L7061,Hydro-QuÃƒÂ©bec Transmission,QC,Quebec,1,ac,240.54,148.481,240.54,148.481,735,91.41,3136,3387,La Grande-2,45.3816858,-72.8412893,QC_LG2_GSS,Nemiscau,51.6879428,-76.2568664,QC_NEM_DSS,
37194,L7062,Hydro-QuÃƒÂ©bec Transmission,QC,Quebec,1,ac,246.24,152.0,246.24,152.0,735,93.57,3088,3335,Radisson,45.5896475,-73.5397875,QC_RAD_TSS,Nemiscau,51.6879428,-76.2568664,QC_NEM_DSS,
37196,L7066,Hydro-QuÃƒÂ©bec Transmission,QC,Quebec,1,ac,2.28,1.407,2.28,1.407,735,0.87,6003,6483,Chissibi,53.733769800000005,-76.00903082363152,QC_CHS_SWS,La Grande-3,53.7274814,-75.98719657432466,QC_LG3_GSS,
37199,L7069,Hydro-QuÃƒÂ©bec Transmission,QC,Quebec,1,ac,194.94,120.333,194.94,120.333,735,74.08,3602,3890,Le Moyne,46.958114,-71.0393319,QC_LEM_SWS,Albanel,48.883683,-72.442474,QC_ALB_SWS,
37201,L7071,Hydro-QuÃƒÂ©bec Transmission,QC,Quebec,1,ac,2.28,1.407,2.28,1.407,735,0.87,6003,6483,Tilly,46.6467078,-71.53878952334757,QC_TLY_TSS,La Grande-4,53.878361350000006,-73.46849868419923,QC_LG4_GSS,
37204,L7076,Hydro-QuÃƒÂ©bec Transmission,QC,Quebec,1,ac,212.04,130.889,212.04,130.889,735,80.58,3408,3680,Albanel,48.883683,-72.442474,QC_ALB_SWS,Chibougamau,49.9137407,-74.3713954,QC_CHB_TSS,
37207,L7079,Hydro-QuÃƒÂ©bec Transmission,QC,Quebec,1,ac,34.2,21.111,34.2,21.111,735,13.0,6003,6483,Albanel,48.883683,-72.442474,QC_ALB_SWS,Nemiscau,51.6879428,-76.2568664,QC_NEM_DSS,
37208,L7080,Hydro-QuÃƒÂ©bec Transmission,QC,Quebec,1,ac,251.94,155.519,251.94,155.519,735,95.74,3042,3285,Abitibi,48.7177241,-77.9142732,QC_ABT_TSS,Nemiscau,51.6879428,-76.2568664,QC_NEM_DSS,
37211,L7084,Hydro-QuÃƒÂ©bec Transmission,QC,Quebec,1,ac,171.0,105.556,171.0,105.556,735,64.98,3927,4241,Chamouchouane,47.61567325,-74.0754878,QC_CHM_SWS,Chibougamau,49.9137407,-74.3713954,QC_CHB_TSS,
37214,L7088,Hydro-QuÃƒÂ©bec Transmission,QC,Quebec,1,ac,11.4,7.037,11.4,7.037,735,4.33,6003,6483,La Grande-2,45.3816858,-72.8412893,QC_LG2_GSS,Radisson,45.5896475,-73.5397875,QC_RAD_TSS,
37216,L7090,Hydro-QuÃƒÂ©bec Transmission,QC,Quebec,1,ac,57.0,35.185,57.0,35.185,735,21.66,6003,6483,Abitibi,48.7177241,-77.9142732,QC_ABT_TSS,Chibougamau,49.9137407,-74.3713954,QC_CHB_TSS,
37217,L7092,Hydro-QuÃƒÂ©bec Transmission,QC,Quebec,1,ac,240.54,148.481,240.54,148.481,735,91.41,3136,3387,Abitibi,48.7177241,-77.9142732,QC_ABT_TSS,La VÃƒÂ©rendrye,50.135235675,-70.01441771673795,QC_LVR_TSS,
37220,L7095,Hydro-QuÃƒÂ©bec Transmission,QC,Quebec,1,ac,78.75,48.611,97.125,59.954,735,36.91,5703,6159,MÃƒÂ©tallurgie Magnola Inc,45.60112464355093,-73.03682001237435,QC_MMI_ISS,Appalaches,46.5895686,-71.01398860552078,QC_APP_TSS,
37221,L7095,Hydro-QuÃƒÂ©bec Transmission,QC,Quebec,1,ac,18.375,11.343,97.125,59.954,735,36.91,5703,6159,Des Cantons,46.414044,-70.5966801,QC_DEC_TSS,MÃƒÂ©tallurgie Magnola Inc,45.60112464355093,-73.03682001237435,QC_MMI_ISS,
37223,L7096,Hydro-QuÃƒÂ©bec Transmission,QC,Quebec,1,ac,57.75,35.648,76.125,46.991,735,28.93,6003,6483,MÃƒÂ©tallurgie Magnola Inc,45.60112464355093,-73.03682001237435,QC_MMI_ISS,Nicolet,46.2272898,-72.6192665,QC_NIC_TSS,
37224,L7097,Hydro-QuÃƒÂ©bec Transmission,QC,Quebec,1,ac,84.0,51.852,84.0,51.852,735,31.92,6003,6483,Appalaches,46.5895686,-71.01398860552078,QC_APP_TSS,LÃƒÂ©vis,47.05352213664855,-70.28648006181166,QC_LVS_DSS,
37225,L7099,Hydro-QuÃƒÂ©bec Transmission,QC,Quebec,1,ac,1.05,0.648,1.05,0.648,735,0.4,6003,6483,IREQ,45.6208649,-73.3791213,QC_IRQ_ISS,Boucherville,45.6050197,-73.4526144,QC_BCH_TSS,
37226,L7100,Hydro-QuÃƒÂ©bec Transmission,QC,Quebec,1,ac,7.98,4.926,7.98,4.926,735,3.03,6003,6483,Outardes,50.7771784,-69.3811298,QC_OTD_TSS,Micoua,48.43760645,-74.52958733752216,QC_MIC_TSS,
37228,L7102,Hydro-QuÃƒÂ©bec Transmission,QC,Quebec,1,ac,13.125,8.102,13.125,8.102,735,4.99,6003,6483,Duvernay,45.5935503,-73.6699909,QC_DUV_TSS,Bout-de-lÃƒÅ½le,49.970961200000005,-72.05002239999999,QC_BDI_DSS,
37229,L7103,Hydro-QuÃƒÂ©bec Transmission,QC,Quebec,1,ac,367.08,226.593,367.08,226.593,735,139.49,2373,2563,Chamouchouane,47.61567325,-74.0754878,QC_CHM_SWS,Judith-Jasmin,45.717545900000005,-73.72539926505519,QC_JUJ_DSS,
37231,L7109,Hydro-QuÃƒÂ©bec Transmission,QC,Quebec,1,ac,31.92,19.704,31.92,19.704,735,12.13,6003,6483,Romaine-3,51.11408085,-63.40029252162382,QC_RM3_GSS,Romaine-4,51.359594900000005,-63.49716299580088,QC_RM4_GSS,Line name assumed
37232,L7110,Hydro-QuÃƒÂ©bec Transmission,QC,Quebec,1,ac,175.56,108.37,175.56,108.37,735,66.71,3860,4168,Romaine-4,51.359594900000005,-63.49716299580088,QC_RM4_GSS,Montagnais,47.91461759575676,-71.90657030205759,QC_MTG_TSS,Line name assumed
37233,L8313,Hydro-QuÃƒÂ©bec Transmission,QC,Quebec,1,ac,11.4,7.037,11.4,7.037,120,4.8,107,118,Rapides-des-Iles,48.3529811,-72.2176902,QC_RPI_GSS,Notre-Dame-du-Nord,47.593199,-79.487457,QC_NDN_DSS,
37234,L9001,Rio Tinto Alcan,QC,Quebec,1,ac,2.8,1.728,5.6,3.457,161,2.52,193,212,Chute-ÃƒÂ -Caron,43.94151195982785,-78.06478150635724,QC_CAC_GSS,Shipshaw,48.4598044,-71.2609844,QC_SPS_GSS,
37235,L9001,Rio Tinto Alcan,QC,Quebec,1,ac,2.8,1.728,5.6,3.457,161,2.52,193,212,Shipshaw,48.4598044,-71.2609844,QC_SPS_GSS,Usine JonquiÃƒÂ¨re,46.087992687500005,-73.52151267412239,QC_UJQ_DSS,
37244,L9010,Rio Tinto Alcan,QC,Quebec,1,ac,30.8,19.012,33.6,20.741,161,15.12,193,212,LIsle Maligne,48.24803608346079,-71.1606503480042,QC_LIM_ISS,Chute-ÃƒÂ -Caron,43.94151195982785,-78.06478150635724,QC_CAC_GSS,
37245,L9010,Rio Tinto Alcan,QC,Quebec,1,ac,2.8,1.728,33.6,20.741,161,15.12,193,212,LIsle Maligne,48.24803608346079,-71.1606503480042,QC_LIM_ISS,Usine Alma,48.58529825,-71.69103529648955,QC_UAL_ISS,
37250,L9013,Hydro-QuÃƒÂ©bec Transmission,QC,Quebec,1,ac,38.0,23.457,38.0,23.457,161,17.1,193,212,LIsle Maligne,48.24803608346079,-71.1606503480042,QC_LIM_ISS,Usine JonquiÃƒÂ¨re,46.087992687500005,-73.52151267412239,QC_UJQ_DSS,
37254,L9019,Hydro-QuÃƒÂ©bec Transmission,QC,Quebec,1,ac,22.4,13.827,22.4,13.827,161,10.08,193,212,Chute-du-diable,46.3886298,-74.5111379,QC_CDD_GSS,LIsle Maligne,48.24803608346079,-71.1606503480042,QC_LIM_ISS,
37256,L9021,Hydro-QuÃƒÂ©bec Transmission,QC,Quebec,1,ac,16.8,10.37,25.2,15.556,161,11.34,193,212,Chute-ÃƒÂ -la-Savane,42.71795303974177,-79.84160330953586,QC_CAS_GSS,LÃƒÅ½le,47.26973044275664,-69.37921487211361,QC_LIL_DSS,
37257,L9021,Hydro-QuÃƒÂ©bec Transmission,QC,Quebec,1,ac,8.4,5.185,25.2,15.556,161,11.34,193,212,LÃƒÅ½le,47.26973044275664,-69.37921487211361,QC_LIL_DSS,LIsle Maligne,48.24803608346079,-71.1606503480042,QC_LIM_ISS,
37260,L9027,Hydro-QuÃƒÂ©bec Transmission,QC,Quebec,1,ac,28.5,17.593,28.5,17.593,161,12.83,193,212,Mistassini,48.892019,-72.2084055,QC_MIS_DSS,Chute-ÃƒÂ -la-Savane,42.71795303974177,-79.84160330953586,QC_CAS_GSS,
37262,L9061,Rio Tinto Alcan,QC,Quebec,1,ac,136.8,84.444,136.8,84.444,315,62.0,602,728,Chute-des-Passes,49.818166,-71.1480664,QC_CDP_DSS,Delisle,48.6020438,-71.6244396,QC_DLS_ISS,
37264,L9065,Rio Tinto Alcan,QC,Quebec,1,ac,16.0,9.877,39.0,24.074,161,17.55,193,212,Usine JonquiÃƒÂ¨re,46.087992687500005,-73.52151267412239,QC_UJQ_DSS,Du Portage,47.7672259,-69.6105212,QC_DPT_DSS,
37265,L9065,Rio Tinto Alcan,QC,Quebec,1,ac,23.0,14.198,39.0,24.074,161,17.55,193,212,Usine JonquiÃƒÂ¨re,46.087992687500005,-73.52151267412239,QC_UJQ_DSS,Port-Alfred,48.3290069,-70.8788924,QC_PAF_DSS,
37268,L9067,Rio Tinto Alcan,QC,Quebec,1,ac,23.0,14.198,23.28,14.37,161,10.48,193,212,Usine JonquiÃƒÂ¨re,46.087992687500005,-73.52151267412239,QC_UJQ_DSS,AluminiÃƒÂ¨re Grande-Baie Alcan,48.9689248625,-75.19714153220895,QC_AGA_ISS,
37269,L9067,Rio Tinto Alcan,QC,Quebec,1,ac,0.28,0.173,23.28,14.37,161,10.48,193,212,AluminiÃƒÂ¨re Grande-Baie Alcan,48.9689248625,-75.19714153220895,QC_AGA_ISS,La Baie,48.405959,-71.069183,QC_LAB_DSS,
37272,MATI,Brookfield Renewable Energy,QC,Quebec,1,ac,0.88,0.543,0.88,0.543,120,0.37,107,118,Masson-Nord,45.5454175,-75.4213652,QC_MSN_DSS,Interconnexion-Maclaren,45.438993499999995,-72.7591992,QC_INM_SWS,
37273,MM1-MM2,Brookfield Renewable Energy,QC,Quebec,2,ac,1.1,0.679,1.1,0.679,120,0.46,107,118,Papier Masson Inc,45.5610636,-74.2954117,QC_PMI_ISS,Masson-Nord,45.5454175,-75.4213652,QC_MSN_DSS,
